,LOCCODE,PreK_Type,Borough,LocName,NOTE,phone,address,Postcode,Day_Length,Seats,X,Y,Email,Website,MEALS,INDOOR_OUTDOOR,EXTENDED_DAY,SEMS_CODE,Latitude,Longitude,Community Board,Council District ,Census Tract,BIN,BBL,NTA
1421,XAML,NYCEEC,X,Just 4 Kids Tremont,,917-217-1781,3881 East Tremont,10465,1,12,1034238,239286,Djust4kids@aol.com,,3,3,1,08XAML,40.823246000000005,-73.819661,10,13,158,2077132.0,2054390007.0,Schuylerville-Throgs Neck-Edgewater Park                                   
1466,XAAF,NYCEEC,X,Howard Haber ELC,,718-409-1450,2300 Westchester Ave,10462,1,12,1026276,243570,Francine.Rykman@ahrcnyc.org,http://schools.ahrcnyc.org,6,3,2,11XAAF,40.835725,-73.847942,10,18,96,2087040.0,2038340081.0,Westchester-Unionport                                                      
1480,X001,DOE,X,P.S. 001 Courtlandt School,,718-292-9191,335 East 152 St,10451,1,36,1006649,237683,dgalarza@schools.nyc.gov,http://ps1x.org,2,3,3,07X001,40.818816,-73.91901,1,17,67,2001881.0,2024110119.0,Melrose South-Mott Haven North                                             
1481,X003,DOE,X,P.S. 3 Raul Julia Micro Society,,718-584-1899,2100 Lafontaine Ave,10457,1,60,1014171,249042,mortiz21@schools.nyc.gov,http://schools.nyc.gov/schoolportals/10/x003,2,3,3,10X003,40.849897,-73.892289,6,15,37504,2099356.0,2030620043.0,East Tremont                                                               
1482,X004,DOE,X,P.S. / M.S. 004 Crotona Park West,,718-583-6655,1701 Fulton Ave,10457,1,36,1012480,245915,vresto@schools.nyc.gov,http://schools.nyc.gov/schoolportals/09/x004,3,3,3,09X004,40.840891,-73.898166,3,15,165,2009659.0,2029300001.0,Claremont-Bathgate                                                         
1483,X005,DOE,X,P.S. 5 Port Morris,,718-292-2683,564 Jackson Ave,10455,1,36,1009538,235709,mpadill@schools.nyc.gov,http://schools.nyc.gov/schoolportals/07/x005,2,3,3,07X005,40.813728000000005,-73.908886,1,8,73,2004548.0,2026420001.0,Melrose South-Mott Haven North                                             
1484,X006,DOE,X,P.S. 006 West Farms,,718-542-7676,1000 East Tremont Ave,10460,1,72,1016803,245588,jyoung6@schools.nyc.gov,http://schools.nyc.gov/schoolportals/12/x006,2,3,3,12X006,40.840755,-73.88170699999999,6,17,359,2010892.0,2030050010.0,East Tremont                                                               
1485,X009,DOE,X,P.S. 9 Ryer Avenue Elementary School,,718-584-3291,230 East 183 St,10458,1,98,1012258,251425,jbailey5@schools.nyc.gov,http://schools.nyc.gov/schoolportals/10/x009,3,1,3,10X009,40.857067,-73.89893599999999,5,15,38301,2013561.0,2031500010.0,Fordham South                                                              
1486,X016,DOE,X,P.S. 016 Wakefield,,718-324-1262,4550 Carpenter Ave,10470,1,54,1024477,268049,ywillia5@schools.nyc.gov,http://schools.nyc.gov/schoolportals/11/x016,2,7,3,11X016,40.902205,-73.85482900000001,12,11,414,2070894.0,2050760031.0,Woodlawn-Wakefield                                                         
1487,X018,DOE,X,P.S. 018 John Peter Zenger,,718-292-2868,502 Morris Ave,10451,1,36,1005598,236750,lsewell3@schools.nyc.gov,http://schools.nyc.gov/schoolportals/07/x018,2,3,3,07X018,40.816406,-73.92329000000001,1,8,51,2000816.0,2023240008.0,Mott Haven-Port Morris                                                     
1488,X020,DOE,X,P.S. 20 Pogeorge J Werdan III,,718-515-9370,3050 Webster Ave,10467,1,18,1017702,256118,jriley3@schools.nyc.gov,http://schools.nyc.gov/schoolportals/10/x020,2,7,3,10X020,40.870002,-73.878875,7,11,425,2086851.0,2033300001.0,Norwood                                                                    
1489,X023,DOE,X,P.S. 023 The New Children's School,,718-584-3992,2151 Washington Ave,10457,1,48,1013356,250167,storres3@schools.nyc.gov,http://schools.nyc.gov/schoolportals/10/x023,2,3,3,10X023,40.852940000000004,-73.89474200000001,6,15,395,2090472.0,2030370079.0,Claremont-Bathgate                                                         
1490,X025,DOE,X,P.S. 025 Bilingual School,,718-292-2995,811 East 149 St,10455,1,36,1010315,235403,ctoledo@schools.nyc.gov,http://schools.nyc.gov/schoolportals/07/x025,2,3,3,07X025,40.812619,-73.906063,1,8,79,2004772.0,2026640001.0,Melrose South-Mott Haven North                                             
1491,X028,DOE,X,P.S. 028 Mount Hope,,718-583-6444,1861 Anthony Ave,10457,1,54,1010903,248358,sbeckle@schools.nyc.gov,http://schools.nyc.gov/schoolportals/09/x028,3,3,3,09X028,40.848057,-73.903522,5,15,23302,2007603.0,2028040031.0,Mount Hope                                                                 
1492,X029,DOE,X,P.S. / M.S. 029 Melrose School,,718-292-3785,758 Courtlandt Ave,10451,1,28,1007217,238546,inquiries@psms29.com,http://schools.nyc.gov/schoolportals/07/x029,2,3,3,07X029,40.821515000000005,-73.91727900000001,1,17,69,2001736.0,2024030001.0,Melrose South-Mott Haven North                                             
1493,X030,DOE,X,P.S. 030 Wilton,,718-292-8817,510 East 141 St,10454,1,54,1007030,234117,dmichau@schools.nyc.gov,http://schools.nyc.gov/schoolportals/07/x030,3,3,3,07X030,40.80937,-73.91758399999999,1,8,39,2000077.0,2022670015.0,Mott Haven-Port Morris                                                     
1494,X031,DOE,X,P.S. / M.S. 031 The William Lloyd Garrison,,718-292-4397,250 East 156 St,10451,1,54,1005923,239014,jhunnew@schools.nyc.gov,http://schools.nyc.gov/schoolportals/07/x031,2,1,3,07X031,40.823159999999994,-73.921631,4,17,61,2002458.0,2024430190.0,East Concourse-Concourse Village                                           
1495,X032,DOE,X,P.S. 032 Belmont,,718-584-3645,690 East 183 St,10458,1,40,1015772,249682,ARosami@schools.nyc.gov,,5,9,3,10X032,40.852103,-73.885935,6,15,391,2012409.0,2030850001.0,Belmont                                                                    
1496,X033,DOE,X,P.S. 033 Timothy Dwight,,718-584-3926,2424 Jerome Ave,10468,1,36,1011575,253227,jraxach@schools.nyc.gov,http://schools.nyc.gov/schoolportals/10/x033,3,7,3,10X033,40.86185,-73.90176,5,14,239,2014099.0,2031880020.0,Fordham South                                                              
1497,X036,DOE,X,P.S. 036 Unionport,,718-822-5345,1070 Castle Hl Ave,10472,1,54,1025718,241505,emaresca@schools.nyc.gov,http://schools.nyc.gov/schoolportals/08/x036,2,7,3,08X036,40.829344,-73.85042800000001,9,18,78,2026706.0,2038170001.0,Westchester-Unionport                                                      
1498,X042,DOE,X,P.S. 042 Claremont,,718-583-7366,1537 Washington Ave,10457,1,28,1011063,244800,osolis@schools.nyc.gov,http://schools.nyc.gov/schoolportals/09/x042,3,3,3,09X042,40.838288,-73.902987,3,16,169,2009466.0,2029030023.0,Claremont-Bathgate                                                         
1499,X043,DOE,X,P.S. 043 Jonas Bronck,,718-292-4502,165 Brown Pl,10454,1,72,1006012,233079,gdelucc@schools.nyc.gov,http://schools.nyc.gov/schoolportals/07/x043,2,3,3,07X043,40.806351,-73.921196,1,8,25,2000205.0,2022800040.0,Mott Haven-Port Morris                                                     
1500,X044,DOE,X,P.S. 044 David C Farragut,,718-583-2360,1825 Prospect Ave,10457,1,36,1014390,246221,mharrow2@schools.nyc.gov,http://schools.nyc.gov/schoolportals/12/x044,2,2,3,12X044,40.842084,-73.891116,6,17,36902,2009957.0,2029490064.0,East Tremont                                                               
1501,X048,DOE,X,P.S. 048 Joseph R Drake,,718-589-4312,1290 Spofford Ave,10474,1,108,1015563,235913,rcardon2@schools.nyc.gov,http://schools.nyc.gov/schoolportals/08/x048,3,3,3,08X048,40.814425,-73.886953,2,17,93,2006680.0,2027660001.0,Hunts Point                                                                
1502,X049,DOE,X,P.S. 049 Willis Avenue,,718-292-4623,383 East 139 St,10454,1,72,1005573,234479,fhernandez2@schools.nyc.gov,http://schools.nyc.gov/schoolportals/07/x049,2,3,3,07X049,40.810085,-73.923102,1,8,39,2000626.0,2023020040.0,Mott Haven-Port Morris                                                     
1503,X051,DOE,X,P.S. 051 Bronx New School,,718-733-0347,695 East 182nd St,10457,1,36,1015560,249327,psmith2@schools.nyc.gov,http://schools.nyc.gov/schoolportals/10/x051,2,1,3,10X051,40.850666,-73.886996,6,15,391,2118254.0,2030840001.0,Belmont                                                                    
1504,X053,DOE,X,P.S. 053 Basheer Quisim,,718-681-7276,360 East 168 St,10456,1,72,1008689,242660,cwolfe@schools.nyc.gov,http://schools.nyc.gov/schoolportals/09/x053,2,3,3,09X053,40.832865999999996,-73.91141800000001,4,16,175,2002299.0,2024350075.0,East Concourse-Concourse Village                                           
1505,X054,DOE,X,P.S. / I.S. 54,,718-584-4203,2703 Webster Ave,10458,1,60,1015291,254403,mferrei@schools.nyc.gov,http://schools.nyc.gov/schoolportals/10/x054,3,3,3,10X054,40.864527,-73.88782900000001,7,15,40502,2113630.0,2032780014.0,Bedford Park-Fordham North                                                 
1506,X055,DOE,X,P.S. 055 Benjamin Franklin,,718-681-6227,450 Saint Paul's Pl,10456,1,72,1010528,243936,mfalu@schools.nyc.gov,http://schools.nyc.gov/schoolportals/09/x055,2,3,3,09X055,40.836403999999995,-73.90501400000001,3,16,14702,2009463.0,2029020001.0,Claremont-Bathgate                                                         
1507,X057,DOE,X,P.S. 057 Crescent,,718-367-9446,2111 Crotona Ave,10457,1,36,1014956,248449,bromano@schools.nyc.gov,http://ps57crescent.com,3,3,3,12X057,40.848471999999994,-73.888561,6,15,373,2012359.0,2030810026.0,East Tremont                                                               
1508,X058,DOE,X,P.S. 058,,718-583-6866,459 East 176 St,10457,1,36,1012243,247576,vgunn@schools.nyc.gov,http://schools.nyc.gov/schoolportals/09/x058,2,7,3,09X058,40.846162,-73.899264,6,15,395,2009540.0,2029090032.0,Claremont-Bathgate                                                         
1509,X059,DOE,X,P.S. 059 The Community School Of Technology,,718-584-4730,2185 Bathgate Ave,10457,1,64,1013708,250098,sbasu@schools.nyc.gov,http://schools.nyc.gov/schoolportals/10/x059,2,3,3,10X059,40.852774,-73.893524,6,15,395,2011538.0,2030490037.0,Claremont-Bathgate                                                         
1510,X061,DOE,X,P.S. 061 Francisco Oller,,718-542-7230,1550 Crotona Park East,10460,1,36,1013990,244011,pquigle@schools.nyc.gov,http://schools.nyc.gov/schoolportals/12/x061,2,3,3,12X061,40.836575,-73.89281700000001,3,17,153,2009865.0,2029390045.0,Crotona Park East                                                          
1511,X062,DOE,X,P.S. 062 Inocensio Casanova,,718-585-1617,660 Fox St,10455,1,54,1011862,235824,lmanfre2@schools.nyc.gov,http://schools.nyc.gov/schoolportals/08/x062,2,3,3,08X062,40.814031,-73.900609,2,8,83,2005089.0,2026830065.0,Longwood                                                                   
1512,X063,DOE,X,P.S. 063 Author's Academy,,718-589-3058,1260 Franklin Ave,10456,1,54,1011338,242084,rdiaz15@schools.nyc.gov,http://schools.nyc.gov/schoolportals/09/x063,2,3,3,09X063,40.830995,-73.90270500000001,3,16,149,2004302.0,2026150014.0,Morrisania-Melrose                                                         
1513,X065,DOE,X,P.S. 065 Mother Hale Academy,,718-292-4628,677 East 141 St,10454,1,36,1008419,233518,jgonzalez@schools.nyc.gov,http://schools.nyc.gov/schoolportals/07/x065,2,3,3,07X065,40.807334999999995,-73.91273100000001,1,8,33,2003834.0,2025710001.0,Mott Haven-Port Morris                                                     
1514,X066,DOE,X,P.S. 066 School Of Higher Expectations,,718-319-2820,1001 Jennings St,10460,1,72,1015564,242160,,http://schools.nyc.gov/schoolportals/12/x066,2,3,3,12X066,40.831165000000006,-73.88709399999999,3,17,157,2010916.0,2030080001.0,Crotona Park East                                                          
1515,X067,DOE,X,P.S. 067 Mohegan School,,718-823-4101,2024 Mohegan Ave,10460,1,72,1016179,246729,jsantia7@schools.nyc.gov,http://schools.nyc.gov/schoolportals/12/x067,2,3,3,12X067,40.843945,-73.884788,6,17,363,2013142.0,2031230003.0,East Tremont                                                               
1516,X068,DOE,X,P.S. 068 Bronx,,718-324-2854,4011 Monticello Ave,10466,1,18,1028857,264112,chelfri@schools.nyc.gov,http://schools.nyc.gov/schoolportals/11/x068,2,7,3,11X068,40.891732,-73.838471,12,12,426,2067852.0,2049860081.0,Woodlawn-Wakefield                                                         
1517,X069,DOE,X,P.S. 069 Journey Prep School,,718-378-4736,560 Thieriot Ave,10473,1,54,1022824,236911,sdurant@schools.nyc.gov,http://schools.nyc.gov/schoolportals/08/x069,2,3,3,08X069,40.816693,-73.860904,9,18,16,2021482.0,2035240020.0,Soundview-Castle Hill-Clason Point-Harding Park                            
1518,X072,DOE,X,P.S. 072 Dr. William Dorney,,718-822-5311,2951 Dewey Ave,10465,1,72,1034609,239156,mcolon@schools.nyc.gov,http://schools.nyc.gov/schoolportals/08/x072,2,3,3,08X072,40.822604,-73.818247,10,13,158,2077162.0,2054400001.0,Schuylerville-Throgs Neck-Edgewater Park                                   
1519,X073,DOE,X,P.S. 073 Bronx,,718-681-6776,1020 Anderson Ave,10452,1,54,1004578,242650,vbueno@schools.nyc.gov,http://schools.nyc.gov/schoolportals/09/x073,2,3,3,09X073,40.832706,-73.926838,4,8,189,2003051.0,2025040082.0,Highbridge                                                                 
1520,X075,DOE,X,P.S. 75 School Of Research And Discovery,,718-860-1630,984 Faile St,10459,1,66,1014930,238891,mgonzalez3@schools.nyc.gov,http://schools.nyc.gov/schoolportals/08/x075,2,3,3,08X075,40.822719,-73.88943499999999,2,17,119,2006079.0,2027470001.0,Hunts Point                                                                
1521,X077,DOE,X,Bedford Park Elementary School,,718-696-6400,3177 Webster Ave,10467,1,36,1018597,257169,bpesx77@gmail.com,http://schools.nyc.gov/schoolportals/10/x077,2,3,3,10X077,40.872551,-73.875374,7,11,425,2098420.0,2033530040.0,Norwood                                                                    
1522,X078,DOE,X,P.S. 078 Anne Hutchinson,,718-652-1244,1400 Needham Ave,10469,1,36,1025542,259409,cskerri@schools.nyc.gov,http://schools.nyc.gov/schoolportals/11/x078,2,3,3,11X078,40.878577,-73.851163,12,12,386,2060191.0,2047190001.0,Eastchester-Edenwald-Baychester                                            
1523,X085,DOE,X,P.S. 085 Great Expectations,,718-584-5275,2400 Marion Ave,10458,1,90,1013385,252272,THusted@schools.nyc.gov,http://schools.nyc.gov/schoolportals/10/x085,5,9,3,10X085,40.8591,-73.89494599999999,5,15,38302,2011054.0,2030240021.0,Fordham South                                                              
1524,X086,DOE,X,P.S. 086 Kingsbridge Heights,,718-584-5585,2756 Reservoir Ave,10468,1,36,1012385,256185,ftyson@schools.nyc.gov,http://schools.nyc.gov/schoolportals/10/x086,5,9,3,10X086,40.869834999999995,-73.89874,7,11,409,2100971.0,2032470070.0,Van Cortlandt Village                                                      
1525,X089,DOE,X,P.S. 089 Bronx,,718-653-0835,980 Mace Ave,10469,1,72,1023177,253641,rmartin72@schools.nyc.gov,http://schools.nyc.gov/schoolportals/11/x089,2,3,3,11X089,40.863054999999996,-73.859387,11,13,324,2051571.0,2044440016.0,Bronxdale                                                                  
1526,X092,DOE,X,P.S. 092 Bronx,,718-731-7900,700 East 179 St,10457,1,36,1014827,247638,chall6@schools.nyc.gov,http://schools.nyc.gov/schoolportals/12/x092,2,3,3,12X092,40.846711,-73.889815,6,17,371,2012620.0,2030920014.0,East Tremont                                                               
1527,X093,DOE,X,P.S. 093 Albert G Oliver,,718-430-1700,1535 Story Ave,10473,1,66,1018192,238772,jkaplan15@schools.nyc.gov,http://schools.nyc.gov/schoolportals/08/x093,3,3,3,08X093,40.821776,-73.876918,9,17,28,2097341.0,2036520001.0,Soundview-Castle Hill-Clason Point-Harding Park                            
1528,X095,DOE,X,P.S. 095 Sheila Mencher,,718-796-9200,3961 Hillman Ave,10463,1,18,1014241,260978,sdavis6@schools.nyc.gov,http://schools.nyc.gov/schoolportals/10/x095,2,3,1,10X095,40.882898,-73.891256,8,11,281,2015472.0,2032520182.0,Van Cortlandt Village                                                      
1529,X097,DOE,X,P.S. 097 Bronx,,718-655-4446,1375 Mace Ave,10469,1,18,1026633,253773,kbornka@schools.nyc.gov,http://schools.nyc.gov/schoolportals/11/x097,5,9,3,11X097,40.862839,-73.84679100000001,11,13,314,2052739.0,2044740001.0,Allerton-Pelham Gardens                                                    
1530,X100,DOE,X,P.S. 100 Isaac Clason,,718-842-1461,800 Taylor Ave,10473,1,36,1022227,238734,caltman3@schools.nyc.gov,http://schools.nyc.gov/schoolportals/08/x100,2,7,3,08X100,40.821409,-73.862976,9,18,42,2022550.0,2036410001.0,Soundview-Castle Hill-Clason Point-Harding Park                            
1531,X106,DOE,X,P.S. 106 Parkchester,,718-892-1006,2120 St Raymond's Ave,10462,1,36,1024405,244366,emontal@schools.nyc.gov,http://schools.nyc.gov/schoolportals/11/x106,5,9,3,11X106,40.837524,-73.8548,9,18,222,2041211.0,2039460007.0,Parkchester                                                                
1532,X107,DOE,X,P.S. 107,,718-860-8760,1695 Seward Ave,10473,1,18,1020624,237574,khamm2@schools.nyc.gov,http://ps107x.org,2,3,1,08X107,40.818467,-73.868372,9,18,20,2021972.0,2035910050.0,Soundview-Castle Hill-Clason Point-Harding Park                            
1533,X108,DOE,X,P.S. 108 Philip J Abinanti,,718-863-9829,1166 Neill Ave,10461,1,18,1024921,250658,csperra@schools.nyc.gov,http://schools.nyc.gov/schoolportals/11/x108,5,9,3,11X108,40.854726,-73.853227,11,13,288,2048608.0,2042750001.0,Pelham Parkway                                                             
1534,X109,DOE,X,P.S. 109 Sedgwick,,718-583-8878,1771 Popham Ave,10453,1,54,1006730,249524,jclaudi@schools.nyc.gov,http://schools.nyc.gov/schoolportals/09/x109,2,3,3,09X109,40.851414,-73.918533,5,14,20502,2094549.0,2028770393.0,University Heights-Morris Heights                                          
1535,X110,DOE,X,P.S. 110 Theodore Schoenfeld,,718-861-0759,580 Crotona Park South,10456,1,36,1011681,243548,dperez@schools.nyc.gov,http://schools.nyc.gov/schoolportals/09/x110,2,3,3,09X110,40.835285999999996,-73.900751,3,16,149,2009718.0,2029320001.0,Morrisania-Melrose                                                         
1536,X111,DOE,X,P.S. 111 Seton Falls,,718-881-2418,3740 Baychester Ave,10466,1,46,1028527,261585,aburrell@schools.nyc.gov,http://schools.nyc.gov/schoolportals/11/x111,2,3,3,11X111,40.884343,-73.840254,12,12,484,2065992.0,2049160001.0,Eastchester-Edenwald-Baychester                                            
1537,X112,DOE,X,P.S. 112 Bronxwood,,718-654-6377,1925 Schieffelin Ave,10466,1,38,1027392,261662,sbarnes2@schools.nyc.gov,http://schools.nyc.gov/schoolportals/11/x112,3,3,3,11X112,40.885008,-73.843193,12,12,458,2065991.0,2049050500.0,Eastchester-Edenwald-Baychester                                            
1538,X119,DOE,X,P.S. 119,,718-822-5198,1075 Pugsley Ave,10472,1,36,1023835,241166,ltyner@schools.nyc.gov,http://schools.nyc.gov/schoolportals/08/x119,2,7,3,08X119,40.828518,-73.856569,9,18,4001,2025696.0,2037890021.0,Soundview-Bruckner                                                         
1539,X121,DOE,X,P.S. 121 Throop,,718-654-2055,2750 Throop Ave,10469,1,36,1025564,255179,gmartin9@schools.nyc.gov,http://schools.nyc.gov/schoolportals/11/x121,3,7,3,11X121,40.86608,-73.850982,11,13,348,2054253.0,2045260001.0,Allerton-Pelham Gardens                                                    
1540,X126,DOE,X,P.S. 126 Dr. Marjorie H Dunbar,,718-681-6120,175 West 166 St,10452,1,90,1004071,243876,nkeefoster@schools.nyc.gov,http://schools.nyc.gov/schoolportals/09/x126,2,3,3,09X126,40.835784000000004,-73.928324,4,16,199,2003495.0,2025260083.0,Highbridge                                                                 
1541,X130,DOE,X,P.S. 130 Abram Stevens Hewitt,,718-665-0962,750 Prospect Ave,10455,1,36,1011364,237190,lvelazq@schools.nyc.gov,http://schools.nyc.gov/schoolportals/08/x130,2,3,3,08X130,40.817721,-73.90242099999999,2,17,85,2005168.0,2026880001.0,Longwood                                                                   
1542,X134,DOE,X,P.S. 134 George F Bristow,,718-328-3351,1330 Bristow St,10459,1,54,1013453,242175,kthomas@schools.nyc.gov,http://schools.nyc.gov/schoolportals/12/x134,2,3,3,12X134,40.83132,-73.89479399999999,3,17,153,2010273.0,2029650082.0,Crotona Park East                                                          
1543,X138,DOE,X,P.S. 138 Samuel Randall,,718-822-5325,2060 Lafayette Ave,10473,1,72,1024925,238936,lcarrol@schools.nyc.gov,http://schools.nyc.gov/schoolportals/08/x138,3,3,3,08X138,40.822665,-73.85336600000001,9,18,74,2022289.0,2036090016.0,Soundview-Castle Hill-Clason Point-Harding Park                            
1544,X140,DOE,X,P.S. X140 The Eagle School,,718-585-1205,916 Eagle Ave,10456,1,54,1009799,239257,pcannon@schools.nyc.gov,http://schools.nyc.gov/schoolportals/08/x140,3,3,3,08X140,40.823289,-73.907948,3,17,185,2004469.0,2026270009.0,Morrisania-Melrose                                                         
1545,X146,DOE,X,P.S. 146 Edward Collins,,718-378-9664,968 Cauldwell Ave,10456,1,36,1010312,239854,jsander@schools.nyc.gov,http://schools.nyc.gov/schoolportals/08/x146,2,3,3,08X146,40.825025,-73.906143,3,16,185,2004498.0,2026320027.0,Morrisania-Melrose                                                         
1546,X150,DOE,X,P.S. 150 Charles James Fox,,718-328-7729,920 East 167 St,10459,1,36,1013471,240248,eirizar2@schools.nyc.gov,http://schools.nyc.gov/schoolportals/12/x150,2,3,3,12X150,40.82636,-73.894398,2,17,12701,2005681.0,2027170005.0,Hunts Point                                                                
1547,X152,DOE,X,P.S. 152 Evergreen,,718-589-4560,1007 Evergreen Ave,10472,1,72,1017374,239493,flynch@schools.nyc.gov,http://schools.nyc.gov/schoolportals/08/x152,2,3,3,08X152,40.824054,-73.880039,9,17,52,2023336.0,2037110001.0,Soundview-Bruckner                                                         
1548,X153,DOE,X,P.S. 153 Helen Keller,,718-904-5550,650 Baychester Ave,10475,1,18,1030375,257393,MKelley5@schools.nyc.gov,http://schools.nyc.gov/schoolportals/11/x153,5,9,3,11X153,40.872614,-73.833698,10,12,46201,2097470.0,2051410150.0,Co-op City                                                                 
1549,X154,DOE,X,P.S. 154 Jonathan D Hyatt,,718-292-4742,333 East 135 St,10454,1,36,1004724,233748,acoviello@schools.nyc.gov,http://schools.nyc.gov/schoolportals/07/x154,2,3,3,07X154,40.808034,-73.926204,1,8,23,2097030.0,2022980001.0,Mott Haven-Port Morris                                                     
1550,X157,DOE,X,P.S. 157 Grove Hill,,718-292-5255,757 Cauldwell Ave,10456,1,36,1009479,237756,rduran@schools.nyc.gov,http://schools.nyc.gov/schoolportals/07/x157,2,3,3,07X157,40.819258000000005,-73.908553,1,17,75,2004464.0,2026250001.0,Melrose South-Mott Haven North                                             
1551,X160,DOE,X,P.S. 160 Walt Disney,,718-379-5951,4140 Hutchinson Riv Pkway E,10475,1,54,1032914,254226,lbaker3@schools.nyc.gov,http://schools.nyc.gov/schoolportals/11/x160,3,3,3,11X160,40.864676,-73.824303,10,12,302,2072352.0,2051350200.0,Co-op City                                                                 
1552,X161,DOE,X,P.S. 161 Ponce De Leon,,718-292-5478,628 Tinton Ave,10455,1,78,1010460,236117,esoto2@schools.nyc.gov,http://schools.nyc.gov/schoolportals/07/x161,3,3,3,07X161,40.814916,-73.905518,1,8,79,2004773.0,2026640029.0,Melrose South-Mott Haven North                                             
1553,X163,DOE,X,P.S. 163 Arthur A Schomburg,,718-584-3045,2075 Webster Ave,10457,1,18,1012253,249624,dmartinez20@schools.nyc.gov,http://schools.nyc.gov/schoolportals/09/x163,3,3,3,09X163,40.851741,-73.898493,5,15,379,2013297.0,2031420048.0,Mount Hope                                                                 
1554,X169,DOE,X,Baychester Academy,,718-325-1138,3500 Edson Ave,10466,1,36,1028633,260367,cvaugha2@schools.nyc.gov,http://schools.nyc.gov/schoolportals/11/x169,2,1,3,11X169,40.881153000000005,-73.83975500000001,12,12,460,2116222.0,2048940001.0,Eastchester-Edenwald-Baychester                                            
1555,X179,DOE,X,P.S. 179,,718-292-2237,468 East 140 St,10454,1,36,1006356,234188,iestrada@schools.nyc.gov,http://schools.nyc.gov/schoolportals/07/x179,2,3,3,07X179,40.809534,-73.919903,1,8,39,2000308.0,2022840034.0,Mott Haven-Port Morris                                                     
1556,X182,DOE,X,P.S. 182,,718-828-6607,601 Stickball Blvd,10473,1,54,1023906,237445,aogrady@schools.nyc.gov,http://schools.nyc.gov/schoolportals/08/x182,2,3,3,08X182,40.818228000000005,-73.856302,9,18,16,2021923.0,2035640001.0,Soundview-Castle Hill-Clason Point-Harding Park                            
1557,X189,DOE,X,Cornerstone Academy For Social Action,,718-794-6160,3441 Steenwick Ave,10475,1,54,1031010,261120,jbellon@schools.nyc.gov,http://schools.nyc.gov/schoolportals/11/x189,3,3,3,11X189,40.883025,-73.830366,12,12,46202,2124548.0,2052630192.0,Co-op City                                                                 
1558,X195,DOE,X,P.S. 195,,718-861-4461,1250 Ward Ave,10472,1,36,1018150,242047,akavana@schools.nyc.gov,http://schools.nyc.gov/schoolportals/12/x195,2,3,3,12X195,40.830690999999995,-73.87774300000001,9,18,54,2088553.0,2037750025.0,West Farms-Bronx River                                                     
1559,X196,DOE,X,P.S. 196,,718-328-7187,1250 Ward Ave,10472,1,36,1018171,241915,lgraciani@schools.nyc.gov,http://schools.nyc.gov/schoolportals/12/x196,3,3,3,12X196,40.830690999999995,-73.87774300000001,9,18,54,2088553.0,2037750025.0,West Farms-Bronx River                                                     
1560,X199,DOE,X,P.S. 199x - The Shakespeare School,,718-681-7172,1449 Shakespeare Ave,10452,1,54,1006248,246572,slopez16@schools.nyc.gov,http://schools.nyc.gov/schoolportals/09/x199,2,3,3,09X199,40.842943,-73.920563,4,16,21302,2088263.0,2028730027.0,Highbridge                                                                 
1561,X204,DOE,X,P.S. 204 Morris Heights,,718-960-9520,1780 Dr Martin Luther King Jr Blvd,10453,1,36,1007729,248989,ablatte2@schools.nyc.gov,http://schools.nyc.gov/schoolportals/09/x204,2,3,3,09X204,40.850235,-73.915769,5,14,21502,2008470.0,2028660105.0,University Heights-Morris Heights                                          
1562,X207,DOE,X,P.S. 207,,718-796-9645,3030 Godwin Ter,10463,1,40,1010158,259254,mrosado@schools.nyc.gov,http://schools.nyc.gov/schoolportals/10/x207,3,1,3,10X207,40.878322,-73.90655600000001,8,11,289,2083138.0,2057010105.0,Spuyten Duyvil-Kingsbridge                                                 
1563,X209,DOE,X,P.S. 209,,718-364-0085,313 East 183rd St,10458,1,36,1012625,251425,akeegan2@schools.nyc.gov,http://schools.nyc.gov/schoolportals/10/x209,2,7,3,10X209,40.856722999999995,-73.897885,5,15,38301,2103868.0,2031460072.0,Fordham South                                                              
1564,X211,DOE,X,P.S. 211,,718-901-0436,1919 Prospect Ave,10457,1,36,1014648,246656,TDrummond@schools.nyc.gov,http://schools.nyc.gov/schoolportals/12/x211,2,3,3,12X211,40.843546,-73.88975500000001,6,17,36901,2094582.0,2029510032.0,East Tremont                                                               
1565,X212,DOE,X,P.S. 212,,718-842-2331,1180 Tinton Ave,10456,1,36,1011879,241173,gfordanderson@schools.nyc.gov,http://schools.nyc.gov/schoolportals/12/x212,2,3,3,12X212,40.828419,-73.90072099999999,3,17,135,2004869.0,2026720001.0,Morrisania-Melrose                                                         
1566,X214,DOE,X,P.S. 214,,718-589-6728,1970 West Farms Rd,10460,1,90,1017453,245076,mgonzalez61@schools.nyc.gov,http://schools.nyc.gov/schoolportals/12/x214,2,3,3,12X214,40.839565,-73.880358,6,17,60,2094603.0,2030210038.0,Crotona Park East                                                          
1567,X226,DOE,X,P.S. 226,,718-583-5560,1950 Sedgwick Ave,10453,1,40,1007450,251055,gdarden@schools.nyc.gov,http://schools.nyc.gov/schoolportals/10/x226,2,3,3,10X226,40.856586,-73.916198,5,14,249,2096465.0,2032220100.0,University Heights-Morris Heights                                          
1568,X236,DOE,X,P.S. 236 Langston Hughes,,718-299-6128,1871 Walton Ave,10453,1,28,1009214,248586,bellis@schools.nyc.gov,http://schools.nyc.gov/schoolportals/09/x236,3,7,3,09X236,40.848898999999996,-73.90952800000001,5,14,23301,2098479.0,2028510021.0,Mount Hope                                                                 
1569,X274,DOE,X,The New American Academy At Roberto Clemente State Park,,718-901-9703,275 Harlem Riv Park Brg,10453,1,72,1006186,250085,mmitja@schools.nyc.gov,http://schools.nyc.gov/schoolportals/09/x274,2,2,3,09X274,40.852536,-73.921467,5,16,53,2009253.0,2028820130.0,University Heights-Morris Heights                                          
1570,X277,DOE,X,P.S. 277,,718-292-3594,519 St Anns Ave,10455,1,54,1008130,235625,jvega@ps277x.com,http://schools.nyc.gov/schoolportals/07/x277,2,3,3,07X277,40.813517,-73.913402,1,8,43,2000114.0,2022740023.0,Mott Haven-Port Morris                                                     
1571,X300,DOE,X,The School Of Science And Applied Learning,,718-584-6310,2050 Prospect Ave,10457,1,18,1015509,247488,vsingle2@schools.nyc.gov,http://schools.nyc.gov/schoolportals/12/x300,3,3,3,12X300,40.846236,-73.887405,6,15,371,2012957.0,2031090001.0,East Tremont                                                               
1572,X304,DOE,X,P.S. 304 Early Childhood School,"<P> <Strong>Note:</strong>  Program prioritizes students zoned to 08X014, 08X071, or 08X072.</P>",718-822-5307,2750 Lafayette Ave,10465,1,36,1031482,240663,jnobile@schools.nyc.gov,http://schools.nyc.gov/schoolportals/08/x304,2,7,3,08X304,40.827471,-73.829753,10,13,152,2080231.0,2055470001.0,Schuylerville-Throgs Neck-Edgewater Park                                   
1573,X307,DOE,X,Luisa Pineiro Fuentes School Of Science And Discovery,,718-601-2632,124 Eames Pl,10468,1,18,1011441,255954,ydiaz10@schools.nyc.gov,http://schools.nyc.gov/schoolportals/10/x307,2,3,3,10X307,40.869296000000006,-73.901525,8,14,26701,2115783.0,2032480062.0,Van Cortlandt Village                                                      
1574,X310,DOE,X,P.S. 310 Marble Hill,,718-796-9434,260 W Kingsbridge Rd,10463,1,80,1010444,257205,ecardon2@schools.nyc.gov,http://schools.nyc.gov/schoolportals/10/x310,2,3,3,10X310,40.872895,-73.905244,7,14,269,2096486.0,2032390041.0,Kingsbridge Heights                                                        
1575,X314,DOE,X,Fairmont Neighborhood School,,718-860-5210,1550 Vyse Ave,10460,1,36,1015477,243237,swolfso2@schools.nyc.gov,http://schools.nyc.gov/schoolportals/12/x314,3,3,3,12X314,40.834157,-73.887512,3,17,157,2010786.0,2029960010.0,Crotona Park East                                                          
1576,X333,DOE,X,P.S. 333 - The Museum School,,718-860-3313,888 Rev J A Polite Ave,10459,1,18,1012291,238054,lgerena@schools.nyc.gov,http://schools.nyc.gov/schoolportals/08/x333,3,1,3,08X333,40.820403000000006,-73.898912,2,17,87,2005348.0,2026960085.0,Longwood                                                                   
1577,X335,DOE,X,The Academy Of The Arts,,718-860-3401,888 Rev J A Polite Ave,10459,1,18,1012294,238107,fmejia@schools.nyc.gov,http://schools.nyc.gov/schoolportals/08/x335,2,1,3,08X335,40.820403000000006,-73.898912,2,17,87,2005348.0,2026960085.0,Longwood                                                                   
1578,X340,DOE,X,P.S. 340,,718-220-1830,25 West 195 St,10468,1,18,1012674,255963,macosta@schools.nyc.gov,http://schools.nyc.gov/schoolportals/10/x340,2,3,3,10X340,40.869007,-73.89749,7,11,409,2101862.0,2032470015.0,Van Cortlandt Village                                                      
1579,X357,DOE,X,Young Voices Academy Of The Bronx,,718-794-4080,800 Lydig Ave,10462,1,36,1021967,250517,ncruz8@schools.nyc.gov,http://schools.nyc.gov/schoolportals/11/x357,2,3,3,11X357,40.854415,-73.863732,11,13,228,2048831.0,2042930031.0,Pelham Parkway                                                             
1580,X359,DOE,X,Concourse Village Elementary School,,718-402-7503,750 Concourse Vlg West,10451,1,24,1005524,239082,asorden@schools.nyc.gov,http://schools.nyc.gov/schoolportals/07/x359,2,3,3,07X359,40.823174,-73.923326,4,17,61,2002454.0,2024430079.0,East Concourse-Concourse Village                                           
1581,X360,DOE,X,P.S. 360,,718-548-1511,2880 Kingsbridge Ter,10463,1,46,1011283,257987,mrojaspolite@schools.nyc.gov,http://schools.nyc.gov/schoolportals/10/x360,7,3,3,10X360,40.874411,-73.902573,8,14,273,2103864.0,2032530341.0,Van Cortlandt Village                                                      
1582,X369,DOE,X,Young Leaders Elementary School,,718-292-7391,468 East 140 St,10454,1,28,1006464,234126,aponte13@schools.nyc.gov,http://schools.nyc.gov/schoolportals/07/x369,3,3,3,07X369,40.809534,-73.919903,1,8,39,2000308.0,2022840034.0,Mott Haven-Port Morris                                                     
1583,X386,DOE,X,School For Environmental Citizenship,,718-563-3292,125 East 181 St,10453,1,80,1010935,250846,lfox2@schools.nyc.gov,http://schools.nyc.gov/schoolportals/10/x386,2,3,3,10X386,40.854872,-73.903458,5,14,23704,2013849.0,2031700001.0,Fordham South                                                              
1584,X392,DOE,X,Bronx Delta School,,718-935-3621,650 Hollywood Ave,10465,1,36,1034611,240528,info@bronxdelta.com,http://bronxdelta.com,2,3,3,08X392,40.826526,-73.81841700000001,10,13,158,2077130.0,2054380001.0,Schuylerville-Throgs Neck-Edgewater Park                                   
1585,X394,CHARTER,X,Little Haven @ Mott Haven Academy Charter School,,718-292-7015,170 Brown Pl,10454,1,36,1006134,233057,info@havenacademy.org,http://havenacademy.org/littlehaven/,7,3,2,07X394,40.806381,-73.921149,1,8,25,2000023.0,2022630001.0,Mott Haven-Port Morris                                                     
1586,X396,DOE,X,P.S. 396,,718-294-0862,1930 Andrews Ave,10453,1,28,1008316,250639,ntine@schools.nyc.gov,http://schools.nyc.gov/schoolportals/10/x396,3,3,3,10X396,40.854701,-73.913197,5,14,24502,2014692.0,2032160002.0,University Heights-Morris Heights                                          
1587,X443,DOE,X,The Family School,,718-538-3266,1116 Sheridan Ave,10456,1,36,1006991,242302,plee7@schools.nyc.gov,http://schools.nyc.gov/schoolportals/09/x443,5,9,3,09X443,40.831992,-73.91796,4,16,18102,2002745.0,2024560100.0,East Concourse-Concourse Village                                           
1588,X449,DOE,X,Grant Avenue Elementary School,,718-681-6288,250 East 164 St,10456,1,18,1007083,241086,kerat@schools.nyc.gov,http://schools.nyc.gov/schoolportals/09/x449,2,3,3,09X449,40.828696,-73.917668,4,16,18302,2002497.0,2024460043.0,East Concourse-Concourse Village                                           
1589,X458,DOE,X,Samara Community School,,718-935-3448,1550 Vyse Ave,10460,1,36,1015449,243177,info@samaracommunityschool.org,http://samaracommunityschool.org,3,3,3,12X458,40.834157,-73.887512,3,17,157,2010786.0,2029960010.0,Crotona Park East                                                          
1590,X463,DOE,X,Urban Scholars Community School,,718-842-8133,1180 Tinton Ave,10456,1,28,1011856,241080,djones51@schools.nyc.gov,http://schools.nyc.gov/schoolportals/12/x463,2,3,3,12X463,40.828419,-73.90072099999999,3,17,135,2004869.0,2026720001.0,Morrisania-Melrose                                                         
1591,X487,Charter,X,Girls And Boys Preparatory Charter School Of The Bronx,,212-346-6000,441 East 148 St,10455,1,54,1007430,236124,emattey@publicprep.org,,5,9,3,08X487,40.814774,-73.916797,1,8,43,2097025.0,2022930046.0,Mott Haven-Port Morris                                                     
1592,X491,CHARTER,X,Academic Leadership Charter School,,718-585-4215,677 East 141 St,10454,1,54,1008343,233547,lvarghese07@gmail.com,http://alcsbronx.org,5,9,3,07X491,40.807334999999995,-73.91273100000001,1,8,33,2003834.0,2025710001.0,Mott Haven-Port Morris                                                     
1593,X531,DOE,X,Archer Elementary School,,718-828-3791,1827 Archer St,10460,1,18,1021279,244639,zhaviland@schools.nyc.gov,http://schools.nyc.gov/schoolportals/12/x531,2,3,3,12X531,40.837631,-73.866036,9,18,21601,2028640.0,2039210030.0,West Farms-Bronx River                                                     
1594,X536,DOE,X,P.S. 536,,718-931-4270,1827 Archer St,10460,1,18,1021269,244708,smedina10@schools.nyc.gov,http://schools.nyc.gov/schoolportals/12/x536,2,3,3,12X536,40.837631,-73.866036,9,18,21601,2028640.0,2039210030.0,West Farms-Bronx River                                                     
1595,X554,CHARTER,X,NYC Montessori Charter School,,347-226-9094,423 East 138th St,10454,1,52,1005958,233986,andujar@nycmcs.org,http://nycmcs.org,3,4,1,07X554,40.808695,-73.921887,1,8,39,2101568.0,2022830088.0,Mott Haven-Port Morris                                                     
1596,X555,DOE,X,Mount Eden Children's Academy,,718-294-8155,1501 Jerome Ave,10452,1,54,1007400,246313,ipayan@schools.nyc.gov,http://schools.nyc.gov/schoolportals/09/x555,2,3,3,09X555,40.842495,-73.91608199999999,4,14,209,2008336.0,2028590077.0,West Concourse                                                             
1597,X567,DOE,X,Linden Tree Elementary School,,718-239-7401,1560 Purdy St,10462,1,18,1024930,244813,ldebonis@schools.nyc.gov,http://lindentreepta.weebly.com,2,2,3,11X567,40.837931,-73.853524,9,18,222,2041247.0,2039480055.0,Parkchester                                                                
1598,X691,DOE,X,Bronx Little School,,718-792-2650,1827 Archer St,10460,1,18,1021292,244573,jgordon7@schools.nyc.gov,http://schools.nyc.gov/schoolportals/12/x691,3,7,3,12X691,40.837631,-73.866036,9,18,21601,2028640.0,2039210030.0,West Farms-Bronx River                                                     
1599,X718,CHARTER,X,Bronx Charter School For Better Learning,,718-655-6660,3740 Baychester Ave,10466,1,18,1028544,261528,dtamulonis1@bronxbetterlearning.org,http://bronxbetterlearning.org,3,3,2,11X718,40.884343,-73.840254,12,12,484,2065992.0,2049160001.0,Eastchester-Edenwald-Baychester                                            
1600,XAAA,NYCEEC,X,Harry H Gordon School Annex ( NYL ),,718-838-5993,1180 East 214 St,10469,1,16,1025187,258436,karen.griffoul@yai.org,,5,9,3,11XAAA,40.876006,-73.851523,12,12,382,2059823.0,2047080009.0,Williamsbridge-Olinville                                                   
1601,XAAC,NYCEEC,X,Puerto Rican Family Institute Bronx Head Start,,718-991-5590,1423 Prospect Ave,10459,1,54,1012816,242679,cfontanez@prfi.org,,5,9,3,12XAAC,40.832727,-73.896549,3,16,151,2116987.0,2029620029.0,Morrisania-Melrose                                                         
1602,XAAH,NYCEEC,X,Amalgamated Nursery School,,718-543-8688,3980 Orloff Ave,10463,1,35,1014084,261453,amalgamatedns@yahoo.com,http://amalgamatednurseryschool.com,5,2,1,10XAAH,40.884167,-73.89244000000001,8,11,281,2015481.0,2032520276.0,Van Cortlandt Village                                                      
1603,XAAS,NYCEEC,X,Bronxdale Nursery,<p><strong>Alert</strong>: Program may have income or other eligibility requirements. Contact for more information.</p>,718-991-8315,1065 Bch Ave,10472,1,32,1021459,240553,mscrosleyp@gmail.com,,3,7,1,12XAAS,40.827038,-73.865255,9,18,44,2092801.0,2037250001.0,Soundview-Bruckner                                                         
1604,XAAX,NYCEEC,X,Christ The King School,,718-538-5959,1345 Grand Concourse,10452,1,54,1007665,244411,ctk_braswell@hotmail.com,http://christthekingbronx.org,3,3,2,09XAAX,40.837408,-73.914889,4,16,22102,2008052.0,2028400065.0,West Concourse                                                             
1605,XABI,NYCEEC,X,Shining Stars UPK,,718-823-2393,3573 Bruckner Blvd,10461,1,30,1031819,248959,alexandra.lacas@gai-edu.org,http://greekamericaninstitute.org,2,3,1,08XABI,40.848968,-73.82800300000001,10,13,300,2095007.0,2041990001.0,Pelham Bay-Country Club-City Island                                        
1606,XABK,NYCEEC,X,Holy Cross School,,718-842-4492,1846 Randall Ave,10473,1,90,1022814,236982,UPKAdmit@holycrossbx.org,,3,3,1,08XABK,40.817305,-73.86069,9,18,16,2021482.0,2035240020.0,Soundview-Castle Hill-Clason Point-Harding Park                            
1607,XABL,NYCEEC,X,Holy Family School,,718-863-7280,2169 Blackrock Ave,10472,1,72,1025519,241386,b203@adnyedcuation.org,http://hfsflushing.org,3,3,2,08XABL,40.828912,-73.851484,9,18,78,2026397.0,2038080038.0,Westchester-Unionport                                                      
1608,XABM,NYCEEC,X,Holy Rosary School,,718-652-1838,1500 Arnow Ave,10469,1,120,1027856,255340,deev16@verizon.net,http://holyrosaryschoolbronx.org,3,4,1,11XABM,40.867571000000005,-73.842626,11,13,360,2054563.0,2045340045.0,Allerton-Pelham Gardens                                                    
1609,XABT,NYCEEC,X,Immaculate Conception School,,718-547-3346,760 East Gun Hl Rd,10467,1,36,1021927,258568,b207@adnyeducation.org,http://schoolofimmaculateconception.org,5,9,3,11XABT,40.876633,-73.864113,12,12,372,2057021.0,2046310075.0,Williamsbridge-Olinville                                                   
1610,XACE,NYCEEC,X,Nativity Of Our Blessed Lady,,718-324-2188,3893 Dyre Ave,10466,1,58,1030814,263142,b208@adnyeducation.org,http://nativityofourblessedlady.org,3,7,1,11XACE,40.888925,-73.83130600000001,12,12,484,2087375.0,2049470017.0,Eastchester-Edenwald-Baychester                                            
1611,XACF,NYCEEC,X,New Covenant Christian School,,718-519-8884,1497 Needham Ave,10469,1,72,1026190,259986,dappia@ncchristianschool.org,,5,9,3,11XACF,40.880088,-73.84820500000001,12,12,386,2060149.0,2047170074.0,Eastchester-Edenwald-Baychester                                            
1612,XACJ,NYCEEC,X,Our Lady If The Assumption School,,718-829-1706,1617 Parkview Ave,10461,1,54,1032045,247331,b210@adnyeducation.org,http://olassumptionbronx.org,5,9,3,08XACJ,40.845475,-73.82701800000001,10,13,26602,2087149.0,2041730018.0,Pelham Bay-Country Club-City Island                                        
1613,XACK,NYCEEC,X,Our Lady Of Grace School,,718-547-9918,3981 Bronxwood Ave,10466,1,72,1024361,262183,principal@olgschoolbronx.com,http://olgschoolbronx.com,3,3,1,11XACK,40.886209,-73.8546,12,12,406,2111579.0,2048500076.0,Williamsbridge-Olinville                                                   
1614,XACM,NYCEEC,X,Our Lady Of Mount Carmel,,718-295-6080,2465 Bathgate Ave,10458,1,92,1014990,252015,olmcsecy@gmail.com,http://mtcarmelschoolbronx.org,2,4,2,10XACM,40.858243,-73.888671,6,15,387,2011776.0,2030580020.0,Belmont                                                                    
1615,XACR,NYCEEC,X,Regent School,,718-653-2900,719 East 216 St,10467,1,18,1022122,260407,dteshuva@amcearlylearn.com,,5,9,3,11XACR,40.881188,-73.863127,12,12,390,2057946.0,2046640039.0,Williamsbridge-Olinville                                                   
1616,XACX,NYCEEC,X,St. Angela Merici School,,718-293-3365,266 East 163rd St,10451,1,90,1006885,240691,b221@adnyeducation.org,,5,9,3,09XACX,40.827312,-73.917753,4,16,18302,2096463.0,2024450028.0,East Concourse-Concourse Village                                           
1617,XACY,NYCEEC,X,St. Ann - Our Lady Of Mount Carmel Annex,,718-655-3449,3511 Bainbridge Ave,10467,1,36,1017830,260531,lflores@saintannschoolbx.org,,2,1,1,10XACY,40.881387,-73.878395,7,11,431,2017800.0,2033280060.0,Norwood                                                                    
1618,XADH,NYCEEC,X,St. Brendan School,,718-653-2292,268 East 207th St,10467,1,36,1018077,258240,stbrendanschoolbronx@gmail.com,http://stbrendanschoolbronx.org,4,3,2,10XADH,40.875575,-73.87761,7,11,423,2018138.0,2033420029.0,Norwood                                                                    
1619,XADJ,NYCEEC,X,St. Clare Of Assisi School,,718-892-4080,1911 Hone Ave,10461,1,160,1023890,249407,theresa.bivona@archny.org,http://stclareofassisischool.org,2,3,1,11XADJ,40.851206,-73.856534,11,13,250,2087156.0,2042690037.0,Pelham Parkway                                                             
1620,XADL,NYCEEC,X,St. Francis De Chantal School,,718-892-5359,2962 Harding Ave,10465,1,54,1036143,236729,earlychildhood.education@archny.org,http://sfdchantalschool.org,5,9,3,08XADL,40.816445,-73.813451,10,13,118,2097494.0,2054520001.0,Schuylerville-Throgs Neck-Edgewater Park                                   
1621,XADN,NYCEEC,X,St. Francis Of Assisi School,,718-994-4650,4300 Baychester Ave,10466,1,54,1027113,266168,assistantprincipal@sfabx.com,http://sfabx.com,3,3,1,11XADN,40.897077,-73.84524,12,12,444,2070412.0,2050570001.0,Woodlawn-Wakefield                                                         
1622,XADO,NYCEEC,X,St. Francis Xavier School,,718-863-0531,1711 Haight Ave,10461,1,116,1025058,248405,sfxupk@gmail.com,http://sfxschool.net,3,4,1,11XADO,40.848524,-73.852261,11,13,254,2045014.0,2041080029.0,Van Nest-Morris Park-Westchester Square                                    
1623,XADQ,NYCEEC,X,St. Helena School,,718-892-3234,2050 Benedict Ave,10462,1,80,1024186,243295,b239@adnyeducation.org,http://sthelenaelementary.com,5,9,3,11XADQ,40.834474,-73.856346,9,18,222,2028943.0,2039320075.0,Parkchester                                                                
1624,XADT,NYCEEC,X,St. John Chrysostom School,,718-328-7226,1144 Hoe Ave,10459,1,92,1014501,240707,b243@adnyeducation.org,http://sjchrysostom.org,3,3,1,12XADT,40.827328,-73.890888,3,17,12101,2086634.0,2027520009.0,Morrisania-Melrose                                                         
1625,XADV,NYCEEC,X,St. John School,,718-548-0255,3143 Kingsbridge Ave,10463,5,72,1010258,260215,b242@adnyeduction.org,http://stjohnschoolbronx.org,2,3,1,10XADV,40.880542,-73.905873,8,11,289,2083180.0,2057080088.0,Spuyten Duyvil-Kingsbridge                                                 
1626,XADW,NYCEEC,X,St. Joseph School,,718-583-9432,1946 Bathgate Ave,10457,1,120,1012864,248084,b245@adnyeducation.org,,5,9,3,09XADW,40.847722,-73.89667299999999,6,15,395,2011434.0,2030430050.0,Claremont-Bathgate                                                         
1627,XADY,NYCEEC,X,St. Lucy School,,718-882-2203,830 Mace Ave,10467,1,148,1022436,253681,minneci@stlucys.org,http://stlucys.org,3,3,1,11XADY,40.863116999999995,-73.862445,11,13,328,2095039.0,2044380027.0,Bronxdale                                                                  
1628,XADZ,NYCEEC,X,St. Luke School,,718-585-0380,608 East 139th St,10454,1,36,1007753,233114,b247@adnyeducation.org,http://stluke138.org,5,9,3,07XADZ,40.806923,-73.915658,1,8,2702,2003628.0,2025510026.0,Mott Haven-Port Morris                                                     
1629,XAEB,NYCEEC,X,St. Margaret Of Cortona,,718-549-8580,452 West 260th St,10471,1,92,1011055,270141,principal@stmargaretschoolriverdale.com,http://stmargaretschoolriverdale.com,7,3,1,10XAEB,40.908305,-73.90290300000001,8,11,337,2085311.0,2058710547.0,North Riverdale-Fieldston-Riverdale                                        
1630,XAZD,NYCEEC,X,A House On Beekman Preschool,,972-841-8120,390 Jackson Ave,10454,1,14,1009045,233984,sloan@ahouseonbeekman.org,,5,9,3,07XAZD,40.809153,-73.910547,1,8,35,2003865.0,2025730071.0,Mott Haven-Port Morris                                                     
1631,XAEF,NYCEEC,X,St. Mary School,,718-547-0500,3956 Carpenter Ave,10466,1,72,1022009,262865,slater15fisher@aol.com,http://stmaryschoolbx.org,3,3,1,11XAEF,40.888309,-73.86355400000001,12,12,394,2062993.0,2048260043.0,Williamsbridge-Olinville                                                   
1632,XAEH,NYCEEC,X,St. Philip Neri School,,718-365-8806,3031 Grand Concourse,10468,1,36,1015416,257686,b256@adnyeducation.org,http://stphilipneribronx.org,5,9,3,10XAEH,40.873666,-73.88696800000001,7,11,411,2017313.0,2033100057.0,Bedford Park-Fordham North                                                 
1633,XAEL,NYCEEC,X,St. Raymond Elementary,,718-597-3232,2380 East Tremont Ave,10462,1,72,1024568,246118,patricia.brito@archny.org,,5,9,3,11XAEL,40.842332,-73.854483,9,18,21001,2097353.0,2039580080.0,Parkchester                                                                
1634,XAEN,NYCEEC,X,St. Simon Stock Elementary School,,718-367-0453,2195 Valentine Ave,10457,1,36,1012174,250892,Angela.Ceparano@archny.org,http://stsimonstockschool.org,5,9,3,10XAEN,40.854893,-73.898983,5,15,381,2013546.0,2031490140.0,Mount Hope                                                                 
1635,XAEO,NYCEEC,X,St. Theresa,,718-792-3688,2872 Sttheresa Ave,10461,1,92,1030340,248745,b262@adnyeducation.org,http://sttheresaschoolbronx.org,7,3,1,08XAEO,40.849483,-73.833239,10,13,26601,2046491.0,2041920023.0,Pelham Bay-Country Club-City Island                                        
1636,XAEP,NYCEEC,X,St. Thomas Aquinas School,,718-893-7600,1909 Daly Ave,10460,1,90,1016092,245540,b263@adnyeducation.org,,5,9,3,12XAEP,40.840695000000004,-73.884584,6,17,359,2010618.0,2029850017.0,East Tremont                                                               
1637,XAEW,NYCEEC,X,"Learning Tree, The",,718-944-0960,801 Bartholdi St,10467,1,72,1022274,257708,msjoyce@tltprep.org,http://learningtreeprep.org,3,2,1,11XAEW,40.873827,-73.862622,12,12,372,2057044.0,2046330011.0,Williamsbridge-Olinville                                                   
1638,XAFA,NYCEEC,X,UCP / Nyc's Bronx Children's Program,,718-652-9790,1770 Stillwell Ave,10469,1,16,1029987,251601,bellman@ucpnyc.org,http://ucpnyc.org,2,3,2,11XAFA,40.858063,-73.834696,11,13,284,2102042.0,2044110300.0,Van Nest-Morris Park-Westchester Square                                    
1639,XAFB,NYCEEC,X,"Villa Maria Academy, Inc.",,718-824-3260,3335 Country Clb Rd,10465,1,54,1035029,245985,teresa.barton@archny.org,http://vma-ny.org,7,7,2,08XAFB,40.841156,-73.817166,10,13,27402,2087429.0,2054090475.0,Pelham Bay-Country Club-City Island                                        
1640,XAFG,NYCEEC,X,Little Stars III,,347-947-3171,1420 Burke Ave,10469,1,58,1026812,257106,lstarsthree@aol.com,http://littlestarspreschools.com,3,7,1,11XAFG,40.87233,-73.846506,12,12,358,2061698.0,2047600001.0,Eastchester-Edenwald-Baychester                                            
1641,XAFK,NYCEEC,X,Phipps Neighborhoods Daly Avenue ECEC,,718-364-2496,921 East 180 St,10460,1,72,1017104,247006,KMORRIS@PHIPPSNY.ORG,http://phippsny.org,3,8,2,12XAFK,40.844498,-73.881473,6,17,363,2114117.0,2031280001.0,East Tremont                                                               
1642,XAFL,NYCEEC,X,"Garvey School, The",,781-320-3902,950 Baychester Ave,10475,1,38,1030446,259204,thegarveyschool@gmail.com,http://garveyschool.org,3,4,1,11XAFL,40.878316,-73.833123,10,12,46201,2097914.0,2051410120.0,Co-op City                                                                 
1643,XAFP,NYCEEC,X,East Side House,<p><strong>Alert</strong>: Program may have income or other eligibility requirements. Contact for more information.</p>,718-665-5250,201 Saint Anns Ave,10454,1,15,1006786,232909,dcolon@eastsidehouse.org,http://eastsidehouse.org,3,4,2,07XAFP,40.805741999999995,-73.918238,1,8,25,2090986.0,2022630019.0,Mott Haven-Port Morris                                                     
1644,XAFZ,NYCEEC,X,New Covenant Christian School,,718-299-5250,1925 Grand Concourse,10453,1,36,1010287,249017,mcordero@ncchristianschool.org,,5,9,3,9XAFZ,40.850065,-73.90552199999999,5,14,23501,2086655.0,2028080021.0,Mount Hope                                                                 
1645,XAGC,NYCEEC,X,Highbridge Advisory Council ECC #1,<p><strong>Alert</strong>: Program may have income or other eligibility requirements. Contact for more information.</p>,718-299-3917,1594 Townsend Ave,10452,1,49,1008211,246880,DWashington@hacsf.com,http://hacfs.org,3,7,1,09XAGC,40.844274,-73.91363299999999,4,14,22702,2103870.0,2028470041.0,Mount Hope                                                                 
1646,XAGF,NYCEEC,X,Manida ( Center #1 ),<p><strong>Alert</strong>: Program may have income or other eligibility requirements. Contact for more information.</p>,718-542-7590,711 Manida St,10474,1,79,1015054,236102,junerose7@msn.com,,3,7,2,08XAGF,40.814758000000005,-73.88847700000001,2,17,93,2006496.0,2027630029.0,Hunts Point                                                                
1647,XAGX,NYCEEC,X,LSSMNY : Early Life Children's Center 6,<p><strong>Alert</strong>: Program may have income or other eligibility requirements. Contact for more information.</p>,718-943-0580,2125 Watson Ave,10472,1,53,1024951,241571,vmoreira@lssny.org,http://lssny.org,7,3,2,08XAGX,40.829501,-73.852614,9,18,78,2026420.0,2038090018.0,Westchester-Unionport                                                      
1648,XAHA,NYCEEC,X,Ready Set Learn,,718-484-8777,3480 Third Ave,10456,1,36,1010267,241697,kelleycandice14@gmail.com,http://rslcc.com,3,7,1,09XAHA,40.830169,-73.906233,3,16,145,2118328.0,2026097501.0,Claremont-Bathgate                                                         
1649,XAHB,NYCEEC,X,Grow With Us ( Susan E Wagner ),,718-299-6892,1732 Davidson Ave,10453,1,54,1008297,248215,smorenogwu@gmail.com,,3,7,2,09XAHB,40.847798,-73.91341899999999,5,14,217,2008362.0,2028610063.0,University Heights-Morris Heights                                          
1650,XAHD,NYCEEC,X,Mid Bronx CCRP ECC 4,<p><strong>Alert</strong>: Program may have income or other eligibility requirements. Contact for more information.</p>,917-962-9384,1020 Smt Ave,10452,1,31,1003706,243050,ogdendc@midbronx.org,http://midbronx.org,3,6,1,09XAHD,40.833776,-73.929869,4,8,189,2003457.0,2025250007.0,Highbridge                                                                 
1651,XAHF,NYCEEC,X,Dr. Katharine Dodge Brownell School,,914-375-8652,450 Castle Hl Ave,10473,3,25,1026551,236861,nbrown@leakeandwatts.org,,5,9,3,08XAHF,40.815883,-73.84729300000001,9,18,84,2021209.0,2035110030.0,Soundview-Castle Hill-Clason Point-Harding Park                            
1652,XAHH,NYCEEC,X,Trabajamos Community Head Start,<p><strong>Alert</strong>: Program may have income or other eligibility requirements. Contact for more information.</p>,917-259-7081,1997 Bathgate Ave,10457,1,43,1013008,248709,lbtrabajamos_hs@yahoo.com,http://trabajamoschs.com,3,4,1,10XAHH,40.848824,-73.896075,6,15,395,2011440.0,2030440024.0,Claremont-Bathgate                                                         
1653,XAHL,NYCEEC,X,East Bronx DCC,<p><strong>Alert</strong>: Program may have income or other eligibility requirements. Contact for more information.</p>,718-617-2900,1113 Colgate Ave,10472,1,40,1017010,240188,eastbronxdaycare@verizon.net,,3,7,1,08XAHL,40.82629,-73.881509,9,17,52,2023714.0,2037360001.0,Soundview-Bruckner                                                         
1654,XAHM,NYCEEC,X,Northeast Bronx DCC ( Susan Wagner ),,718-601-5401,5401 Post Rd,10471,1,38,1012413,267701,susanwagnerdayschool1@yahoo.com,,3,7,2,10XAHM,40.901354,-73.89784499999999,8,11,345,2084657.0,2058422002.0,North Riverdale-Fieldston-Riverdale                                        
1655,XAHO,NYCEEC,X,1332 Fulton Ave DCC,<p><strong>Alert</strong>: Program may have income or other eligibility requirements. Contact for more information.</p>,718-378-1330,1332 Fulton Ave,10456,1,36,1011201,242786,map1332fultondcc@outlook.com,,5,9,3,09XAHO,40.833147,-73.902814,3,16,149,2009685.0,2029310015.0,Morrisania-Melrose                                                         
1656,XAHR,NYCEEC,X,Concord Head Start / Early Learn Center,,718-292-8564,560 Concord Ave,10455,3,17,1009806,235709,dlicona@cmcs.org,http://cmcs.org,3,4,1,07XAHR,40.813452000000005,-73.90799399999999,1,8,73,2096871.0,2026410042.0,Melrose South-Mott Haven North                                             
1657,XAHS,NYCEEC,X,"Little Stars Too, Inc.",,718-515-8800,1083 Allerton Ave,10469,1,40,1023980,254689,lstarstoo@aol.com,http://littlestarsschool.com,5,9,3,11XAHS,40.865460999999996,-73.856406,11,13,344,2054002.0,2045200059.0,Allerton-Pelham Gardens                                                    
1658,XAHW,NYCEEC,X,Betances ECC ( NYCHA ),<p><strong>Alert</strong>: Program may have income or other eligibility requirements. Contact for more information.</p>,718-665-1100,528 East 146th St,10455,1,22,1007717,235292,Hammonda@e-s-s.org,http://essnyc.org,3,2,1,07XAHW,40.812728,-73.915397,1,8,43,2093913.0,2022720038.0,Mott Haven-Port Morris                                                     
1659,XAIB,NYCEEC,X,Throggs Neck Early Learn Center,<p><strong>Alert</strong>: Program may have income or other eligibility requirements. Contact for more information.</p>,718-882-0172,461 Swinton Ave,10465,1,20,1033307,238199,Familytnelc@gmail.com,,3,4,1,08XAIB,40.820332,-73.822263,10,13,144,2093888.0,2055820001.0,Schuylerville-Throgs Neck-Edgewater Park                                   
1660,XAIC,NYCEEC,X,LSSMNY : Early Life Children's Center 2,<p><strong>Alert</strong>: Program may have income or other eligibility requirements. Contact for more information.</p>,718-292-7015,888 Westchester Ave,10459,1,53,1012130,238249,djorge@lssny.org,,5,9,3,08XAIC,40.820809000000004,-73.899389,2,17,87,2005346.0,2026960030.0,Longwood                                                                   
1661,XAID,NYCEEC,X,LSSMNY : Early Life Children's Center 1,<p><strong>Alert</strong>: Program may have income or other eligibility requirements. Contact for more information.</p>,347-297-2900,80 East 181 St,10453,1,84,1010712,250788,jcebeno@lssny.org,http://lssny.org,3,7,1,10XAID,40.855076000000004,-73.904199,5,14,241,2013953.0,2031780032.0,Mount Hope                                                                 
1662,XAIE,NYCEEC,X,Mid Bronx CCRP ECC 3,<p><strong>Alert</strong>: Program may have income or other eligibility requirements. Contact for more information.</p>,917-962-9384,1360 Ogden Ave,10452,1,25,1005142,245938,ogdendc@midbronx.org,http://midbronx.org/,3,6,1,09XAIE,40.841677000000004,-73.92470300000001,4,16,211,2003376.0,2025220043.0,Highbridge                                                                 
1663,XAIF,NYCEEC,X,Be Above 52,<p><strong>Alert</strong>: Program may have income or other eligibility requirements. Contact for more information.</p>,718-466-7519,1810 Davidson Ave,10453,1,71,1008628,248837,gmoriah@babove.com,,3,7,2,10XAIF,40.849425,-73.91226800000001,5,14,217,2109470.0,2028610129.0,University Heights-Morris Heights                                          
1664,XAIM,NYCEEC,X,Highbridge Advisory Council ECC #3,<p><strong>Alert</strong>: Program may have income or other eligibility requirements. Contact for more information.</p>,718-293-9196,1399 Ogden Ave,10452,1,29,1005135,246172,souting@hacss.com,http://highbridgeadvisorycouncil.com,3,7,1,09XAIM,40.842292,-73.924276,4,16,201,2116205.0,2025350010.0,Highbridge                                                                 
1665,XAIN,NYCEEC,X,Highbridge Advisory Council DCC ( Nelson Avenue ),<p><strong>Alert</strong>: Program may have income or other eligibility requirements. Contact for more information.</p>,718-681-5216,1181 Nelson Ave,10452,1,72,1004754,244325,afortes@hacfs.com,http://hacfs.org,7,8,2,09XAIN,40.837232,-73.925706,4,16,199,2003301.0,2025160051.0,Highbridge                                                                 
1666,XAIQ,NYCEEC,X,Richard H Mangum ELC,<p><strong>Alert</strong>: Program may have income or other eligibility requirements. Contact for more information.</p>,718-590-0673,383 E 162nd St,10451,1,18,1008089,239884,mpaulino@hacfs.com,http://hacfs.org,3,3,2,09XAIQ,40.824952,-73.913944,3,17,143,2126620.0,2024080052.0,East Concourse-Concourse Village                                           
1667,XAKJ,NYCEEC,X,Wake - Eden Christian Academy,,718-325-8056,2074 Strang Ave,10466,1,36,1028603,263806,academy@wakeeden.org,,3,7,1,11XAKJ,40.890772999999996,-73.839801,12,12,426,2066715.0,2049580032.0,Woodlawn-Wakefield                                                         
1668,XAJB,NYCEEC,X,"Concourse House, HDFC",<p><strong>Alert</strong>: Program may have income or other eligibility requirements. Contact for more information.</p>,917-801-2515,2348 Webster Ave,10458,1,65,1013411,251627,wgelabert@concoursehouse.org,http://concoursehouse.org,3,3,2,10XAJB,40.857603000000005,-73.894699,6,15,38302,2115299.0,2030310021.0,Fordham South                                                              
1669,XAJD,NYCEEC,X,Bronx ECC,<p><strong>Alert</strong>: Program may have income or other eligibility requirements. Contact for more information.</p>,718-764-2409,1515 Southern Blvd,10460,1,40,1014570,242931,cmiree@childrensaidsociety.org,http://childrensaidsociety.org,3,7,1,12XAJD,40.833734,-73.889934,3,17,155,2113511.0,2029770110.0,Crotona Park East                                                          
1670,XAJF,NYCEEC,X,Brightside Academy - Louis Nine,<p><strong>Alert</strong>: Program may have income or other eligibility requirements. Contact for more information.</p>,718-991-2119,1336 Louis Nine Blvd,10459,1,39,1014127,242267,singram@brightsideacademy.com,http://brightsideacademy.com,5,7,1,12XAJF,40.831474,-73.89229399999999,3,17,123,2118405.0,2029767501.0,Crotona Park East                                                          
1671,XAJG,NYCEEC,X,Brightside Academy - Southern,<p><strong>Alert</strong>: Program may have income or other eligibility requirements. Contact for more information.</p>,718-842-2252,1093 Southern Blvd,10459,1,38,1014083,240232,adavis@brightsideacademy.com,http://brightsideacademy.com,5,7,1,12XAJG,40.825924,-73.89193,2,17,12701,2005806.0,2027270045.0,Hunts Point                                                                
1672,XAJJ,NYCEEC,X,Sharon Baptist - Center II,<p><strong>Alert</strong>: Program may have income or other eligibility requirements. Contact for more information.</p>,718-299-6500,279 East Burnside Ave,10457,1,54,1011451,249405,ecollazo70@yahoo.com,http://sharonbaptistheadstart.org,3,1,1,09XAJJ,40.851154,-73.901891,5,15,381,2013673.0,2031560081.0,Mount Hope                                                                 
1673,XAJK,NYCEEC,X,Brightside Academy - St. Ann's,<p><strong>Alert</strong>: Program may have income or other eligibility requirements. Contact for more information.</p>,718-585-1472,780 St Anns Ave,10456,1,31,1009167,238132,johrablo@brightsideacademy.com,http://brightsideacademy.com,5,1,1,07XAJK,40.819633,-73.910453,1,17,75,2117695.0,2026187501.0,Melrose South-Mott Haven North                                             
1674,XAJR,NYCEEC,X,"Providence Rest Child DCC, Inc.",,718-823-3588,3310 Campbell Dr,10465,1,18,1034871,244741,srtadcsjb@aol.com,http://providencerest.org,5,9,3,08XAJR,40.838253,-73.81747,10,13,27402,2075317.0,2054090133.0,Pelham Bay-Country Club-City Island                                        
1675,XAJT,NYCEEC,X,East Tremont Child Care And Development Center,<p><strong>Alert</strong>: Program may have income or other eligibility requirements. Contact for more information.</p>,718-731-4166,1811 Crotona Ave,10457,1,29,1013492,246478,etccdc@aol.com,http://etccdc.com,7,7,1,12XAJT,40.842893,-73.893457,6,15,36902,2092141.0,2029440001.0,East Tremont                                                               
1676,XAJU,NYCEEC,X,Children's Aid At P.S. 211,<p><strong>Alert</strong>: Program may have income or other eligibility requirements. Contact for more information.</p>,347-821-4222,1919 Prospect Ave,10457,1,28,1014768,246818,Tracyp@childrensaidsociety.org,,3,6,1,12XAJU,40.843546,-73.88975500000001,6,17,36901,2094582.0,2029510032.0,East Tremont                                                               
1677,XAKA,NYCEEC,X,Intervale ( Center #2 ),<p><strong>Alert</strong>: Program may have income or other eligibility requirements. Contact for more information.</p>,718-542-1161,1054 Intervale Ave,10459,1,62,1012885,239768,geure@lapen.com,http://lapen.com,5,9,3,12XAKA,40.824822999999995,-73.896839,2,17,131,2005481.0,2027050009.0,Longwood                                                                   
1678,XATO,NYCEEC,X,St. Anselm School,,718-993-9464,685 Tinton Ave,10455,1,90,1010413,236667,b223@adnyeducation.org,http://stanselmbx.org,3,3,1,07XATO,40.816288,-73.905151,1,17,79,2004684.0,2026540001.0,Melrose South-Mott Haven North                                             
1679,XAKB,NYCEEC,X,Watson Avenue ECC,<p><strong>Alert</strong>: Program may have income or other eligibility requirements. Contact for more information.</p>,718-828-9400,1880 Watson Ave,10472,1,44,1022610,241011,catherine.budington@birchfamilyservices.org,http://birchfamilyservices.org,3,3,1,08XAKB,40.828307,-73.86156,9,18,44,2023653.0,2037320039.0,Soundview-Bruckner                                                         
1680,XAKD,NYCEEC,X,Sound Dale Center For Ece,<p><strong>Alert</strong>: Program may have income or other eligibility requirements. Contact for more information.</p>,718-378-3533,1211 Croes Ave,10472,1,76,1019956,241613,bronxdale@verizon.net,,3,4,1,12XAKD,40.829767,-73.870728,9,18,68,2024083.0,2037480015.0,Soundview-Bruckner                                                         
1681,XAKE,NYCEEC,X,Bronx River Early Learn Center,<p><strong>Alert</strong>: Program may have income or other eligibility requirements. Contact for more information.</p>,718-842-6582,1555 East 174th St,10472,1,35,1017906,243401,angelamazzone@yahoo.com,,3,7,2,12XAKE,40.834294,-73.87885,9,18,62,2092903.0,2038860002.0,West Farms-Bronx River                                                     
1682,XAKF,NYCEEC,X,Stepping Stone Day School,,718-554-2025,2826 Westchester Ave,10461,1,18,1029809,246901,danf@steppingstonedayschool.org,http://steppingstonedayschool.com,7,3,2,08XAKF,40.844557,-73.83542,10,13,26602,2045795.0,2041560011.0,Pelham Bay-Country Club-City Island                                        
1683,XAKH,NYCEEC,X,Labor Bathgate Community CCC,<p><strong>Alert</strong>: Program may have income or other eligibility requirements. Contact for more information.</p>,718-583-3850,1638 Anthony Ave,10457,1,30,1010601,246201,laborbathgate@yahoo.com,,3,3,2,09XAKH,40.842662,-73.904889,4,16,167,2009316.0,2028880021.0,Claremont-Bathgate                                                         
1684,XAKO,NYCEEC,X,Episcopal Social Services Head Start ( Paul's House ),<p><strong>Alert</strong>: Program may have income or other eligibility requirements. Contact for more information.</p>,718-401-5133,500 Bergen Ave,10455,1,17,1006992,236189,damesa@e-s-s.org,http://essnyc.org,3,4,1,07XAKO,40.814876,-73.918234,1,8,43,2112706.0,2022920013.0,Mott Haven-Port Morris                                                     
1685,XAKQ,NYCEEC,X,Help III,<p><strong>Alert</strong>: Program may have income or other eligibility requirements. Contact for more information.</p>,718-583-1511,785 Crotona Park North,10460,1,13,1014332,245620,ldavis@helpusa.org,http://helpusa.org,3,3,2,12XAKQ,40.840627000000005,-73.89143299999999,6,17,367,2117956.0,2029520014.0,East Tremont                                                               
1686,XAKR,NYCEEC,X,Prospect ECC,<p><strong>Alert</strong>: Program may have income or other eligibility requirements. Contact for more information.</p>,718-617-6100,730 Kelly St,10455,1,11,1012083,236777,lcano@hfhnyc.org,http://hfhnyc.org,2,7,1,08XAKR,40.816517,-73.89971700000001,2,8,85,2094332.0,2027080025.0,Longwood                                                                   
1687,XAKX,NYCEEC,X,Anna Lefkowitz DCC,<p><strong>Alert</strong>: Program may have income or other eligibility requirements. Contact for more information.</p>,718-292-8682,690 Westchester Ave,10455,1,30,1010022,236827,judy.valez.phm@gmail.com,http://philiphmichaels.org,3,7,1,07XAKX,40.816584000000006,-73.907585,1,17,79,2091976.0,2026540002.0,Melrose South-Mott Haven North                                             
1688,XAKZ,NYCEEC,X,Harry H Gordon School ( NYL ),,718-367-5917,2465 Bathgate Ave,10458,1,8,1014939,251939,Melissa.bybel@yai.org,http://yai.org,2,4,2,10XAKZ,40.858243,-73.888671,6,15,387,2011776.0,2030580020.0,Belmont                                                                    
1689,XALA,NYCEEC,X,Westchester Tremont DCC,<p><strong>Alert</strong>: Program may have income or other eligibility requirements. Contact for more information.</p>,718-824-7390,2547 East Tremont Ave,10461,1,52,1026167,246560,enrollwtdcc@optimum.net,http://wtdcc.com,3,3,2,11XALA,40.843024,-73.848478,11,13,256,2044137.0,2040780010.0,Van Nest-Morris Park-Westchester Square                                    
1690,XALB,NYCEEC,X,WHEDco Early Childhood Discovery Center,<p><strong>Alert</strong>: Program may have income or other eligibility requirements. Contact for more information.</p>,718-839-1156,50 East 168th St,10452,1,96,1006644,244022,ybriu@whedco.org,http://whedco.org,3,3,2,09XALB,40.836725,-73.919292,4,16,197,2101464.0,2024800001.0,West Concourse                                                             
1691,XALE,NYCEEC,X,Np Ready Set Learn,,718-484-8210,830 Fox St,10459,1,36,1013027,237140,mimiallen26@gmail.com,,3,6,2,08XALE,40.817576,-73.896232,2,17,89,2120355.0,2027210010.0,Hunts Point                                                                
1692,XALJ,NYCEEC,X,"St. Jemuel Group Family Day Care, Inc.",<p><strong>Alert</strong>: Program may have income or other eligibility requirements. Contact for more information.</p>,718-601-9753,2836 Webb Ave,10468,1,28,1011744,257263,saintjemuel@hotmail.com,http://saintjemueldaycare.com,3,6,1,10XALJ,40.87299,-73.900734,8,14,26702,2015414.0,2032500062.0,Van Cortlandt Village                                                      
1693,XALQ,NYCEEC,X,Blondell Joyner DCC,<p><strong>Alert</strong>: Program may have income or other eligibility requirements. Contact for more information.</p>,718-665-7791,901 Tinton Ave,10456,1,26,1010864,238710,vsalters@sebnc.org,http://sebnc.org,7,3,2,08XALQ,40.82168,-73.903568,3,16,133,2091959.0,2026380090.0,Morrisania-Melrose                                                         
1694,XALR,NYCEEC,X,Five Star DCC,<p><strong>Alert</strong>: Program may have income or other eligibility requirements. Contact for more information.</p>,718-292-4774,3261 Third Ave,10456,1,41,1009508,239708,Kamey@sebnc.org,http://sebnc.org,3,3,1,08XALR,40.824489,-73.908528,3,17,185,2001228.0,2023680039.0,Morrisania-Melrose                                                         
1695,XALV,NYCEEC,X,Kingsbridge Heights Community Center,<p><strong>Alert</strong>: Program may have income or other eligibility requirements. Contact for more information.</p>,718-690-9466,295 West 231st St,10463,1,134,1009731,260248,ydisla@khcc-nyc.org,http://khcc-nyc.org,3,3,1,10XALV,40.880697999999995,-73.908162,8,11,289,2087522.0,2057130087.0,Spuyten Duyvil-Kingsbridge                                                 
1696,XALW,NYCEEC,X,Sharon Baptist - Center I,<p><strong>Alert</strong>: Program may have income or other eligibility requirements. Contact for more information.</p>,718-585-5876,507 East 165th St,10456,1,61,1009672,240510,wmaysonet012@yahoo.com,http://sharonbaptistheadstart.org,3,1,2,09XALW,40.826655,-73.908215,3,16,185,2001278.0,2023700045.0,Morrisania-Melrose                                                         
1697,XALY,NYCEEC,X,LSSMNY : Early Life Children's Center 4,<p><strong>Alert</strong>: Program may have income or other eligibility requirements. Contact for more information.</p>,917-962-4344,200 West Tremont Ave,10453,1,93,1007183,249635,dshuler@lssny.org,http://lssny.org,3,8,2,09XALY,40.851984,-73.916804,5,14,20502,2008966.0,2028770522.0,University Heights-Morris Heights                                          
1698,XALZ,NYCEEC,X,Mid Bronx Sr. Citizen Center,<p><strong>Alert</strong>: Program may have income or other eligibility requirements. Contact for more information.</p>,718-684-4790,100 East Mt Eden Ave,10452,1,96,1008365,246524,campbell.stephanie13@yahoo.com,,5,6,1,09XALZ,40.843540999999995,-73.912817,4,14,209,2008017.0,2028370011.0,West Concourse                                                             
1699,XARN,NYCEEC,X,Trabajamos Community Head Start,<p><strong>Alert</strong>: Program may have income or other eligibility requirements. Contact for more information.</p>,718-294-4333,1905 Morris Ave,10453,1,27,1009670,248955,lbtrabajamos_hs@yahoo.com,,3,6,1,09XARN,40.849902,-73.907951,5,14,23301,2109804.0,2028280037.0,Mount Hope                                                                 
1700,XAMA,NYCEEC,X,Brightside Academy - White Plains #2,<p><strong>Alert</strong>: Program may have income or other eligibility requirements. Contact for more information.</p>,718-653-4043,3942 White Plns Rd,10466,1,46,1022761,262392,lmcgee@brightsideacademy.com,http://brightsideacademy.com,5,7,1,11XAMA,40.886856,-73.86098199999999,12,12,396,2063371.0,2048370051.0,Williamsbridge-Olinville                                                   
1701,XAMB,NYCEEC,X,Trabajamos Community Head Start,<p><strong>Alert</strong>: Program may have income or other eligibility requirements. Contact for more information.</p>,917-962-9720,2167 University Ave,10453,1,40,1009274,251887,pcordero.trabajamos@gmail.com,http://trabajamoschs.com,3,6,1,10XAMB,40.858088,-73.90914000000001,7,14,255,2014731.0,2032170060.0,Kingsbridge Heights                                                        
1702,XAMI,NYCEEC,X,Aleene Logan Day Care,<p><strong>Alert</strong>: Program may have income or other eligibility requirements. Contact for more information.</p>,718-538-7135,1450 Webster Ave,10456,1,21,1010244,244483,la_ficklingcdc@yahoo.com,http://claremontcenter.org,3,8,1,09XAMI,40.837646,-73.906504,3,16,14702,2092076.0,2028950001.0,Claremont-Bathgate                                                         
1703,XAMQ,NYCEEC,X,Mosholu Montefiore - Van Cortlandt,,718-543-0231,3880 Sedgwick Ave,10463,1,54,1013642,260882,imelendez@mmcc.org,http://mmcc.org,3,7,1,10XAMQ,40.882996999999996,-73.894008,8,11,409,2086830.0,2032460076.0,Van Cortlandt Village                                                      
1704,XAMR,NYCEEC,X,Iola Jordan Day Care,<p><strong>Alert</strong>: Program may have income or other eligibility requirements. Contact for more information.</p>,718-402-4166,421 East 161st St,10451,1,73,1008327,239560,louiseburroughs@yahoo.com,http://nycmcs.org,3,3,1,07XAMR,40.824002,-73.913179,3,17,141,2001505.0,2023830012.0,Morrisania-Melrose                                                         
1705,XAMT,NYCEEC,X,East Side House,<p><strong>Alert</strong>: Program may have income or other eligibility requirements. Contact for more information.</p>,718-292-5335,375 East 143rd St,10454,1,38,1006041,235409,dcolon@eastsidehouse.org,http://eastsidehouse.org,3,4,2,07XAMT,40.812702,-73.921622,1,8,41,2091101.0,2023060009.0,Mott Haven-Port Morris                                                     
1706,XAMV,NYCEEC,X,Children's Pride,<p><strong>Alert</strong>: Program may have income or other eligibility requirements. Contact for more information.</p>,718-401-4242,414 Morris Ave,10451,1,29,1005446,236393,dcolon@eastsidehouse.org,http://eastsidehouse.org,3,4,2,07XAMV,40.815528,-73.923923,1,8,51,2097853.0,2023240001.0,Mott Haven-Port Morris                                                     
1707,XAMW,NYCEEC,X,East Side House,<p><strong>Alert</strong>: Program may have income or other eligibility requirements. Contact for more information.</p>,718-993-3692,200 Alexander Ave,10454,1,19,1004851,234005,dcolon@eastsidehouse.org,http://eastsidehouse.org,3,4,2,07XAMW,40.808753,-73.92608100000001,1,8,23,2091097.0,2022980040.0,Mott Haven-Port Morris                                                     
1708,XAMZ,NYCEEC,X,Philip H Michaels CDC,<p><strong>Alert</strong>: Program may have income or other eligibility requirements. Contact for more information.</p>,718-665-9410,629 Courtlandt Ave,10451,1,126,1006695,237487,yunkim55@hotmail.com,http://phmny.org,3,7,1,07XAMZ,40.818422999999996,-73.91871400000001,1,17,67,2001876.0,2024110041.0,Melrose South-Mott Haven North                                             
1709,XANA,NYCEEC,X,South Bronx Head Start I,<p><strong>Alert</strong>: Program may have income or other eligibility requirements. Contact for more information.</p>,718-292-7250,490 East 143rd St,10454,1,35,1006976,234773,southbronxhs@aol.com,http://southbronxheadstart.com,3,7,2,07XANA,40.811121,-73.917603,1,8,41,2000433.0,2022870135.0,Mott Haven-Port Morris                                                     
1710,XANC,NYCEEC,X,"Salvation Army, Bronx Citadel",<p><strong>Alert</strong>: Program may have income or other eligibility requirements. Contact for more information.</p>,718-742-2346,425 E 159th St,10451,1,20,1008222,239041,valerie.toon@use.salvationarmy.org,,7,3,1,07XANC,40.822685,-73.913636,3,17,141,2092353.0,2023810029.0,Morrisania-Melrose                                                         
1711,XANI,NYCEEC,X,Ivy League Early Learning Academy,,718-239-5275,4022 East Tremont Ave,10465,1,90,1034629,237946,bronx@ivyleagueearlylearning.com,http://ivyleagueearlylearning.com,3,3,1,08XANI,40.819635999999996,-73.817594,10,13,132,2080463.0,2055760097.0,Schuylerville-Throgs Neck-Edgewater Park                                   
1712,XANJ,NYCEEC,X,"Just 4 Kids Soundview Center, Inc.",,917-995-8041,214 - 216 Soundview Ave,10473,1,20,1024332,234371,djust4kids@aol.com,,3,6,1,08XANJ,40.809803,-73.855414,9,18,4,2097520.0,2034560005.0,Soundview-Castle Hill-Clason Point-Harding Park                            
1713,XANK,NYCEEC,X,Just 4 Kids Kiddie Kollege,,917-995-8041,781 Castle Hl Ave,10473,1,18,1025921,239130,Djust4kids@aol.com,,3,3,2,08XANK,40.822846000000006,-73.84893199999999,9,18,86,2086994.0,2036120001.0,Soundview-Castle Hill-Clason Point-Harding Park                            
1714,XANN,NYCEEC,X,Gwendolyn Bland Dc,<p><strong>Alert</strong>: Program may have income or other eligibility requirements. Contact for more information.</p>,718-991-1050,749 East 163rd St,10456,1,39,1010834,239321,KNorfleet@sebnc.org,http://sebnc.org,3,7,1,08XANN,40.822957,-73.904108,3,16,133,2091965.0,2026390001.0,Morrisania-Melrose                                                         
1715,XANT,NYCEEC,X,Louis A Fickling CDC,<p><strong>Alert</strong>: Program may have income or other eligibility requirements. Contact for more information.</p>,718-538-7135,1240 Webster Ave,10456,1,24,1009415,242608,La_ficklingcdc@yahoo.com,http://claremontcenter.org,3,8,1,09XANT,40.832675,-73.909388,3,16,145,2091187.0,2023950001.0,Claremont-Bathgate                                                         
1716,XANU,NYCEEC,X,Help II,<p><strong>Alert</strong>: Program may have income or other eligibility requirements. Contact for more information.</p>,718-498-4002,285 East 171st St,10457,1,23,1009073,244994,cviruet@helpusa.org,,3,7,1,09XANU,40.838859,-73.910297,4,16,225,2094523.0,2027870001.0,East Concourse-Concourse Village                                           
1717,XANV,NYCEEC,X,Highbridge Advisory Council Doris East Stone Day Care,<p><strong>Alert</strong>: Program may have income or other eligibility requirements. Contact for more information.</p>,718-681-5888,1165 University Ave,10452,1,25,1003919,244672,afrancis@hacfs.com,http://hacfs.org,3,8,2,09XANV,40.837198,-73.928159,4,16,193,2095219.0,2025270032.0,Highbridge                                                                 
1718,XANW,NYCEEC,X,Highbridge Advisory Council Head Start,<p><strong>Alert</strong>: Program may have income or other eligibility requirements. Contact for more information.</p>,718-992-1321,880 Riv Ave,10452,1,47,1004909,241051,bhernandez@hdst.org,http://hacfamilyservices.org/,3,8,2,09XANW,40.828333,-73.925625,4,8,195,2002988.0,2024840009.0,West Concourse                                                             
1719,XANX,NYCEEC,X,Highbridge Advisory Council Marshall England ELC,<p><strong>Alert</strong>: Program may have income or other eligibility requirements. Contact for more information.</p>,718-742-2369,800 Concourse Vlg East,10451,1,40,1006652,239509,Childcare@hacfs.com,http://hacfs.org,5,9,3,07XANX,40.823879999999996,-73.919379,4,16,173,2001910.0,2024200040.0,East Concourse-Concourse Village                                           
1720,XANZ,NYCEEC,X,Walton ( Center #5 ),<p><strong>Alert</strong>: Program may have income or other eligibility requirements. Contact for more information.</p>,718-542-1161,1871 Walton Ave,10453,1,109,1009205,248531,ahoward@lapen.com,,3,7,2,09XANZ,40.848898999999996,-73.90952800000001,5,14,23301,2098479.0,2028510021.0,Mount Hope                                                                 
1721,XAOA,NYCEEC,X,Promesa Multi - Cultural DCC II,<p><strong>Alert</strong>: Program may have income or other eligibility requirements. Contact for more information.</p>,347-649-3267,300 East 175th St,10457,1,74,1010673,247693,awhite@promesa.org,http://promesa.org,7,6,2,09XAOA,40.84663,-73.904558,5,15,231,2112731.0,2028910039.0,Mount Hope                                                                 
1722,XAOB,NYCEEC,X,South Bronx Head Start II,<p><strong>Alert</strong>: Program may have income or other eligibility requirements. Contact for more information.</p>,718-292-7250,141 Featherbed Ln,10452,1,46,1006301,247653,southbronxhs3@aol.com,,5,9,3,09XAOB,40.846198,-73.920245,5,14,21502,2008817.0,2028760060.0,University Heights-Morris Heights                                          
1723,XAOC,NYCEEC,X,South Bronx III,<p><strong>Alert</strong>: Program may have income or other eligibility requirements. Contact for more information.</p>,718-538-4112,1458 Webster Ave,10456,1,36,1010280,244553,Southbronxhs3@aol.com,,5,9,3,09XAOC,40.837926,-73.90633100000001,3,16,14702,2092076.0,2028950001.0,Claremont-Bathgate                                                         
1724,XAOD,NYCEEC,X,Bronxworks,<p><strong>Alert</strong>: Program may have income or other eligibility requirements. Contact for more information.</p>,718-508-3054,1130 Grand Concourse,10456,1,37,1006701,242570,oadegoke@bronxworks.org,http://bronxworks.org,3,4,1,09XAOD,40.832330999999996,-73.91959,4,16,18102,2002833.0,2024620042.0,East Concourse-Concourse Village                                           
1725,XAOF,NYCEEC,X,Tremont Monterey DCC II,<p><strong>Alert</strong>: Program may have income or other eligibility requirements. Contact for more information.</p>,718-466-6700,1600 Bathgate Ave,10457,1,32,1011650,245000,tmdccsiteii@aol.com,http://tremontmonterey.com,3,4,1,09XAOF,40.839379,-73.90121500000001,3,16,167,2009582.0,2029190005.0,Claremont-Bathgate                                                         
1726,XAOI,NYCEEC,X,Sharon Baptist - Center IV,<p><strong>Alert</strong>: Program may have income or other eligibility requirements. Contact for more information.</p>,718-466-1604,1925 Bathgate Ave,10457,1,46,1012697,247994,orchidsmjj@aol.com,http://sharonbaptistheadstart.org,3,7,2,09XAOI,40.847442,-73.896858,6,15,395,2011426.0,2030430030.0,Claremont-Bathgate                                                         
1727,XAOK,NYCEEC,X,Seventh Avenue Center For Family Services,<p><strong>Alert</strong>: Program may have income or other eligibility requirements. Contact for more information.</p>,718-901-0140,1646 Montgomery Ave,10453,1,31,1006412,248497,info@7thavenuecenter.org,,3,6,2,09XAOK,40.848772,-73.92005,5,14,21501,2008989.0,2028780028.0,University Heights-Morris Heights                                          
1728,XAOL,NYCEEC,X,St. Nicholas Of Tolentine Head Start,,718-364-7608,2331 University Ave,10468,3,18,1010252,253344,msuarez@cmcs.org,http://cmcs.org,3,2,1,10XAOL,40.8613,-73.906258,7,14,255,2095380.0,2032180035.0,Kingsbridge Heights                                                        
1729,XAOM,NYCEEC,X,Belmont CDC Center,<p><strong>Alert</strong>: Program may have income or other eligibility requirements. Contact for more information.</p>,718-584-1576,2340 Cambreleng Ave,10458,1,104,1016011,250310,bcdaycare@verizon.net,http://belmontdaycare.org,2,3,1,10XAOM,40.853678,-73.885657,6,15,391,2012517.0,2030890024.0,Belmont                                                                    
1730,XAON,NYCEEC,X,Brenda's Playschool,,718-796-5048,3930 Bailey Ave,10463,1,12,1013286,261771,Brendacaceres@aol.com,,5,6,1,10XAON,40.885333,-73.895053,8,11,279,2016009.0,2032630047.0,Van Cortlandt Village                                                      
1731,XAOR,NYCEEC,X,Kingsbridge Montessori School,,718-561-8111,2500 Jerome Ave,10468,1,36,1012039,254055,jasmineedu@aol.com,http://riverdalekingsbridgemontessori.com,7,4,1,10XAOR,40.864053000000006,-73.900054,7,14,401,2014129.0,2031900001.0,Bedford Park-Fordham North                                                 
1732,XAOS,NYCEEC,X,Riverdale Montessori School,,718-543-4884,5705 Mosholu Ave,10471,1,38,1011806,269258,jasmineedu@aol.com,http://riverdalekingsbridgemontessori.com,7,7,1,10XAOS,40.905522999999995,-73.900386,8,11,345,2085035.0,2058590304.0,North Riverdale-Fieldston-Riverdale                                        
1733,XAOT,NYCEEC,X,Kingsbridge Heights Community Center,<p><strong>Alert</strong>: Program may have income or other eligibility requirements. Contact for more information.</p>,718-884-0700,3101 Kingsbridge Ter,10463,1,41,1011744,259002,ydisla@khcc-nyc.org,http://khcc.org,3,3,1,10XAOT,40.877505,-73.90033000000001,8,14,277,2015788.0,2032570111.0,Van Cortlandt Village                                                      
1734,XAOU,NYCEEC,X,Marble Hill Nursery School,,718-562-7055,5470 Broadway,10463,1,40,1009996,258430,marblehill5470@aol.com,http://marblehillnurseryschool.org,8,7,1,10XAOU,40.876363,-73.90734300000001,8,10,309,1082781.0,1022150116.0,Marble Hill-Inwood                                                         
1735,XAOV,NYCEEC,X,Marc Academy And Family Center,<p><strong>Alert</strong>: Program may have income or other eligibility requirements. Contact for more information.</p>,718-562-3410,2105 Jerome Ave,10453,1,56,1010084,250789,drodriguez@marcafc.org,http://marcafc.org,3,8,2,10XAOV,40.854877,-73.906397,5,14,251,2094675.0,2031920056.0,University Heights-Morris Heights                                          
1736,XAOW,NYCEEC,X,Mosholu Montefiore Community Center - Northside Annex,,718-405-0020,3512 Dekalb Ave,10467,1,20,1017452,260836,imelendez@mmcc.org,http://mmcc.org,3,7,1,10XAOW,40.882728,-73.88006,7,11,431,2094751.0,2033280138.0,Norwood                                                                    
1737,XAOX,NYCEEC,X,CDC Of Mosholu Montefiore CC,,718-882-4000,3450 Dekalb Ave,10467,3,144,1017203,260454,cmorello@mmcc.org,http://mmc.org,1,7,1,10XAOX,40.881485999999995,-73.881226,7,11,421,2096396.0,2033270001.0,Norwood                                                                    
1738,XAPA,NYCEEC,X,"Riverdale Neighborhood House, Inc.",,718-549-8100,5521 Mosholu Ave,10471,1,72,1010824,268413,Kpowers@riverdaleonline.org,http://riverdaleonline.org,5,3,1,10XAPA,40.903039,-73.90375,8,11,337,2119685.0,2058501585.0,North Riverdale-Fieldston-Riverdale                                        
1739,XAPB,NYCEEC,X,Riverdale Presbyterian Church And Nursery School,,718-548-8260,4765 Henry Hudson Pkwy West,10471,3,40,1009462,265716,bmerceinrpcns@gmail.com,http://rpcns.com,8,3,2,10XAPB,40.896258,-73.908314,8,11,30701,2087605.0,2059120013.0,North Riverdale-Fieldston-Riverdale                                        
1740,XAPC,NYCEEC,X,Riverdale Temple Nursery School,,718-796-0335,4545 Independence Ave,10471,1,31,1008351,264156,nsdirector.rtns@gmail.com,,8,3,2,10XAPC,40.891762,-73.91220799999999,8,11,309,2088698.0,2059200456.0,North Riverdale-Fieldston-Riverdale                                        
1741,XAPD,NYCEEC,X,Riverdale Y Early Childhood Program,,347-913-4445,5625 Arlington Ave,10471,1,36,1009650,269077,mfinkel@riverdaley.org,http://riverdaley.org,7,3,1,10XAPD,40.905009,-73.907133,8,11,323,2086312.0,2059520374.0,North Riverdale-Fieldston-Riverdale                                        
1742,XAPE,NYCEEC,X,Spuyten Duyvil Preschool,,718-549-1525,3041 Kingsbridge Ave,10463,1,36,1009812,259691,director@spuytenduyvilpreschool.org,http://spuytenduyvilpreschool.org,8,7,1,10XAPE,40.878954,-73.90740100000001,8,11,289,2083194.0,2057090046.0,Spuyten Duyvil-Kingsbridge                                                 
1743,XAPH,NYCEEC,X,Round The Clock Nursery,,718-329-6023,2380 Marion Ave,10458,1,100,1013188,251996,faith.shein@oundtheclocknursery.org,http://roundtheclocknursery.org,3,7,1,10XAPH,40.858458,-73.89546700000001,5,15,38302,2011053.0,2030240008.0,Fordham South                                                              
1744,XAPI,NYCEEC,X,St. Dominics Torch,,718-365-7238,2340 Andrews Ave,10468,5,36,1010129,253401,erosally@sdomhome.org,http://stdominicshome.org,2,2,2,10XAPI,40.862282,-73.906589,7,14,255,2094684.0,2032180035.0,Kingsbridge Heights                                                        
1745,XAPK,NYCEEC,X,Salvation Army Tremont,<p><strong>Alert</strong>: Program may have income or other eligibility requirements. Contact for more information.</p>,212-337-7254,2121 Washington Ave,10457,1,40,1013186,249763,Scott.See@use.salvationarmy.org,http://salvationarmy.org,3,3,1,10XAPK,40.852013,-73.895268,6,15,395,2115960.0,2030370015.0,Claremont-Bathgate                                                         
1746,XAPN,NYCEEC,X,1199 Future Of America Learning Center,,718-562-2915,2500 Creston Ave,10468,1,60,1012506,253623,Erica.Vincenty@1199ccc.org,,5,9,3,10XAPN,40.862953000000005,-73.897948,7,14,401,2013811.0,2031670001.0,Bedford Park-Fordham North                                                 
1747,XAPP,NYCEEC,X,Bronx House 1,,718-792-1800,990 Pelham Pkwy South,10461,1,90,1022819,251399,serene@bronxhouse.org,http://bronxhouse.org,8,1,1,11XAPP,40.856804,-73.860354,11,13,248,2088568.0,2043287501.0,Pelham Parkway                                                             
1748,XAPQ,NYCEEC,X,Bronx House 2,,718-792-1800,2222 Wallace Ave,10467,1,72,1021784,252051,serene@bronxhouse.org,http://bronxhouse.org,8,7,2,11XAPQ,40.858343,-73.864649,11,13,328,2093364.0,2043490001.0,Bronxdale                                                                  
1749,XAPT,NYCEEC,X,"Little Stars School, Inc.",,718-994-0604,4063 Edson Ave,10466,1,76,1027284,264123,lstarsassistant@aol.com,http://littlestarspreschools.com,3,7,1,11XAPT,40.891591,-73.844128,12,12,426,2067475.0,2049800066.0,Woodlawn-Wakefield                                                         
1750,XARJ,NYCEEC,X,Santa Maria School,,718-863-5047,1651 Zerega Ave,10462,1,207,1025506,245112,santamariaec@yahoo.com,http://santamariabronx.org,7,3,1,11XARJ,40.839496999999994,-73.850633,10,18,204,2042064.0,2039910078.0,Westchester-Unionport                                                      
1751,XAPU,NYCEEC,X,North Bronx Ncnw CDC,<p><strong>Alert</strong>: Program may have income or other eligibility requirements. Contact for more information.</p>,718-231-7100,4035 White Plns Rd,10466,1,81,1023021,263428,Rdavis82@gmail.com,,3,3,1,11XAPU,40.889536,-73.859522,12,12,408,2063070.0,2048290006.0,Williamsbridge-Olinville                                                   
1752,XAPV,NYCEEC,X,Rainbow Rhymes Learning Center,,718-882-2388,4041 Bruner Ave,10466,1,18,1026559,263889,rrlcbest@yahoo.com,,5,9,3,11XAPV,40.890854,-73.846705,12,12,426,2067280.0,2049770051.0,Woodlawn-Wakefield                                                         
1753,XAPW,NYCEEC,X,United Educare Preschool,,718-882-4706,3950 Bronxwood Ave,10466,1,54,1024391,261850,ueccc@aol.com,,3,6,1,11XAPW,40.885455,-73.85499200000001,12,12,404,2064389.0,2048600045.0,Williamsbridge-Olinville                                                   
1754,XAPX,NYCEEC,X,Williamsbridge Naacp Early Childhood Education Center,,718-798-1262,670 East 219th St,10467,1,54,1021942,261246,WillmsbrdgeECEC@aol.com,http://williamsbridge-ecec.org,2,4,2,11XAPX,40.883871,-73.863773,12,12,392,2057523.0,2046510044.0,Williamsbridge-Olinville                                                   
1755,XAPY,NYCEEC,X,Susan Wagner Day Care,<p><strong>Alert</strong>: Program may have income or other eligibility requirements. Contact for more information.</p>,718-547-1735,1140 East 229th St,10466,1,66,1027010,262121,Laura7r@aol.com,,3,7,1,11XAPY,40.88629,-73.845378,12,12,458,2094178.0,2049050001.0,Eastchester-Edenwald-Baychester                                            
1756,XAPZ,NYCEEC,X,St. Anthony I,,718-823-7202,1750 Mansion St,10460,3,18,1020376,244553,nsoto@cmcs.org,http://cmcs.org,3,2,1,12XAPZ,40.837975,-73.869555,9,18,218,2028456.0,2039140022.0,West Farms-Bronx River                                                     
1757,XAQA,NYCEEC,X,Tremont Crotona,<p><strong>Alert</strong>: Program may have income or other eligibility requirements. Contact for more information.</p>,718-378-5600,1600 Crotona Park East,10460,1,55,1014345,244075,virgo_karlene@yahoo.com,,3,8,1,12XAQA,40.836705,-73.891205,3,17,155,2009866.0,2029390090.0,Crotona Park East                                                          
1758,XAQK,NYCEEC,X,Saints Philip & James School,,718-882-4576,1160 East 213th St,10469,1,54,1025045,258216,school@spjschool.org,http://stsphilipandjameschurch.com,3,1,1,11XAQK,40.875532,-73.852432,12,12,368,2059782.0,2047070001.0,Williamsbridge-Olinville                                                   
1759,XAQL,NYCEEC,X,Corry Academy,,718-994-4650,4321 Barnes Ave,10466,1,156,1024860,265557,bmccrory@sfabx.com,http://sfabx.com,3,3,2,11XAQL,40.895365999999996,-73.852905,12,11,434,2097444.0,2050450008.0,Woodlawn-Wakefield                                                         
1760,XAQS,NYCEEC,X,Happy Days @ Riverdale,,718-601-1300,2975 Independence Ave,10463,1,18,1006704,261059,happydaysrd@gmail.com,http://renanimpreschool.com,3,4,1,10XAQS,40.882892,-73.917344,8,11,301,2100381.0,2057500382.0,Spuyten Duyvil-Kingsbridge                                                 
1761,XAQY,NYCEEC,X,Susan Wagner Victory,<p><strong>Alert</strong>: Program may have income or other eligibility requirements. Contact for more information.</p>,718-655-5500,3440 White Plns Rd,10467,1,31,1021233,258503,Swagner3440@gmail.com,,3,7,1,11XAQY,40.876472,-73.866945,12,12,374,2093518.0,2046290050.0,Williamsbridge-Olinville                                                   
1762,XAQZ,NYCEEC,X,Mid Bronx CCRP ECC 1,<p><strong>Alert</strong>: Program may have income or other eligibility requirements. Contact for more information.</p>,718-590-7042,1125 Grand Concourse,10452,1,131,1006307,242701,dmoon@midbronx.org,http://midbronx.org,3,6,1,09XAQZ,40.832627,-73.919398,4,16,195,2002893.0,2024720034.0,West Concourse                                                             
1763,XARA,NYCEEC,X,"HCC Children's Center, Inc.",,718-518-4209,475 Grand Concourse,10451,3,36,1004188,237336,pmartinez@hostos.cuny.edu,http://hostos.cuny.edu,2,7,2,07XARA,40.817954,-73.927599,1,17,63,2001038.0,2023460029.0,West Concourse                                                             
1764,XARC,NYCEEC,X,Fulton ( Center #4 ),<p><strong>Alert</strong>: Program may have income or other eligibility requirements. Contact for more information.</p>,718-542-1161,1717 Fulton Ave,10457,1,54,1012465,245969,ngomez@lapen.com,,3,7,2,09XARC,40.841596,-73.897767,3,15,165,2100071.0,2029300075.0,Claremont-Bathgate                                                         
1765,XARD,NYCEEC,X,Bronx ELC,,718-466-3915,1887 Bathgate Ave,10457,1,16,1012610,247677,snissim@voa-gny.org,http://voa-gny.org,3,3,2,09XARD,40.846391,-73.897297,6,15,395,2009578.0,2029180024.0,Claremont-Bathgate                                                         
1766,XARG,NYCEEC,X,Monsignor Boyle,<p><strong>Alert</strong>: Program may have income or other eligibility requirements. Contact for more information.</p>,718-405-7824,3044 Hull Ave,10467,1,56,1017576,256812,epabon@cmcs.org,http://cmcs.org,3,4,1,10XARG,40.87177,-73.879316,7,11,425,2017913.0,2033320010.0,Norwood                                                                    
1767,XARH,NYCEEC,X,Leake And Watts Head Start,,718-904-1689,2165 Randall Ave,10473,3,20,1026113,237777,ballen@leakeandwatts.org,,1,7,1,08XARH,40.818918,-73.848836,9,18,86,2092673.0,2035700001.0,Soundview-Castle Hill-Clason Point-Harding Park                            
1768,XARI,NYCEEC,X,Lehman College Childcare Center,,718-960-8746,250 Bedford Park Blvd West,10468,1,18,1013778,258009,jaci@imagineelc.com,http://imagineelc.com,8,3,1,10XARI,40.875028,-73.89286,7,11,409,2097309.0,2032470165.0,Van Cortlandt Village                                                      
1769,XARK,NYCEEC,X,Sacred Heart Head Start,,718-293-2006,95 West 168th St,10452,3,18,1005170,244756,mserrano@cmcs.org,http://cmcs.org,3,4,1,09XARK,40.838321,-73.924537,4,16,211,2003305.0,2025170001.0,Highbridge                                                                 
1770,XARM,NYCEEC,X,Trabajamos Community Head Start,<p><strong>Alert</strong>: Program may have income or other eligibility requirements. Contact for more information.</p>,718-893-2865,940 East 156th St,10455,1,18,1011807,236731,lbtrabajamos_hs@yahoo.com,http://trabajamoschs.com,3,6,2,08XARM,40.81646,-73.900226,2,17,85,2005412.0,2027010001.0,Longwood                                                                   
1771,XARO,NYCEEC,X,Trabajamos Community Head Start,<p><strong>Alert</strong>: Program may have income or other eligibility requirements. Contact for more information.</p>,718-933-5560,2260 Crotona Ave,10457,1,23,1016172,249507,kdelacruz.trabajamos@gmail.com,http://trabajamoschs.com,3,7,1,10XARO,40.851232,-73.885242,6,15,393,2012816.0,2031010023.0,Belmont                                                                    
1772,XARP,NYCEEC,X,Just 4 Kids Monsignor Scanlan,,917-217-1781,955 Hutchinson Riv Pkwy,10465,1,18,1029305,240511,DJust4Kids@aol.com,,3,3,1,08XARP,40.826137,-73.83678,10,13,90,2097749.0,2055420001.0,Soundview-Castle Hill-Clason Point-Harding Park                            
1773,XARQ,NYCEEC,X,Learning Ladder DCC,,718-618-0782,"100 Aldrich St, Bldg 15a",10475,1,36,1030787,256520,madelinaenriquez@allcareps.org,http://allcareps.org,3,6,1,11XARQ,40.870067,-73.832153,10,12,46201,2095395.0,2051410120.0,Co-op City                                                                 
1774,XARR,NYCEEC,X,"Kiderific Nursery School, Inc.",,718-518-7170,1621 Pilgrim Ave,10461,1,26,1030173,246870,kiderific@gmail.com,http://kiderificnurseryschool.com,7,3,1,08XARR,40.844085,-73.83376899999999,10,13,26602,2045852.0,2041570050.0,Pelham Bay-Country Club-City Island                                        
1775,XARS,NYCEEC,X,3467 Ready Set Learn,,718-665-1234,3467 Third Ave,10456,1,89,1010105,241705,rosecano29@gmail.com,http://rslcc.com,3,6,1,09XARS,40.829908,-73.906374,3,16,145,2098317.0,2023720041.0,Claremont-Bathgate                                                         
1776,XART,NYCEEC,X,Brightside Academy,<p><strong>Alert</strong>: Program may have income or other eligibility requirements. Contact for more information.</p>,718-292-0812,331 East 150th St,10451,1,49,1006379,237157,evasquez@brightsideacademy.com,http://brightsideacademy.com,5,7,1,07XART,40.817477000000004,-73.9202,1,17,65,2001854.0,2024100056.0,Melrose South-Mott Haven North                                             
1777,XARV,NYCEEC,X,Bronx DCC Inc.,,718-240-9300,559 East Tremont Ave,10457,1,18,1013339,247756,Asad4222@gmail.com,,5,9,3,10XARV,40.846515000000004,-73.894944,6,15,37504,2011829.0,2030600055.0,East Tremont                                                               
1778,XARW,NYCEEC,X,CS 61 Early Childhood,,718-764-2409,1550 Crotona Park East,10460,1,60,1013920,243972,lachellew@childrensaidsociety.org,http://childrensaidsociety.org,3,8,2,12XARW,40.836575,-73.89281700000001,3,17,153,2009865.0,2029390045.0,Crotona Park East                                                          
1779,XASA,NYCEEC,X,St. Dominics Torch,,347-270-9219,2195 Valentine Ave,10457,1,60,1012155,250830,jsuazo@sdomhome.org,,3,8,2,10XASA,40.854893,-73.898983,5,15,381,2013546.0,2031490140.0,Mount Hope                                                                 
1780,XASB,NYCEEC,X,New Covenant Christian School,,718-328-6072,1179 Boston Rd,10456,1,18,1011106,241389,mmark@ncchristianschool.org,,5,9,3,9XASB,40.828942,-73.90300400000001,3,16,185,2004287.0,2026140043.0,Morrisania-Melrose                                                         
1781,XASC,NYCEEC,X,Seabury CCC,<p><strong>Alert</strong>: Program may have income or other eligibility requirements. Contact for more information.</p>,718-991-1500,575 Soundview Ave,10473,1,54,1022548,236873,spaye@leakeandwatts.org,,5,9,3,08XASC,40.816875,-73.86140999999999,9,18,16,2021465.0,2035230034.0,Soundview-Castle Hill-Clason Point-Harding Park                            
1782,XASE,NYCEEC,X,Ft. George Universal Pre - K,,212-795-9184,489 St Paul's Pl,10456,1,40,1010913,243946,agrossbard@ftgeocenterhs.org,,3,3,2,09XASE,40.836098,-73.903825,3,16,14702,2009542.0,2029110030.0,Claremont-Bathgate                                                         
1783,XASH,NYCEEC,X,Tolentine Zeiser Community Life Center,<p><strong>Alert</strong>: Program may have income or other eligibility requirements. Contact for more information.</p>,718-933-6935,2340 Andrews Ave,10468,1,118,1010162,253394,mgmaggie2@aol.com,http://tzclc.org,3,1,1,10XASH,40.862282,-73.906589,7,14,255,2094684.0,2032180035.0,Kingsbridge Heights                                                        
1784,XASI,NYCEEC,X,"Garvey School, The",,718-320-3902,4120 Hutchinson Riv Pkwy,10475,1,72,1032645,253902,admissions@garveyschool.org,http://garveyschool.org,3,8,1,11XASI,40.863774,-73.825123,10,12,302,2093863.0,2051350051.0,Co-op City                                                                 
1785,XASN,NYCEEC,X,Lion Of Judah Christian Academy ( Lojca ),,718-772-3238,2336 Andrews Ave,10468,1,12,1010085,253313,lojcarev55@yahoo.com,,5,9,3,10XASN,40.8622,-73.906662,7,14,255,2094688.0,2032180035.0,Kingsbridge Heights                                                        
1786,XASO,NYCEEC,X,Mind - Builders Creative Arts Center,,718-652-6256,3415 Olinville Ave,10467,1,18,1020647,258378,madaha@mind-builders.org,http://mind-builders.org,5,9,3,11XASO,40.87593,-73.868125,12,12,376,2056942.0,2046270037.0,Williamsbridge-Olinville                                                   
1787,XAST,NYCEEC,X,Ciditty Kiddie Pre - K,,718-924-5758,1700 Seward Ave,10473,1,36,1020897,237399,iris7092002@yahoo.com,,5,9,3,08XAST,40.818497,-73.86805799999999,9,18,20,2092649.0,2035510001.0,Soundview-Castle Hill-Clason Point-Harding Park                            
1788,XASV,NYCEEC,X,"Bright Star Day Care At Rochambeau, Inc.",,718-864-8922,3130 Rochambeau Ave,10467,1,36,1017415,257712,brightstar3130@gmail.com,,5,9,3,10XASV,40.874134000000005,-73.88031,7,11,419,2017998.0,2033350060.0,Norwood                                                                    
1789,XASW,NYCEEC,X,Holy Spirit Head Start,,718-402-0081,1960 University Ave,10453,1,72,1008603,250307,rgershenlowy@cmcs.org,http://cmcs.org,5,9,3,10XASW,40.853175,-73.91268199999999,5,14,243,2094544.0,2028680111.0,University Heights-Morris Heights                                          
1790,XASX,NYCEEC,X,St. Barnabas School,,718-324-1088,413 East 241st St,10470,1,180,1021464,267963,b229@adnyeducation.org,http://stbarnabasschool.org,5,9,3,11XASX,40.901987,-73.865089,12,11,45102,2019742.0,2033940055.0,Woodlawn-Wakefield                                                         
1791,XASY,NYCEEC,X,Holy Rosary Early Childhood At St. Mary Star Of The Sea,,718-652-1838,580 Minnieford Ave,10464,1,36,1042492,250627,b204@adnyeducation.org,http://holyrosaryschoolbronx.org,5,9,3,11XASY,40.854213,-73.789563,10,13,516,2101013.0,2056470108.0,Pelham Bay-Country Club-City Island                                        
1792,XATC,NYCEEC,X,United Bronx Parents,<p><strong>Alert</strong>: Program may have income or other eligibility requirements. Contact for more information.</p>,917-259-7443,1332 Fulton Ave,10456,1,36,1011231,242773,,,5,9,3,09XATC,40.833147,-73.902814,3,16,149,2009685.0,2029310015.0,Morrisania-Melrose                                                         
1793,XATD,NYCEEC,X,Bronx Community College ECC,<p><strong>Alert</strong>: Program may have income or other eligibility requirements. Contact for more information.</p>,718-289-5461,2010 Sedgwick,10468,1,24,1007708,251676,shauna.harper@bcc.cuny.edu,http://bcc.cuny.edu/bcckids,3,3,2,10XATD,40.857552,-73.915959,5,14,249,2116208.0,2032220062.0,University Heights-Morris Heights                                          
1794,XATE,NYCEEC,X,Susan Wagner Day School,,718-547-0501,4102 White Plns Rd,10466,1,110,1023358,263832,susanwagnerdayschool1@yahoo.com,,3,3,1,11XATE,40.890778999999995,-73.858814,12,12,422,2063602.0,2048430034.0,Williamsbridge-Olinville                                                   
1795,XATH,NYCEEC,X,St. Clare Of Assisi Early Childhood Academy,<p><strong>Alert</strong>: Program may have income or other eligibility requirements. Contact for more information.</p>,718-892-4080,1925 Hone Ave,10461,1,120,1023859,249455,,,5,9,3,11XATH,40.851397999999996,-73.856686,11,13,250,2087156.0,2042690037.0,Pelham Parkway                                                             
1796,XATI,NYCEEC,X,Sunshine Day Care,,718-989-9804,416 Willis Ave,10454,1,72,1006478,235518,liz@sunshinenewyork.com,http://sunshinenewyork.com,3,2,1,07XATI,40.813069,-73.919978,1,8,43,2098220.0,2022890003.0,Mott Haven-Port Morris                                                     
1797,XATQ,NYCEEC,X,Brightside Academy - Webster,<p><strong>Alert</strong>: Program may have income or other eligibility requirements. Contact for more information.</p>,718-681-3040,1465 Webster Ave,10456,1,31,1010104,244599,apasaoglu@brightsideacademy.com,http://brightsideacademy.com,5,7,1,09XATQ,40.838134000000004,-73.906222,4,16,17702,2113137.0,2028870100.0,East Concourse-Concourse Village                                           
1798,XATR,NYCEEC,X,Brightside Academy - White Plains #1,<p><strong>Alert</strong>: Program may have income or other eligibility requirements. Contact for more information.</p>,718-653-3714,2901 White Plns Rd,10467,1,30,1020885,255652,tbansgopaul@brightsideacademy.com,http://brightsideacademy.com,5,7,1,11XATR,40.868024,-73.867283,11,15,336,2054713.0,2045420001.0,Bronxdale                                                                  
1799,XAUP,NYCEEC,X,St. Martin Of Tours Head Start,,718-402-0081,695 East 182 St,10457,1,36,1015588,249231,rgershenlowy@cmcs.org,,5,9,3,10XAUP,40.850666,-73.886996,6,15,391,2118254.0,2030840001.0,Belmont                                                                    
1800,XAUZ,NYCEEC,X,Bronxworks,,646-393-4000,1472 Montgomery Ave,10453,1,36,1006112,248011,Tomokpo@bronxworks.org,,5,9,3,09XAUZ,40.84728,-73.921252,5,14,21501,2008981.0,2028780005.0,University Heights-Morris Heights                                          
1801,XAVD,NYCEEC,X,Tender Tots Decatur,,718-324-1052,3322 Decatur Ave,10467,1,54,1019408,258821,diana@tendertotsny.com,http://tendertotsny.com,3,8,1,10XAVD,40.876987,-73.87321,7,11,42902,2117655.0,2033550090.0,Norwood                                                                    
1802,XAVJ,NYCEEC,X,Little Scholars Early Development Center,,718-887-2928,850 Jennings St,10459,1,29,1013728,242459,jcorniel29@gmail.com,http://littlescholarsedc.com,3,7,1,12XAVJ,40.832282,-73.893384,3,17,153,2010275.0,2029650100.0,Crotona Park East                                                          
1803,XAVS,NYCEEC,X,Bedrock Preschool,,718-884-0020,3220 Arlington Ave,10463,1,60,1008588,261603,Mego@BedRockPreschool.com,http://bedrockpreschool.com,3,7,1,10XAVS,40.884593,-73.912312,8,11,297,2109355.0,2057887501.0,Spuyten Duyvil-Kingsbridge                                                 
1804,XAVW,NYCEEC,X,"Unity Neighborhood Center, Inc.",,718-994-8400,1339 E Gun Hl Rd,10469,1,72,1026635,256646,unitycenterwork@aol.com,http://unityneighborhoodcenter.org,3,7,1,11XAVW,40.870898,-73.847059,12,12,364,2061689.0,2047590034.0,Eastchester-Edenwald-Baychester                                            
1805,XAVX,NYCEEC,X,Sunshine Daycare Of Westchester Village,,718-989-9801,1564 St Peters Ave,10461,1,18,1026449,245595,Tavia@sunshineNewYork.com,http://sunshinenewyork.com,3,6,1,11XAVX,40.840569,-73.847594,10,13,200,2041898.0,2039860007.0,Van Nest-Morris Park-Westchester Square                                    
1806,XAVZ,NYCEEC,X,Brightside Academy - Southern 2,,718-589-5900,1778 Southern Blvd,10460,1,36,1015525,244655,tgeorge@brightsideacademy.com,http://brightsideacademy.com,5,6,1,12XAVZ,40.838297999999995,-73.887187,3,17,161,2119434.0,2029847501.0,Crotona Park East                                                          
1807,XAWG,NYCEEC,X,"All Seasons Day Care, LLC",,212-929-0839,1701 Nereid Ave,10466,1,17,1025115,266504,AL5538@optonline.net,,5,9,3,11XAWG,40.897866,-73.852411,12,11,434,2070786.0,2050720013.0,Woodlawn-Wakefield                                                         
1808,XAWK,NYCEEC,X,Monsignor Boyle Head Start,,718-402-0081,3044 Hull Ave,10467,1,54,1017589,256795,rgershenlowy@cmcs.org,http://cmcs.org,5,9,3,10XAWK,40.87177,-73.879316,7,11,425,2017913.0,2033320010.0,Norwood                                                                    
1809,XAWL,NYCEEC,X,"Bright Star Stratford, Inc.",,718-842-9361,1217 Stratford Ave,10472,1,34,1018593,241617,lrukh1@hotmail.com,http://brightstardaycarestratford.com,5,9,3,12XAWL,40.829966999999996,-73.875688,9,18,54,2095480.0,2037760071.0,West Farms-Bronx River                                                     
1810,XAWP,NYCEEC,X,St. Lucy Early Childhood Academy,,718-882-2203,2401 Bronxwood Ave,10469,1,72,1022416,253151,minneci@stlucys.org,http://stlucys.org,5,9,3,11XAWP,40.861282,-73.861719,11,13,328,2095038.0,2044380027.0,Bronxdale                                                                  
1811,XAWQ,NYCEEC,X,Phipps Neighborhoods - Roscoe C Brown ECEC,,917-522-6002,3968 Third Ave,10457,1,18,1012154,245564,cdavis@phippsny.org,http://phippsneighborhoods.org,3,6,1,09XAWQ,40.840722,-73.899341,3,16,167,2000000.0,2029297501.0,Claremont-Bathgate                                                         
1812,XAWX,NYCEEC,X,Fabiana Day Cay Academy Universal Pre K,,718-588-4545,937 Teller Ave,10451,1,65,1007579,240281,rebonano@gmail.com,,7,6,2,09XAWX,40.82612,-73.915561,4,17,173,2001966.0,2024220035.0,East Concourse-Concourse Village                                           
1813,XAWZ,NYCEEC,X,Brightside Academy - Intervale,<p><strong>Alert</strong>: Program may have income or other eligibility requirements. Contact for more information.</p>,718-991-5465,960 Intervale Ave,10459,1,47,1012891,238741,hgreen@brightsideacademy.com,http://brightsideacademy.com,5,7,1,08XAWZ,40.821727,-73.896873,2,17,87,2114693.0,2027037501.0,Longwood                                                                   
1814,XAXA,NYCEEC,X,Reach One To Teach One,,718-220-8406,5480 Broadway,10463,1,36,1010033,258463,reachonetoteachoneelc@gmail.com,http://reachonetoteachone.org,3,6,2,10XAXA,40.876558,-73.906949,8,10,309,1082781.0,1022150116.0,Marble Hill-Inwood                                                         
1815,XAYB,NYCEEC,X,Lil Inventors - University Avenue,,718-295-2740,75 West 190th St,10468,1,38,1011075,254557,nlove@nycnac.com,,5,9,3,10XAYB,40.865049,-73.902822,7,14,265,2014648.0,2032140001.0,Kingsbridge Heights                                                        
1816,XAYC,NYCEEC,X,"All Seasons A & C Day Care, LLC",,718-231-7200,700 Rosewood St,10467,1,17,1021081,257366,asdc@optonline.net,http://allseasonsdaycarebronx.com,5,9,3,11XAYC,40.873206,-73.866977,12,15,374,2118206.0,2045960022.0,Williamsbridge-Olinville                                                   
1817,XAYD,NYCEEC,X,Laconia Daycare Center & Infant Care Inc.,,212-929-0839,3950 Laconia Ave,10466,1,36,1025898,261241,mahmood_ahmed73@hotmail.com,,5,9,3,11XAYD,40.883656,-73.849655,12,12,386,2065948.0,2049030042.0,Eastchester-Edenwald-Baychester                                            
1818,XAYE,NYCEEC,X,Little Scholars Early Development Center,,718-887-2928,1770 Davidson Ave,10453,1,72,1008405,248418,jcorniel29@gmail.com,http://littlescholarsedc.com,5,9,3,10XAYE,40.848772,-73.912724,5,14,217,2008369.0,2028610114.0,University Heights-Morris Heights                                          
1819,XAYK,NYCEEC,X,Phipps Houses Lebanon West Farms,,212-243-9090,1175 East Tremont Ave,10460,1,54,1018924,245353,jcastillo@phippsny.org,,5,9,3,12XAYK,40.839861,-73.874604,6,15,220,2127440.0,2040077501.0,East Tremont                                                               
1820,XAYP,NYCEEC,X,Tender Tot's East 137th Street,,732-987-5252,531 East 137th St,10454,1,54,1006715,233209,chaim@sterlingeg.com,http://tendertotsny.com,5,9,3,07XAYP,40.806552,-73.918934,1,8,25,2000053.0,2022650059.0,Mott Haven-Port Morris                                                     
1821,XAYQ,NYCEEC,X,"Bronx Park East Preparatory, Inc.",,718-882-3261,2270 Bronx Park East,10467,1,18,1020078,252376,keshea@bronxparkeastacademy.com,http://bronxparkeastacademy.com,5,9,3,11XAYQ,40.859398999999996,-73.870811,11,15,33201,2049740.0,2043400006.0,Bronxdale                                                                  
1822,XAYV,NYCEEC,X,Promesa Head Start,,212-410-7707,1650 Undercliff Ave,10453,1,36,1006054,248879,masantiago@acacianetwork.org,http://acacianetwork.org,5,9,3,09XAYV,40.849339,-73.921803,5,16,20501,2120359.0,2028770261.0,University Heights-Morris Heights                                          
1823,XAZB,NYCEEC,X,Santa Maria Early Childhood Academy,,718-823-3636,1659 Zerega Ave,10462,1,40,1025490,245095,Pauline.Ramone@ccbq.org,,5,9,3,11XAZB,40.839539,-73.85069399999999,10,18,204,2042063.0,2039910075.0,Westchester-Unionport                                                      
1824,XAZM,NYCEEC,X,Arcadia Children's Daycare,,718-561-8062,2195 Grand Concourse,10453,1,42,1011551,251153,roy9966@msn.com,,5,9,3,10XAZM,40.855721,-73.901021,5,14,23704,2013759.0,2031620029.0,Fordham South                                                              
1825,XAZX,NYCEEC,X,St. Clare Of Assisi Early Childhood Academy,,718-892-4080,1925 Hone Ave,10461,1,120,1023916,249355,theresa.bivona@archny.org,http://stclareofassisischool.org,5,9,3,11XAZX,40.851397999999996,-73.856686,11,13,250,2087156.0,2042690037.0,Pelham Parkway                                                             
1844,Z028,DOE,X,Pre - K Center At 80 Bruckner Boulevard,,212-637-8000,80 Bruckner Blvd,10454,1,90,1004715,232921,pre-k@schools.nyc.gov,,5,9,3,07Z028,40.8062,-73.925979,1,8,19,2119403.0,2022957501.0,Mott Haven-Port Morris                                                     
1845,Z029,DOE,X,Pre - K Center At 535 Union Avenue,,212-637-8000,535 Un Ave,10455,1,180,1010311,235124,pre-k@schools.nyc.gov,,5,9,3,07Z029,40.812067,-73.905569,1,8,31,2127407.0,2025827501.0,Mott Haven-Port Morris                                                     
1850,Z037,DOE,X,Pre - K Center At P.S. 357 Young Voices Academy Of The Bronx,,212-637-8000,800 Lydig Ave,10462,1,72,1022042,250529,pre-k@schools.nyc.gov,,5,9,3,11Z037,40.854415,-73.863732,11,13,228,2048831.0,2042930031.0,Pelham Parkway                                                             
1851,Z038,DOE,X,Pre - K Center At 1684 White Plains Road,,212-637-8000,1684 White Plns Rd,10462,1,36,1021544,246676,pre-k@schools.nyc.gov,,5,9,3,11Z038,40.843523,-73.865496,11,13,238,2097571.0,2040370001.0,Van Nest-Morris Park-Westchester Square                                    
1852,Z039,DOE,X,Pre - K Center At 4520 Matilda Avenue,,212-637-8000,4520 Matilda Ave,10470,1,36,1024604,267771,pre-k@schools.nyc.gov,,5,9,3,11Z039,40.901428,-73.8544,12,11,414,2097456.0,2050800001.0,Woodlawn-Wakefield                                                         
1868,Z066,DOE,X,Pre - K Center At 1434 Ogden Avenue,,212-637-8000,1434 Ogden Ave,10452,1,90,1005417,246614,pre-k@schools.nyc.gov,,5,9,3,09Z066,40.84337,-73.923736,4,16,211,2113099.0,2025220070.0,Highbridge                                                                 
1883,Z087,NYCEEC,X,Pre - K Center At 2512 Marion Avenue,,917-473-7623,2512 Marion Ave,10458,1,260,1013841,253070,mcroft@schools.nyc.gov,,5,9,3,10Z087,40.861315999999995,-73.893236,5,15,39902,2118012.0,2030260014.0,Bedford Park-Fordham North                                                 
