,LOCCODE,PreK_Type,Borough,LocName,NOTE,phone,address,Postcode,Day_Length,Seats,X,Y,Email,Website,MEALS,INDOOR_OUTDOOR,EXTENDED_DAY,SEMS_CODE,Latitude,Longitude,Community Board,Council District ,Census Tract,BIN,BBL,NTA
678,Q020,DOE,Q,P.S. 020 John Bowne,,718-359-0321,142 - 30 Barclay Ave,11355,1,108,1032964,215709,vhart@schools.nyc.gov,http://ps20q.org,2,2,3,25Q020,40.758596000000004,-73.82524000000001,7,20,855,4312193.0,4050460049.0,Flushing                                                                   
716,QAGP,NYCEEC,Q,St. Sebastian School,,718-928-5997,39 - 76 58 St,11377,1,58,1010185,211092,admin@stsebastianschool.org,,5,9,3,30QAGP,40.747453,-73.90554499999999,2,26,259,,,Woodside                                                                   
825,Q165,DOE,Q,P.S. 165 Edith K Bergtraum,,718-263-4004,70 - 35 150 St,11367,1,46,1034688,205168,rdemillio2@schools.nyc.gov,http://ps165q.net,2,7,3,25Q165,40.730442,-73.81880799999999,8,24,77906,,,Kew Gardens Hills                                                          
884,Q015,DOE,Q,P.S. 015 Jackie Robinson,,718-525-1670,121 - 15 Lucas St,11413,1,36,1051614,189303,aktori@schools.nyc.gov,http://schools.nyc.gov/schoolportals/29/q015,2,3,1,29Q015,40.686028,-73.757412,12,27,376,4273142.0,4126720001.0,St. Albans                                                                 
885,Q017,DOE,Q,P.S. 017 Henry David Thoreau,,718-278-1220,28 - 37 29 St,11102,1,36,1005622,219185,rheyward@schools.nyc.gov,http://schools.nyc.gov/schoolportals/30/q017,3,3,3,30Q017,40.769018,-73.922395,1,22,71,4537623.0,4005940029.0,Old Astoria                                                                
886,Q018,DOE,Q,P.S. 018 Winchester,,718-464-4167,86 - 35 235 Ct,11427,1,18,1058444,206065,LCareddu2@schools.nyc.gov,,5,6,3,26Q018,40.732548,-73.732295,13,23,1621,,,Bellerose                                                                  
887,Q021,DOE,Q,P.S. 021 Edward Hart,,718-445-8833,147 - 36 26 Ave,11354,1,90,1034491,221402,dbuszko@schools.nyc.gov,http://schools.nyc.gov/schoolportals/25/q021,2,3,3,25Q021,40.774529,-73.819327,7,19,1047,,,Murray Hill                                                                
888,Q022,DOE,Q,P.S. 022 Thomas Jefferson,,718-762-4141,153 - 33 Sanford Ave,11355,1,36,1036600,216838,jmeyer5@schools.nyc.gov,http://schools.nyc.gov/schoolportals/25/q022,3,3,3,25Q022,40.761186,-73.812072,7,20,1167,4438184.0,4053280001.0,Murray Hill                                                                
889,Q026,DOE,Q,P.S. 026 Rufus King,,718-464-4505,195 - 02 69 Ave,11365,1,36,1045769,207725,apecore@schools.nyc.gov,http://schools.nyc.gov/schoolportals/26/q026,2,7,3,26Q026,40.736922,-73.77799300000001,8,23,1347,,,Fresh Meadows-Utopia                                                       
890,Q028,DOE,Q,P.S. 28 - The Thomas Emanuel ECC,,718-271-4971,109 - 10 47 Ave,11368,1,10,1024571,211469,lpessut@schools.nyc.gov,http://schools.nyc.gov/schoolportals/24/q028,5,9,3,24Q028,40.74711,-73.854936,4,21,415,4049468.0,4020020055.0,Corona                                                                     
891,Q029,DOE,Q,P.S. 029 Queens,,718-886-5111,125 - 10 23 Ave,11356,1,36,1027687,222887,jleakey@schools.nyc.gov,http://schools.nyc.gov/schoolportals/25/q029,5,9,3,25Q029,40.777902000000005,-73.917879,1,22,101,4019469.0,4008770102.0,Steinway                                                                   
892,Q031,DOE,Q,P.S. 031 Bayside,,718-423-8288,211 - 45 46 Rd,11361,1,36,1048255,215371,26q031@schools.nyc.gov,http://ps31q.com,2,3,1,26Q031,40.757039,-73.77014799999999,11,19,1447,4157113.0,4073250004.0,Bayside-Bayside Hills                                                      
893,Q032,DOE,Q,P.S. 032 State Street,,718-463-3747,171 - 11 35 Ave,11358,1,36,1041260,218069,derrico@schools.nyc.gov,http://schools.nyc.gov/schoolportals/25/q032,2,3,3,25Q032,40.764768,-73.794752,7,19,1141,,,Murray Hill                                                                
894,Q034,DOE,Q,P.S. 034 John Harvard,,718-465-6818,104 - 12 Springfield Blvd,11429,1,36,1056962,198450,pshakes@schools.nyc.gov,http://schools.nyc.gov/schoolportals/29/q034,2,3,3,29Q034,40.711753,-73.736603,13,27,582,,,Queens Village                                                             
895,Q035,DOE,Q,P.S. 035 Nathaniel Woodhull,,718-465-6820,191 - 02 90 Ave,11423,1,36,1048277,199369,mdempsey@schools.nyc.gov,http://ps35q.org,2,3,3,29Q035,40.713753000000004,-73.769449,12,23,482,,,Hollis                                                                     
896,Q037,DOE,Q,Cynthia Jenkins School,,718-528-5399,179 - 37 137 Ave,11434,1,72,1051188,185690,bmitche2@schools.nyc.gov,http://schools.nyc.gov/schoolportals/29/q037,3,3,3,29Q037,40.675569,-73.75924499999999,12,27,352,4279868.0,4129930122.0,St. Albans                                                                 
897,QASM,NYCEEC,Q,Ces Childcare,,917-832-6506,2 - 08 Astoria Blvd,11102,1,18,1001907,220726,info@clevelandedu.com,,3,3,1,30QASM,40.773758,-73.936247,1,22,87,,,Old Astoria                                                                
898,Q040,DOE,Q,P.S. 040 Samuel Huntington,,718-526-1906,109 - 20 Un Hall St,11433,1,36,1042210,192244,abranke@schools.nyc.gov,http://schools.nyc.gov/schoolportals/28/q040,2,3,3,28Q040,40.694125,-73.790675,12,28,260,4263341.0,4121510001.0,South Jamaica                                                              
899,Q042,DOE,Q,P.S. / M.S. 042 R Vernam,,718-634-7914,488 Bch 66 St,11692,1,54,1041193,155880,pfinn3@schools.nyc.gov,http://schools.nyc.gov/schoolportals/27/q042,3,3,3,27Q042,40.594538,-73.795304,14,31,964,4302817.0,4160390014.0,Hammels-Arverne-Edgemere                                                   
900,Q043,DOE,Q,P.S. 043,,718-327-5860,160 Bch 29 St,11691,1,90,1050510,155650,gfairwe@schools.nyc.gov,http://schools.nyc.gov/schoolportals/27/q043,2,7,3,27Q043,40.593834,-73.76174,14,31,99802,4467711.0,4158200001.0,Far Rockaway-Bayswater                                                     
901,Q045,DOE,Q,P.S. 045 Clarence Witherspoon,,718-529-1885,126 - 28 150 St,11436,1,36,1042896,184207,sseverin2@schools.nyc.gov,http://schools.nyc.gov/schoolportals/27/q045,2,3,3,27Q045,40.672757,-73.788157,12,28,788,4262729.0,4121040022.0,Baisley Park                                                               
902,Q047,DOE,Q,P.S. 047 Chris Galas,,718-634-7167,9 Power Rd,11693,1,18,1034022,160276,amoynag@schools.nyc.gov,http://schools.nyc.gov/schoolportals/27/q047,2,3,3,27Q047,40.606353000000006,-73.82044499999999,14,32,107201,4448968.0,4153130485.0,Breezy Point-Belle Harbor-Rockaway Park-Broad Channel                      
903,Q048,DOE,Q,P.S. 048 William Wordsworth,,718-558-6700,108 - 29 155 St,11433,1,54,1040649,192209,nthacker2@schools.nyc.gov,http://ps48q.com,3,3,3,28Q048,40.693807,-73.796965,12,28,254,4000000.0,4101430028.0,South Jamaica                                                              
904,Q050,DOE,Q,P.S. 050 Talfourd Lawn Elementary School,,718-526-5336,143 - 26 101 Ave,11435,1,72,1037795,192571,rmanjarrez@schools.nyc.gov,http://schools.nyc.gov/schoolportals/28/q050,3,3,3,28Q050,40.695011,-73.808162,12,28,206,,,Jamaica                                                                    
905,Q051,DOE,Q,P.S. 051,,718-850-0738,87 - 45 117 St,11418,1,36,1030911,193718,msaintj@schools.nyc.gov,http://schools.nyc.gov/schoolportals/27/q051,2,7,3,27Q051,40.699079,-73.83241,9,29,122,4195822.0,4093260008.0,Richmond Hill                                                              
906,Q052,DOE,Q,P.S. 052 Queens,,718-528-2238,178 - 37 146 Ter,11434,1,90,1048979,180298,dsantana@schools.nyc.gov,http://schools.nyc.gov/schoolportals/29/q052,3,3,3,29Q052,40.661035999999996,-73.767761,13,31,320,4285972.0,4133530020.0,Springfield Gardens South-Brookville                                       
907,Q055,DOE,Q,P.S. 055 Maure,,718-849-3845,131 - 10 97 Ave,11419,1,54,1035193,192127,rhonore@schools.nyc.gov,http://schools.nyc.gov/schoolportals/28/q055,5,9,3,28Q055,40.694004,-73.816686,9,28,150,4200199.0,4094750029.0,Richmond Hill                                                              
908,Q058,DOE,Q,P.S. 58 - School Of Heroes,,718-533-6712,72 - 24 Grand Ave,11378,1,36,1014669,204798,ATripol@schools.nyc.gov,http://schools.nyc.gov/schoolportals/24/q058,5,9,3,24Q058,40.728192,-73.89144,5,30,49302,4000000.0,4027970128.0,Maspeth                                                                    
909,Q060,DOE,Q,P.S. 060 Woodhaven,,718-441-5046,91 - 02 88 Ave,11421,1,72,1025072,191234,fdesari@schools.nyc.gov,http://schools.nyc.gov/schoolportals/27/q060,2,3,1,27Q060,40.692173,-73.852654,9,32,18,,,Woodhaven                                                                  
910,Q062,DOE,Q,P S 62 - Chester Park School,,718-286-4460,97 - 25 108 St,11419,1,36,1029774,190197,ps62@me.com,http://ps062.org,2,3,3,27Q062,40.688673,-73.83623,9,28,110,,,Richmond Hill                                                              
911,Q063,DOE,Q,P.S. 063 Old South,,718-845-7560,90 - 15 Sutter Ave,11417,1,36,1026702,185874,dmarino@schools.nyc.gov,http://schools.nyc.gov/schoolportals/27/q063,2,3,3,27Q063,40.6764,-73.846863,10,32,54,4190727.0,4091550025.0,Ozone Park                                                                 
912,Q066,DOE,Q,P.S. 066 Jacqueline Kennedy Onassis,,718-849-0184,85 - 11 102 St,11418,1,36,1026894,193585,pleinwa@schools.nyc.gov,http://schools.nyc.gov/schoolportals/27/q066,3,7,3,27Q066,40.698064,-73.84665799999999,9,32,24,,,Richmond Hill                                                              
913,Q068,DOE,Q,P.S. 068 Cambridge,,718-821-7246,59 - 09 Saint Felix Ave,11385,1,60,1012731,193171,asnadec@schools.nyc.gov,http://schools.nyc.gov/schoolportals/24/q068,2,2,3,24Q068,40.696523,-73.897441,5,30,565,4086110.0,4035690029.0,Glendale                                                                   
914,Q069,DOE,Q,P.S. 069 Jackson Heights,,718-424-7700,77 - 02 37 Ave,11372,1,54,1015130,212171,mvazque11@schools.nyc.gov,http://schools.nyc.gov/schoolportals/30/q069,2,7,3,30Q069,40.749264000000004,-73.888832,3,25,287,,,Jackson Heights                                                            
915,Q070,DOE,Q,P.S. 070 Queens,,718-728-4646,30 - 45 42 St,11103,1,144,1008043,216842,dgeller@schools.nyc.gov,http://schools.nyc.gov/schoolportals/30/q070,2,3,3,30Q070,40.762103,-73.914227,1,22,149,4442503.0,4006960014.0,Astoria                                                                    
916,Q071,DOE,Q,P.S. 071 Forest,,718-821-7772,62 - 85 Frst Ave,11385,1,80,1010585,198453,isoto6@schools.nyc.gov,http://schools.nyc.gov/schoolportals/24/q071,5,9,3,24Q071,40.711203000000005,-73.905286,5,30,595,4083519.0,4034920007.0,Ridgewood                                                                  
917,Q076,DOE,Q,P.S. 076 William Hallet,,718-361-7464,36 - 36 10 St,11106,1,108,1000500,216525,mschafe@schools.nyc.gov,http://schools.nyc.gov/schoolportals/30/q076,2,3,3,30Q076,40.76117,-73.940923,1,26,85,,,Queensbridge-Ravenswood-Long Island City                                   
918,Q078,DOE,Q,P.S. / I.S. 78q,,718-392-5402,48 - 09 Ctr Blvd,11109,1,36,996037,210512,lpavone@schools.nyc.gov,http://schools.nyc.gov/schoolportals/30/q078,2,3,3,30Q078,40.744794,-73.957953,2,26,1,,,Hunters Point-Sunnyside-West Maspeth                                       
919,Q079,DOE,Q,P.S. 079 Francis Lewis,,718-746-0396,147 - 27 15 Dr,11357,1,36,1034692,225779,jfertile@schools.nyc.gov,http://schools.nyc.gov/schoolportals/25/q079,5,9,3,25Q079,40.785896,-73.81809,7,19,1039,4105233.0,4046480001.0,Whitestone                                                                 
920,Q080,DOE,Q,P.S. 080 The Thurgood Marshall Magnet School,,718-528-7070,171 - 05 137th Ave,11434,1,72,1048210,184631,kcox4@schools.nyc.gov,http://schools.nyc.gov/schoolportals/28/q080,2,3,3,28Q080,40.672801,-73.769274,12,31,33402,,,Springfield Gardens North                                                  
921,Q081,DOE,Q,P.S. 81q Jean Paul Richter,,718-821-9800,559 Cypress Ave,11385,1,36,1008644,195700,rdiamond@schools.nyc.gov,http://schools.nyc.gov/schoolportals/24/q081,5,9,3,24Q081,40.703765000000004,-73.91234399999999,5,34,545,4082076.0,4034370001.0,Ridgewood                                                                  
922,Q084,DOE,Q,P.S. 084 Steinway,,718-278-1915,22 - 45 41 St,11105,1,72,1010255,220246,jbuffa@schools.nyc.gov,http://schools.nyc.gov/schoolportals/30/q084,2,3,3,30Q084,40.772027,-73.90573,1,22,119,,,Steinway                                                                   
923,Q085,DOE,Q,P.S. 085 Judge Charles Vallone,,718-278-3630,23 - 70 31 St,11105,1,64,1007802,220927,agordon@schools.nyc.gov,http://schools.nyc.gov/schoolportals/30/q085,2,7,3,30Q085,40.774108,-73.913165,1,22,115,4017186.0,4008350037.0,Steinway                                                                   
924,Q086,DOE,Q,P.S. Q086,,718-291-6264,87 - 41 Parsons Blvd,11432,1,36,1038647,197715,kzuvic@schools.nyc.gov,http://schools.nyc.gov/schoolportals/28/q086,5,9,3,28Q086,40.708756,-73.804025,8,24,236,4207507.0,4097070041.0,Briarwood-Jamaica Hills                                                    
925,Q087,DOE,Q,P.S. / I.S. 087 Middle Village,,718-326-8243,67 - 54 80 St,11379,1,60,1019861,198537,cmichae@schools.nyc.gov,http://schools.nyc.gov/schoolportals/24/q087,5,9,3,24Q087,40.713111,-73.871589,5,30,65501,,,Middle Village                                                             
926,Q088,DOE,Q,P.S. 088 Seneca,,718-821-8121,60 - 85 Catalpa Ave,11385,1,30,1012959,195792,rquinta2@schools.nyc.gov,http://schools.nyc.gov/schoolportals/24/q088,3,1,3,24Q088,40.703007,-73.899029,5,30,583,4084325.0,4035150004.0,Ridgewood                                                                  
927,Q090,DOE,Q,P.S. 090 Horace Mann,,718-847-3370,86 - 50 109 St,11418,1,36,1028785,193155,27q090@schools.nyc.gov,http://schools.nyc.gov/schoolportals/27/q090,3,3,3,27Q090,40.69778,-73.839561,9,32,128,,,Richmond Hill                                                              
928,Q091,DOE,Q,P.S. 091 Richard Arkwright,,718-821-6880,68 - 10 Central Ave,11385,1,100,1016391,195645,vcatala@schools.nyc.gov,http://schools.nyc.gov/schoolportals/24/q091,2,3,3,24Q091,40.703626,-73.88533000000001,5,30,627,4088899.0,4036560038.0,Glendale                                                                   
929,Q092,DOE,Q,P.S. 092 Harry T Stewart Sr.,,718-533-1013,99 - 01 34 Ave,11368,1,18,1020556,214742,pbaratt@schools.nyc.gov,http://schools.nyc.gov/schoolportals/30/q092,2,3,3,30Q092,40.755402000000004,-73.869013,3,21,377,,,North Corona                                                               
930,Q096,DOE,Q,P.S. 096,,718-529-2547,130 - 01 Rockaway Blvd,11420,1,36,1037470,185366,veweka@schools.nyc.gov,http://schools.nyc.gov/schoolportals/27/q096,2,3,3,27Q096,40.674975,-73.808374,10,28,818,,,South Ozone Park                                                           
931,Q097,DOE,Q,P.S. 097 Forest Park,,718-849-4870,85 - 52 85 St,11421,1,36,1023094,192283,mcustod@schools.nyc.gov,http://schools.nyc.gov/schoolportals/27/q097,2,3,3,27Q097,40.695811,-73.859992,9,32,12,4181933.0,4088640039.0,Woodhaven                                                                  
932,Q100,DOE,Q,P.S. 100 Glen Morris,,718-843-8390,111 - 11 118 St,11420,1,18,1033717,186944,LFrombe@schools.nyc.gov,,5,9,3,27Q100,40.679992,-73.822078,10,28,102,4250416.0,4116230001.0,South Ozone Park                                                           
933,Q101,DOE,Q,P.S. 101 School In The Gardens,,718-268-7231,2 Russell Pl,11375,1,18,1027620,200033,mlopez69@schools.nyc.gov,http://schools.nyc.gov/schoolportals/28/q101,3,3,3,28Q101,40.715585,-73.843898,6,29,723,4078312.0,4032700001.0,Forest Hills                                                               
934,Q102,DOE,Q,P.S. 102 Bayview,,718-446-3308,55 - 24 Van Horn St,11373,1,20,1018078,206436,APisaca@schools.nyc.gov,http://schools.nyc.gov/schoolportals/24/q102,5,9,3,24Q102,40.733803,-73.878231,4,25,479,,,Elmhurst-Maspeth                                                           
935,Q104,DOE,Q,P.S. 104 The Bays Water,,718-327-1910,26 - 01 Mott Ave,11691,1,64,1049501,160925,kgrady@schools.nyc.gov,http://schools.nyc.gov/schoolportals/27/q104,2,3,3,27Q104,40.608481,-73.764537,14,31,100801,,,Far Rockaway-Bayswater                                                     
936,Q105,DOE,Q,P.S. 105 The Bay School,,718-474-8615,420 Bch 51 St,11691,1,36,1044941,156370,lshapir@schools.nyc.gov,http://schools.nyc.gov/schoolportals/27/q105,2,3,3,27Q105,40.595779,-73.781876,14,31,97203,4302397.0,4159740003.0,Hammels-Arverne-Edgemere                                                   
937,Q106,DOE,Q,P.S. 106,,718-327-5828,180 Bch 35 St,11691,1,18,1048951,155994,rlegions@schools.nyc.gov,http://schools.nyc.gov/schoolportals/27/q106,3,3,3,27Q106,40.593779,-73.767199,14,31,992,4441244.0,4158610035.0,Hammels-Arverne-Edgemere                                                   
938,Q107,DOE,Q,P.S. 107 Thomas A Dooley,,718-762-5995,167 - 02 45 Ave,11358,1,72,1039753,214680,lcummings2@schools.nyc.gov,http://schools.nyc.gov/schoolportals/25/q107,2,3,3,25Q107,40.756013,-73.79972,7,19,1195,,,East Flushing                                                              
939,Q108,DOE,Q,P.S. 108 Captain Vincent G Fowler,,718-558-2700,108 - 10 109 Ave,11420,1,36,1031069,186860,mbiondo@schools.nyc.gov,http://ps108q.com,2,7,3,27Q108,40.679581,-73.83161899999999,10,28,96,,,South Ozone Park                                                           
940,Q111,DOE,Q,P.S. 111 Jacob Blackwell,,718-786-2073,37 - 15 13 St,11101,1,36,1001090,215721,djaggon2@schools.nyc.gov,http://schools.nyc.gov/schoolportals/30/q111,2,3,1,30Q111,40.758967999999996,-73.939293,1,26,43,,,Queensbridge-Ravenswood-Long Island City                                   
941,Q112,DOE,Q,P.S. 112 Dutch Kills,,718-784-5250,25 - 05 37 Ave,11101,1,90,1002486,215081,rcampos@schools.nyc.gov,http://ps112q.com,2,3,3,30Q112,40.756877,-73.934538,1,26,51,,,Queensbridge-Ravenswood-Long Island City                                   
942,Q115,DOE,Q,P.S. 115 Glen Oaks,,718-831-4010,80 - 51 261 St,11004,1,54,1064758,210409,ksciort@schools.nyc.gov,http://schools.nyc.gov/schoolportals/26/q115,2,3,3,26Q115,40.74472,-73.710077,13,23,157902,,,Glen Oaks-Floral Park-New Hyde Park                                        
943,Q116,DOE,Q,P.S. / I.S. 116 William C Hughley,,718-526-4884,107 - 25 Wren Pl,11433,1,54,1044713,194644,29q116@schools.nyc.gov,http://schools.nyc.gov/schoolportals/29/q116,2,3,3,29Q116,40.700664,-73.78253199999999,12,27,414,4218415.0,4102490034.0,South Jamaica                                                              
944,Q117,DOE,Q,P.S. 117 J Keld / Briarwood School,,718-526-4780,85 - 15 143 St,11435,1,72,1036048,198074,kestevezramirez@schools.nyc.gov,http://schools.nyc.gov/schoolportals/28/q117,2,3,3,28Q117,40.709609,-73.813393,8,24,232,4208040.0,4097230150.0,Briarwood-Jamaica Hills                                                    
945,Q118,DOE,Q,P.S. 118 Lorraine Hansberry,,718-465-5538,190 - 20 109 Rd,11412,1,36,1049303,195657,cjones23@schools.nyc.gov,http://schools.nyc.gov/schoolportals/29/q118,2,3,3,29Q118,40.703383,-73.766485,12,27,504,,,Hollis                                                                     
946,Q120,DOE,Q,P.S. 120 Queens,,718-359-3390,58 - 01 136 St,11355,1,72,1031607,210838,jmonroe@schools.nyc.gov,http://schools.nyc.gov/schoolportals/25/q120,2,3,3,25Q120,40.745529,-73.82933100000001,7,20,799,,,Queensboro Hill                                                            
947,Q121,DOE,Q,P.S. 121 Queens,,718-738-5126,126 - 10 109 Ave,11420,1,36,1035426,188493,evadi@schools.nyc.gov,http://schools.nyc.gov/schoolportals/28/q121,5,9,3,28Q121,40.683939,-73.816292,10,28,164,4205926.0,4096060092.0,South Ozone Park                                                           
948,Q122,DOE,Q,P.S. 122 Mamie Fay,,718-721-6410,21 - 21 Ditmars Blvd,11105,1,36,1007503,223572,psabel@schools.nyc.gov,http://schools.nyc.gov/schoolportals/30/q122,2,3,3,30Q122,40.780344,-73.916684,1,22,101,4019500.0,4008780033.0,Steinway                                                                   
949,Q123,DOE,Q,P.S. 123,,718-529-4300,145 - 01 119 Ave,11436,1,54,1040997,186575,ahooks@schools.nyc.gov,http://schools.nyc.gov/schoolportals/27/q123,2,7,3,27Q123,40.67828,-73.795609,12,28,18402,,,Baisley Park                                                               
950,Q127,DOE,Q,P.S. 127 Aerospace Science Magnet,,718-446-4700,98 - 01 25 Ave,11369,1,36,1019884,217981,esanabria@schools.nyc.gov,http://schools.nyc.gov/schoolportals/30/q127,5,9,3,30Q127,40.76463,-73.87163699999999,3,21,367,,,East Elmhurst                                                              
951,Q129,DOE,Q,P.S. 129 Patricia Larkin,,718-353-3150,128 - 02 7 Ave,11356,1,54,1028651,227243,lbuquicchio@schools.nyc.gov,http://schools.nyc.gov/schoolportals/25/q129,2,7,3,25Q129,40.790638,-73.83978499999999,7,19,945,,,Whitestone                                                                 
952,Q130,DOE,Q,P.S. 130,,718-357-6606,200 - 01 42 Ave,11361,1,54,1044081,216176,mcontra@schools.nyc.gov,http://ps130q.org,3,3,3,25Q130,40.759501,-73.784022,11,19,1463,,,Bayside-Bayside Hills                                                      
953,Q132,DOE,Q,P.S. 132 Ralph Bunche,,718-528-5734,132 - 15 218 St,11413,1,54,1053691,187867,adavis2@schools.nyc.gov,http://schools.nyc.gov/schoolportals/29/q132,2,3,3,29Q132,40.682367,-73.749771,13,31,626,,,Laurelton                                                                  
954,Q133,DOE,Q,P.S. 133 Queens,,718-831-4016,248 - 05 86 Ave,11426,1,82,1062501,206100,iavakians@schools.nyc.gov,http://schools.nyc.gov/schoolportals/26/q133,2,3,3,26Q133,40.73171,-73.717884,13,23,1617,,,Bellerose                                                                  
955,Q134,DOE,Q,P.S. 134 Hollis,,718-464-5544,203 - 02 109 Ave,11412,1,36,1052208,197256,rchambe@schools.nyc.gov,http://schools.nyc.gov/schoolportals/29/q134,2,3,3,29Q134,40.707987,-73.75528,12,27,508,4440330.0,4109060001.0,Hollis                                                                     
956,Q135,DOE,Q,The Bellaire School,,718-464-2119,207 - 11 89 Ave,11427,1,108,1051511,201882,ghadjog@schools.nyc.gov,http://schools.nyc.gov/schoolportals/29/q135,2,1,3,29Q135,40.720118,-73.757418,13,23,492,,,Jamaica Estates-Holliswood                                                 
957,Q136,DOE,Q,P.S. 136 Roy Wilkins,,718-465-2286,201 - 15 115 Ave,11412,1,54,1052873,193880,twalker@schools.nyc.gov,http://schools.nyc.gov/schoolportals/29/q136,2,3,1,29Q136,40.698254,-73.75274399999999,12,27,520,4236757.0,4110180021.0,St. Albans                                                                 
958,Q138,DOE,Q,P.S. / Ms138 Sunrise,,718-528-9053,251 - 11 Weller Ave,11422,1,72,1057841,179723,jmcenan@schools.nyc.gov,http://schools.nyc.gov/schoolportals/29/q138,2,3,3,29Q138,40.659731,-73.735179,13,31,660,4288640.0,4135780001.0,Rosedale                                                                   
959,Q140,DOE,Q,P.S. 140 Edward K Ellington,,718-657-4760,166 - 01 116 Ave,11434,1,36,1044969,189684,dnorment@schools.nyc.gov,http://schools.nyc.gov/schoolportals/28/q140,3,3,3,28Q140,40.686780999999996,-73.78123599999999,12,27,278,,,Baisley Park                                                               
960,Q144,DOE,Q,P.S. 144 Col Jeromus Remsen,,718-268-2775,93 - 02 69 Ave,11375,1,54,1025018,199833,rglucks@schools.nyc.gov,http://schools.nyc.gov/schoolportals/28/q144,2,3,3,28Q144,40.714969,-73.853376,6,29,729,,,Forest Hills                                                               
961,Q146,DOE,Q,P.S. 146 Howard Beach,,718-843-4880,98 - 01 159 Ave,11414,1,18,1030120,179852,mkeegan@schools.nyc.gov,http://schools.nyc.gov/schoolportals/27/q146,3,7,3,27Q146,40.659857,-73.835064,10,32,884,,,Lindenwood-Howard Beach                                                    
962,Q147,DOE,Q,P.S. / M.S. 147 Ronald Mcnair,,718-528-2420,218 - 01 116 Ave,11411,1,36,1056222,193481,acohen1@schools.nyc.gov,http://schools.nyc.gov/schoolportals/29/q147,2,2,3,29Q147,40.697292,-73.740955,13,27,598,,,Cambria Heights                                                            
963,Q148,DOE,Q,P.S. 148 Queens,,718-898-8181,89 - 02 32 Ave,11369,1,72,1017847,215510,nbirson@schools.nyc.gov,http://schools.nyc.gov/schoolportals/30/q148,2,3,3,30Q148,40.758375,-73.879103,3,25,339,,,Jackson Heights                                                            
964,Q150,DOE,Q,P.S. 150 Queens,,718-784-2252,40 - 01 43 Ave,11104,1,54,1005476,210979,cparache@schools.nyc.gov,http://schools.nyc.gov/schoolportals/30/q150,5,9,3,30Q150,40.745521000000004,-73.92378000000001,2,26,18101,,,Hunters Point-Sunnyside-West Maspeth                                       
965,Q151,DOE,Q,P.S. 151 Mary D Carter,,718-728-2676,50 - 05 31 Ave,11377,1,102,1009600,215302,smaison@schools.nyc.gov,http://schools.nyc.gov/schoolportals/30/q151,2,3,3,30Q151,40.757548,-73.90905,1,26,163,,,Astoria                                                                    
966,Q152,DOE,Q,P.S. 152 Gwendoline N Alleyne School,,718-429-3141,33 - 52 62 St,11377,1,36,1011858,213657,walameda2@schools.nyc.gov,http://schools.nyc.gov/schoolportals/30/q152,5,9,3,30Q152,40.753665999999996,-73.900227,2,26,293,,,Woodside                                                                   
967,Q153,DOE,Q,P.S. 153 Maspeth Elem,,718-821-7850,60 - 02 60 Ln,11378,1,18,1010888,200281,sbauer@schools.nyc.gov,http://schools.nyc.gov/schoolportals/24/q153,5,9,3,24Q153,40.716645,-73.90368000000001,5,30,599,,,Maspeth                                                                    
968,Q154,DOE,Q,P.S. 154 Queens,,718-591-1500,75 - 02 162 St,11366,1,36,1037682,204068,tdavids2@schools.nyc.gov,http://schools.nyc.gov/schoolportals/25/q154,3,3,3,25Q154,40.726808,-73.806905,8,24,1257,,,Kew Gardens Hills                                                          
969,Q155,DOE,Q,P.S. 155,,718-529-0767,130 - 02 115 Ave,11420,1,54,1036906,186866,gjacobs@schools.nyc.gov,http://schools.nyc.gov/schoolportals/27/q155,3,3,3,27Q155,40.679557,-73.810615,10,28,176,,,South Ozone Park                                                           
970,Q156,DOE,Q,P.S. 156 Laurelton,,718-528-9173,229 - 02 137 Ave,11413,1,54,1055567,184448,emoore22@schools.nyc.gov,http://schools.nyc.gov/schoolportals/29/q156,2,7,3,29Q156,40.673072,-73.743187,13,31,646,,,Laurelton                                                                  
971,Q159,DOE,Q,P.S. 159,,718-423-8553,205 - 01 33 Ave,11361,1,44,1044151,219759,26q159@schools.nyc.gov,http://schools.nyc.gov/schoolportals/26/q159,2,3,3,26Q159,40.769343,-73.783936,11,19,1099,,,Bayside-Bayside Hills                                                      
972,Q160,DOE,Q,P.S. 160 Walter Francis Bishop,,718-526-5523,109 - 59 Inwood St,11435,1,90,1039710,190041,thicks2@schools.nyc.gov,http://schools.nyc.gov/schoolportals/28/q160,2,3,3,28Q160,40.689036,-73.80177900000001,12,28,196,,,South Jamaica                                                              
973,Q161,DOE,Q,P.S. 161 Arthur Ashe School,,718-441-5493,101 - 33 124 St,11419,1,28,1033865,190834,jhoder@schools.nyc.gov,http://schools.nyc.gov/schoolportals/28/q161,5,9,3,28Q161,40.690836,-73.821675,9,28,156,,,Richmond Hill                                                              
974,Q163,DOE,Q,P.S. 163 Flushing Heights,,718-353-2514,159 - 01 59 Ave,11365,1,18,1037238,209213,nbullen@ps163.org,http://schools.nyc.gov/schoolportals/25/q163,5,9,3,25Q163,40.740549,-73.80913100000001,7,20,1215,,,Queensboro Hill                                                            
975,Q164,DOE,Q,P.S. 164 Queens Valley,,718-544-1083,138 - 01 77 Ave,11367,1,90,1033174,202135,latchison@schools.nyc.gov,http://psms164.com,2,3,3,25Q164,40.720908,-73.823358,8,24,77903,,,Kew Gardens Hills                                                          
976,Q166,DOE,Q,P.S. 166 Henry Gradstein,,718-786-6703,33 - 09 35 Ave,11106,1,36,1004706,215185,30q166@schools.nyc.gov,http://schools.nyc.gov/schoolportals/30/q166,2,7,3,30Q166,40.775625,-73.747034,11,19,1483,4168395.0,4080520016.0,Douglas Manor-Douglaston-Little Neck                                       
977,Q169,DOE,Q,P.S. 169 Bay Terrace,,718-428-6160,18 - 25 212 St,11360,1,36,1045527,224504,oforesta@schools.nyc.gov,http://ps169.org,2,3,3,25Q169,40.782841999999995,-73.77953000000001,7,19,99704,,,Ft. Totten-Bay Terrace-Clearview                                           
978,Q171,DOE,Q,P.S. 171 Peter G Van Alst,,718-932-0909,14 - 14 29 Ave,11102,1,64,1003909,220192,abussel@schools.nyc.gov,http://schools.nyc.gov/schoolportals/30/q171,2,3,3,30Q171,40.771349,-73.929075,1,22,83,4006055.0,4005380012.0,Old Astoria                                                                
979,Q173,DOE,Q,P.S. 173 Fresh Meadows,,718-358-2243,174 - 10 67 Ave,11365,1,36,1040985,206840,mwang@schools.nyc.gov,http://schools.nyc.gov/schoolportals/26/q173,3,3,3,26Q173,40.734590999999995,-73.795567,8,24,1223,,,Pomonok-Flushing Heights-Hillcrest                                         
980,Q174,DOE,Q,P.S. 174 William Sidney Mount,,718-897-7006,65 - 10 Dieterle Cres,11374,1,36,1022668,201888,lhui2@schools.nyc.gov,http://schools.nyc.gov/schoolportals/28/q174,2,3,3,28Q174,40.720977000000005,-73.86153,6,29,69702,4000000.0,4031310031.0,Rego Park                                                                  
981,Q175,DOE,Q,P.S. 175 The Lynn Gross Discovery School,,718-897-8600,64 - 35 102 St,11374,1,46,1025050,205563,pcooper3@schools.nyc.gov,http://schools.nyc.gov/schoolportals/28/q175,2,3,3,28Q175,40.731615999999995,-73.853509,6,29,721,4051199.0,4021270062.0,Forest Hills                                                               
982,Q176,DOE,Q,P.S. 176 Cambria Heights,,718-525-4057,120 - 45 235 St,11411,1,54,1059157,188949,abartle@schools.nyc.gov,http://schools.nyc.gov/schoolportals/29/q176,2,3,3,29Q176,40.685961,-73.729764,13,27,614,4276369.0,4128190029.0,Cambria Heights                                                            
983,Q178,DOE,Q,P.S. / I.S. 178 Holliswood,,718-464-5763,189 - 10 Radnor Rd,11423,1,36,1046031,203298,jambert@schools.nyc.gov,http://schools.nyc.gov/schoolportals/26/q178,3,3,3,26Q178,40.724438,-73.777516,8,23,1277,,,Jamaica Estates-Holliswood                                                 
984,Q181,DOE,Q,P.S. 181 Brookfield,,718-528-5807,148 - 15 230 St,11413,1,72,1052807,178368,dwheele2@schools.nyc.gov,http://schools.nyc.gov/schoolportals/29/q181,2,3,3,29Q181,40.656227,-73.753141,13,31,694,,,Springfield Gardens South-Brookville                                       
985,Q183,DOE,Q,P.S. 183 Dr. Richard R Green,,718-634-9459,2 - 45 Bch 79 St,11693,1,36,1038210,154094,jromero6@schools.nyc.gov,http://schools.nyc.gov/schoolportals/27/q183,3,3,3,27Q183,40.589508,-73.805361,14,31,94202,4303354.0,4161120001.0,Hammels-Arverne-Edgemere                                                   
986,Q184,DOE,Q,P.S. 184 Flushing Manor,,718-352-7800,163 - 15 21 Rd,11357,1,54,1039710,222873,mmckeonbaker@schools.nyc.gov,http://ps184q.com,3,2,3,25Q184,40.778095,-73.800177,7,19,1017,4129072.0,4057560001.0,Ft. Totten-Bay Terrace-Clearview                                           
987,Q186,DOE,Q,P.S. 186 Castlewood,,718-831-4021,252 - 12 72 Ave,11426,1,30,1061373,212506,mhaidar@schools.nyc.gov,http://schools.nyc.gov/schoolportals/26/q186,2,3,3,26Q186,40.749983,-73.721744,13,23,155102,4453457.0,4084010350.0,Glen Oaks-Floral Park-New Hyde Park                                        
988,Q188,DOE,Q,P.S. 188 Kingsbury,,718-464-5768,218 - 12 Hartland Ave,11364,1,36,1052575,207566,jcaraisco@schools.nyc.gov,http://schools.nyc.gov/schoolportals/26/q188,2,3,3,26Q188,40.736463,-73.753227,11,23,129104,,,Oakland Gardens                                                            
989,Q191,DOE,Q,P.S. 191 Mayflower,,718-831-4032,85 - 15 258 St,11001,1,36,1064960,206867,mranier@schools.nyc.gov,http://schools.nyc.gov/schoolportals/26/q191,3,3,3,26Q191,40.734477000000005,-73.709198,13,23,157903,4180083.0,4088010014.0,Glen Oaks-Floral Park-New Hyde Park                                        
990,Q193,DOE,Q,P.S. 193 Alfred J Kennedy,,718-767-8810,152 - 20 11 Ave,11357,1,126,1036994,227972,nbellomo@schools.nyc.gov,http://schools.nyc.gov/schoolportals/25/q193,2,3,3,25Q193,40.792486,-73.809777,7,19,987,4103056.0,4045380001.0,Whitestone                                                                 
991,Q195,DOE,Q,P.S. 195 William Haberle,,718-723-0313,253 - 50 149 Ave,11422,1,72,1057591,177209,bbailey@schools.nyc.gov,http://schools.nyc.gov/schoolportals/29/q195,2,3,3,29Q195,40.653023,-73.736471,13,31,664,,,Rosedale                                                                   
992,QBBH,NYCEEC,Q,"New Milestone, Inc.",,718-539-2068,13254 Pople Ave,11355,1,20,1031169,213849,new.milestone01@yahoo.com,,2,7,1,25QBBH,40.753485999999995,-73.831277,7,20,79702,4115135.0,4051040027.0,Flushing                                                                   
993,Q196,DOE,Q,P.S. 196 Grand Central Parkway,,718-263-9770,71 - 25 113 St,11375,1,36,1029254,202670,smiglia@schools.nyc.gov,http://ps196q.edublogs.org,5,9,3,28Q196,40.72315,-73.838216,6,29,75702,4437364.0,4022460041.0,Forest Hills                                                               
994,Q197,DOE,Q,P.S. 197 The Ocean School,,718-327-1083,825 Hicksville Rd,11691,1,90,1055406,157947,cvillav@schools.nyc.gov,http://schools.nyc.gov/schoolportals/27/q197,2,3,3,27Q197,40.600198999999996,-73.74396800000001,14,31,101002,4298856.0,4155970001.0,Far Rockaway-Bayswater                                                     
995,Q199,DOE,Q,P.S. 199 Maurice A Fitzgerald,,718-784-3431,39 - 20 48 Ave,11104,1,36,1004697,208838,ainzeri@schools.nyc.gov,http://schools.nyc.gov/schoolportals/24/q199,5,9,3,24Q199,40.740146,-73.92671999999999,2,26,189,,,Hunters Point-Sunnyside-West Maspeth                                       
996,Q200,DOE,Q,P.S. / M.S. 200 - The Pomonok School & Star Academy,,718-969-7780,70 - 10 164 St,11365,1,54,1038160,205716,ecortes@schools.nyc.gov,http://schools.nyc.gov/schoolportals/25/q200,2,3,3,25Q200,40.731454,-73.805087,8,24,122701,,,Pomonok-Flushing Heights-Hillcrest                                         
997,Q201,DOE,Q,P.S. 201 The Discovery School For Inquiry And Research,,718-359-0620,65 - 11 155 St,11367,1,72,1036049,207643,rlozada@schools.nyc.gov,http://schools.nyc.gov/schoolportals/25/q201,3,3,3,25Q201,40.736653000000004,-73.813346,8,24,122702,4146992.0,4067920100.0,Pomonok-Flushing Heights-Hillcrest                                         
998,Q203,DOE,Q,P.S. 203 Oakland Gardens,,718-423-8652,53 - 11 Springfield Blvd,11364,1,54,1050742,213922,cnussbaum@schools.nyc.gov,http://schools.nyc.gov/schoolportals/26/q203,2,3,3,26Q203,40.754201,-73.760636,11,23,138501,,,Oakland Gardens                                                            
999,Q205,DOE,Q,P.S. 205 Alexander Graham Bell,,718-464-5773,75 - 25 Bell Blvd,11364,1,36,1051729,208208,kpiazza2@schools.nyc.gov,http://schools.nyc.gov/schoolportals/26/q205,2,2,3,26Q205,40.738527000000005,-73.75721,11,23,129103,,,Oakland Gardens                                                            
1000,Q206,DOE,Q,P.S. 206 The Horace Harding School,,718-592-0300,61 - 02 98 St,11374,1,18,1022823,206785,jthomas4@schools.nyc.gov,http://schools.nyc.gov/schoolportals/28/q206,5,9,3,28Q206,40.734675,-73.86075500000001,6,29,71702,,,Rego Park                                                                  
1001,Q207,DOE,Q,P.S. 207 Rockwood Park,,718-848-2700,159 - 15 88 St,11414,1,36,1027497,179092,edavies@schools.nyc.gov,http://schools.nyc.gov/schoolportals/27/q207,2,3,3,27Q207,40.658256,-73.844475,10,32,892,4293311.0,4140090060.0,Lindenwood-Howard Beach                                                    
1002,Q209,DOE,Q,P.S. 209 Clearview Gardens,,718-352-3939,16 - 10 Utopia Pkwy,11357,1,18,1040977,224912,mmcdonn@schools.nyc.gov,http://schools.nyc.gov/schoolportals/25/q209,2,3,3,25Q209,40.783943,-73.7947,7,19,99701,,,Ft. Totten-Bay Terrace-Clearview                                           
1003,Q212,DOE,Q,P.S. 212,,718-898-6973,34 - 25 82 St,11372,1,18,1016205,213688,oflores@schools.nyc.gpv,http://schools.nyc.gov/schoolportals/30/q212,5,9,3,30Q212,40.753374,-73.88498100000001,3,25,283,,,Jackson Heights                                                            
1004,Q213,DOE,Q,P.S. 213 The Carl Ullman School,,718-423-8747,231 - 02 67 Ave,11364,1,72,1054700,211687,brevello@schools.nyc.gov,http://schools.nyc.gov/schoolportals/26/q213,2,3,3,26Q213,40.747744,-73.745761,11,23,1377,,,Oakland Gardens                                                            
1005,Q214,DOE,Q,P.S. 214 Cadwallader Colden,,718-461-4055,31 - 15 140 St,11354,1,36,1031805,219915,dfuccil@schools.nyc.gov,http://schools.nyc.gov/schoolportals/25/q214,2,3,3,25Q214,40.770544,-73.82861700000001,7,20,88901,,,Flushing                                                                   
1006,QAVI,NYCEEC,Q,Little Tots Red Wagon,,718-945-1484,20428 Rockaway Pt Blvd,11697,1,54,1008019,143772,littletotsred@aol.com,,7,3,2,27QAVI,40.560860999999996,-73.913989,14,32,91601,4464935.0,4163500300.0,Breezy Point-Belle Harbor-Rockaway Park-Broad Channel                      
1007,Q219,DOE,Q,P.S. 219 Paul Klapper,,718-793-2130,144 - 39 Gravett Rd,11367,1,54,1033062,207501,jardezzone@schools.nyc.gov,http://schools.nyc.gov/schoolportals/25/q219,3,3,3,25Q219,40.735177,-73.824634,8,24,809,,,Kew Gardens Hills                                                          
1008,Q220,DOE,Q,P.S. 220 Edward Mandel,,718-592-3030,62 - 10 108 St,11375,1,36,1025269,207631,jpizarr@schools.nyc.gov,http://schools.nyc.gov/schoolportals/28/q220,2,3,3,28Q220,40.736942,-73.851649,6,29,745,,,Forest Hills                                                               
1009,Q221,DOE,Q,P.S. 221 The North Hills School,,718-423-8825,57 - 40 Marathon Pkwy,11362,1,18,1058701,215755,maprilakis@schools.nyc.gov,http://schools.nyc.gov/schoolportals/26/q221,5,9,3,26Q221,40.75942,-73.731307,11,23,152901,4171760.0,4082760657.0,Douglas Manor-Douglaston-Little Neck                                       
1010,Q222,DOE,Q,P.S. Q222 - Fire Fighter Christopher A Santora School,,718-429-2563,86 - 15 37 Ave,11372,1,36,1017503,212705,30q222@schools.nyc.gov,http://schools.nyc.gov/schoolportals/30/q222,5,9,3,30Q222,40.750161,-73.88045699999999,3,25,279,4035855.0,4014600040.0,Jackson Heights                                                            
1011,Q223,DOE,Q,P.S. 223 Lyndon B Johnson,,718-322-9012,125 - 20 Sutphin Blvd,11434,1,30,1042668,184951,dotto@schools.nyc.gov,http://schools.nyc.gov/schoolportals/27/q223,2,3,3,27Q223,40.674873999999996,-73.789679,12,28,18401,,,Baisley Park                                                               
1012,Q228,DOE,Q,P.S. 228 Early Childhood Magnet School Of The Arts,,718-899-5799,32 - 63 93 St,11369,1,28,1018910,215074,oguzman@schools.nyc.gov,http://schools.nyc.gov/schoolportals/30/q228,5,9,3,30Q228,40.758286,-73.87545,3,21,351,,,Jackson Heights                                                            
1013,Q229,DOE,Q,P.S. 229 Emanuel Kaplan,,718-446-2120,67 - 25 51 Rd,11377,1,36,1012873,206947,sajwani@schools.nyc.gov,http://schools.nyc.gov/schoolportals/24/q229,2,3,3,24Q229,40.734277,-73.89758499999999,5,30,513,,,Maspeth                                                                    
1014,Q234,DOE,Q,P.S. 234,,718-956-2760,30 - 15 29 St,11102,1,36,1005540,218753,ddanner@schools.nyc.gov,http://schools.nyc.gov/schoolportals/30/q234,2,3,3,30Q234,40.767540999999994,-73.923051,1,22,73,4007620.0,4005920023.0,Old Astoria                                                                
1015,Q239,DOE,Q,P.S. 239,,718-417-2840,17 - 15 Weirfield St,11385,1,36,1010857,194024,MDzwone@schools.nyc.gov,http://schools.nyc.gov/schoolportals/24/q239,2,7,3,24Q239,40.699037,-73.903911,5,34,553,,,Ridgewood                                                                  
1016,Q242,DOE,Q,P.S. 242 Leonard P Stavisky Early Childhood School,,718-445-2902,29 - 66 137 St,11354,1,36,1030751,219785,pcosta@schools.nyc.gov,http://schools.nyc.gov/schoolportals/25/q242,2,3,1,25Q242,40.771341,-73.831525,7,20,88901,,,Flushing                                                                   
1017,Q244,DOE,Q,The Active Learning Elementary School,,718-445-5730,137 - 20 Franklin Ave,11355,1,36,1032411,214241,lkovvuri@schools.nyc.gov,http://ps244q.org,2,3,3,25Q244,40.754649,-73.826773,7,20,79701,,,Flushing                                                                   
1018,Q251,DOE,Q,P.S. 251 Queens,,718-276-2745,144 - 51 Arthur St,11413,1,36,1050999,181758,eloncke@schools.nyc.gov,http://schools.nyc.gov/schoolportals/29/q251,2,3,1,29Q251,40.664016,-73.760354,13,31,320,,,Springfield Gardens South-Brookville                                       
1019,Q253,DOE,Q,P.S. 253,,718-327-0895,1307 Central Ave,11691,1,30,1053949,160637,jfougere@schools.nyc.gov,http://schools.nyc.gov/schoolportals/27/q253,2,3,3,27Q253,40.60729,-73.7494,14,31,103202,4297972.0,4155410001.0,Far Rockaway-Bayswater                                                     
1020,Q254,DOE,Q,P.S. 254 - The Rosa Parks School,,718-846-1840,84 - 40 101 St,11418,1,36,1026443,193246,ndrouil@schools.nyc.gov,http://schools.nyc.gov/schoolportals/27/q254,2,3,3,27Q254,40.698288,-73.848111,9,32,24,4312522.0,4091777501.0,Richmond Hill                                                              
1021,Q266,DOE,Q,P.S. / I.S. 266,,718-479-3920,74 - 10 Commonwealth Blvd,11426,1,18,1059605,211058,lnestor2@schools.nyc.gov,http://schools.nyc.gov/schoolportals/26/q266,5,9,3,26Q266,40.74638,-73.727674,13,23,1567,4533153.0,4084010001.0,Bellerose                                                                  
1022,Q270,DOE,Q,The Gordon Parks School,,718-341-8280,233 - 15 Merrick Blvd,11422,1,18,1057353,185310,pwheeler2@schools.nyc.gov,http://schools.nyc.gov/schoolportals/29/q270,5,9,3,29Q270,40.674872,-73.736799,13,31,618,4529511.0,4129730001.0,Laurelton                                                                  
1023,Q273,DOE,Q,P.S. 273,,718-286-8300,88 - 07 102nd St,11418,1,36,1027416,192016,BWard2@schools.nyc.gov,http://schools.nyc.gov/schoolportals/27/q273,2,3,3,27Q273,40.693628000000004,-73.844667,9,32,28,,,Richmond Hill                                                              
1024,Q290,DOE,Q,A.C.E. Academy For Scholars At The Geraldine Ferraro Campus,,718-571-6900,55 - 20 Metropolitan Ave,11385,1,36,1013850,204584,aceacademyforscholars@gmail.com,http://ps290elementaryschool.com,2,3,3,24Q290,40.713042,-73.90863399999999,5,30,595,,,Ridgewood                                                                  
1025,Q295,DOE,Q,P.S. / I.S. 295,,718-464-1433,222 - 14 Jamaica Ave,11428,1,54,1058685,201984,dlavignejones@schools.nyc.gov,http://schools.nyc.gov/schoolportals/29/q295,5,9,3,29Q295,40.720501,-73.73214899999999,13,23,564,4230256.0,4107410164.0,Queens Village                                                             
1026,Q303,DOE,Q,The Academy For Excellence Through The Arts,,718-459-1358,108 - 55 69 Ave,11375,1,36,1027493,203703,bleto2@schools.nyc.gov,http://schools.nyc.gov/schoolportals/28/q303,2,7,3,28Q303,40.725076,-73.845164,6,29,739,,,Forest Hills                                                               
1027,Q305,DOE,Q,Learners And Leaders,,718-366-1061,378 Seneca Ave,11385,1,36,1007824,196826,lbotfel@schools.nyc.gov,http://schools.nyc.gov/schoolportals/24/q305,5,9,3,24Q305,40.707121,-73.914998,5,34,539,4538307.0,4034280015.0,Ridgewood                                                                  
1028,Q306,DOE,Q,New York City Academy For Discovery,,718-441-2165,95 - 16 89th Ave,11421,1,36,1026235,191305,cleone8@schools.nyc.gov,http://schools.nyc.gov/schoolportals/27/q306,2,3,3,27Q306,40.691751000000004,-73.849114,9,32,20,,,Woodhaven                                                                  
1029,Q316,DOE,Q,Queens Explorer's Elementary,,718-558-7088,90 - 07 101st Ave,11416,1,216,1025871,188263,ps316ozonepark@gmail.com,http://schools.nyc.gov/schoolportals/27/q316,2,3,3,27Q316,40.683079,-73.85015,9,32,4001,,,Woodhaven                                                                  
1030,Q317,DOE,Q,Waterside Children's Studio School,,718-634-1344,190 Bch 110 St,11694,1,54,1031038,150951,watersidecss@gmail.com,http://schools.nyc.gov/schoolportals/27/q317,3,3,3,27Q317,40.580928,-73.831836,14,32,938,4303853.0,4161810001.0,Breezy Point-Belle Harbor-Rockaway Park-Broad Channel                      
1031,Q333,DOE,Q,Goldie Maple Academy,,718-945-3300,3 - 65 Bch 56 St,11692,1,72,1043527,155806,alogansmith@schools.nyc.gov,http://schools.nyc.gov/schoolportals/27/q333,2,3,3,27Q333,40.593967,-73.786182,14,31,97204,4301929.0,4158940011.0,Hammels-Arverne-Edgemere                                                   
1032,Q342,CHARTER,Q,"Rochdale Early Advantage Charter School, The",,718-978-0075,122 - 05 Smith St,11434,1,36,1045782,186986,tmuniz@recschool.com,,2,1,2,28Q342,40.679651,-73.778559,12,27,284,4000000.0,4123810090.0,Baisley Park                                                               
1033,Q343,DOE,Q,The Children's Lab School,,718-361-3300,45 - 45 42nd St,11104,1,36,1005703,209569,info@ps343.org,http://ps343.org,2,3,3,24Q343,40.743102,-73.922519,2,26,18102,4002538.0,4001920030.0,Hunters Point-Sunnyside-West Maspeth                                       
1034,Q349,DOE,Q,P.S. 349,,718-935-3608,88 - 08 164thÃÂ¿street,11432,1,36,1040216,197455,TBatesHowell@schools.nyc.gov,,5,9,3,28Q349,40.708781,-73.798037,12,24,44602,4210057.0,4098140026.0,Jamaica                                                                    
1035,Q354,DOE,Q,P.S. 354,,718-276-1348,126 - 10 Bedell St,11434,1,72,1046831,186978,raskew@schools.nyc.gov,http://ps354.org,2,3,3,28Q354,40.680378000000005,-73.774508,12,27,33401,,,St. Albans                                                                 
1036,Q360,DOE,Q,P.S. 360,,718-935-3610,199 - 10 112 Ave,11412,1,36,1051823,195289,RCooke3@schools.nyc.gov,,9,9,3,29Q360,40.702514,-73.756663,12,27,520,,,St. Albans                                                                 
1037,Q361,DOE,Q,P.S. 361,,718-935-3614,57 - 02 To 57 - 08 39th Ave,11377,1,54,1010261,211774,NHwang@schools.nyc.gov,,5,9,3,30Q361,40.748084999999996,-73.906114,2,26,257,,,Woodside                                                                   
1038,Q362,DOE,Q,Wave Preparatory Elementary School,,718-327-7091,535 Briar Pl,11691,1,80,1051276,157885,gferguson@schools.nyc.gov,http://schools.nyc.gov/schoolportals/27/q362,2,3,3,27Q362,40.5993,-73.758206,14,31,99801,4301194.0,4157720031.0,Far Rockaway-Bayswater                                                     
1039,Q499,DOE,Q,"The Queens College School For Math, Science And Technology",<P> <Strong>Note:</strong>  Program manages own admissions. Contact directly to apply.</P>,718-461-7462,148 - 20 Reeves Ave,11367,1,18,1033794,208475,hjacob2@schools.nyc.gov,http://schools.nyc.gov/schoolportals/25/q499,3,3,3,25Q499,40.739338000000004,-73.82249,8,24,809,,,Kew Gardens Hills                                                          
1040,Q705,CHARTER,Q,"Renaissance Charter School UPK, The",,718-803-0060,35 - 59 81 St,11372,1,18,1016113,212508,fsmith@renaissancecharter.org,http://renaissancecharter.org,3,2,1,30Q705,40.751379,-73.885544,3,25,283,4029684.0,4012810001.0,Jackson Heights                                                            
1041,QAAB,NYCEEC,Q,Beth Gavriel / Sha'arei Zion Ohel Bracha,,718-897-6771,7524 Grand Central Pkwy,11375,1,40,1030077,201214,shoshi1@aol.com,,2,3,1,28QAAB,40.718918,-73.834413,6,29,75701,4052771.0,4022650090.0,Forest Hills                                                               
1042,QAAD,NYCEEC,Q,A Child's Place Too - 108th Street,,718-565-2466,32 - 20 108th St,11369,1,45,1022611,215949,uprekacp@gmail.com,http://achildsplacetoo.com,6,3,2,24QAAD,40.759612,-73.861334,3,21,373,4000000.0,4017020029.0,East Elmhurst                                                              
1043,QAAM,NYCEEC,Q,Bais Yaakov Academy Of Queens ( Metropolitan Ave ),,718-847-5352,124 - 50 Metropolitan Ave,11415,1,19,1032251,195995,acohen.byqueens@gmail.com,,7,3,1,28QAAM,40.704962,-73.827573,9,29,136,,,Kew Gardens                                                                
1044,QABC,NYCEEC,Q,Christ The King Community Preschool,,718-417-6770,6802 Metropolitan Ave,11379,1,94,1015221,198536,lchavez@ctkny.org,http://ctkny.org,7,3,1,24QABC,40.712264000000005,-73.888475,5,30,61301,4089211.0,4036670023.0,Ridgewood                                                                  
1045,QABL,NYCEEC,Q,"Garden School, Inc.",,718-335-6363,3316 79th St,11372,1,72,1015193,214146,info@gardenschool.org,http://gardenschool.org,7,3,1,30QABL,40.754791,-73.888083,3,25,287,4437110.0,4012510012.0,Jackson Heights                                                            
1046,QABS,NYCEEC,Q,Holy Child Jesus School,,718-849-3988,11102 86th Ave,11418,2,69,1029268,193838,SantaMaria1345@yahoo.com,http://hcjcany.org,3,7,1,27QABS,40.698724,-73.8379,9,32,130,4448716.0,4092250001.0,Richmond Hill                                                              
1047,QACC,NYCEEC,Q,Immaculate Conception School,,718-728-1969,21 - 63 29th St,11105,1,72,1008949,222490,principal@icsastoria.org,http://icsastoria.org,5,9,3,30QACC,40.778515999999996,-73.909657,1,22,113,,,Steinway                                                                   
1048,QACD,NYCEEC,Q,Incarnation School,,718-465-5066,8915 Francis Lewis Blvd,11427,1,36,1051423,201407,principal@incrc.org,,7,7,2,29QACD,40.719225,-73.758052,13,23,492,4225414.0,4105710001.0,Jamaica Estates-Holliswood                                                 
1049,QACJ,NYCEEC,Q,Jewish Institute Of Queens,,718-426-9369,6005 Woodhaven Blvd,11373,1,72,1020000,205666,office@queensgymnasia.org,http://jiqueens.com,3,3,1,28QACJ,40.731256,-73.871561,6,29,687,4072178.0,4030880001.0,Rego Park                                                                  
1050,QADN,NYCEEC,Q,Ave Maria Catholic Academy,,718-848-7440,158 - 20 101st St,11414,1,40,1030565,180262,mmcmanus@amcahb.org,http://amcahb.org,5,9,3,27QADN,40.661638,-73.83280400000001,10,32,884,4295194.0,4141700001.0,Lindenwood-Howard Beach                                                    
1051,QADP,NYCEEC,Q,Our Lady Of Lourdes Catholic Academy,,718-464-1480,92 - 80 220th St,11428,1,18,1057235,202865,ollcatholicacademy@gmail.com,http://ollqv.net,5,9,3,29QADP,40.724783,-73.73810300000001,13,23,560,,,Queens Village                                                             
1052,QADQ,NYCEEC,Q,Our Lady Of Mercy Catholic Academy,,718-793-2086,7025 Kessel St,11375,1,72,1025740,199447,principal@mercyhills.org,http://olmercyca.org,3,3,1,28QADQ,40.713846000000004,-73.850593,6,29,729,4077260.0,4032250004.0,Forest Hills                                                               
1053,QADR,NYCEEC,Q,Notre Dame Catholic Academy Of Ridgewood,,718-821-2221,62 - 22 61st St,11385,1,54,1011398,198614,cuomondca@yahoo.com,,5,9,3,24QADR,40.712526000000004,-73.902135,5,30,593,,,Ridgewood                                                                  
1054,QADX,NYCEEC,Q,Our Lady Of The Blessed Sacrament School,,718-229-4434,34 - 45 202nd St,11361,1,36,1043737,218535,jkane@diobrook.org,http://olbsschool.org,5,9,3,26QADX,40.766932000000004,-73.785883,11,19,1099,,,Bayside-Bayside Hills                                                      
1055,QADZ,NYCEEC,Q,Our Saviour Lutheran School,,718-897-4343,6433 Woodhaven Blvd,11374,1,90,1021535,201917,school@our-saviour.org,http://osnyec.org,3,3,1,28QADZ,40.720647,-73.86579499999999,6,29,69702,4541678.0,4031360004.0,Rego Park                                                                  
1056,QAEG,NYCEEC,Q,Grace Lutheran School,,718-545-1129,3120 21st Ave,11105,1,36,1009762,222491,info@gracearoundthecorner.org,http://gracearoundthecorner.org,7,3,1,30QAEG,40.777496,-73.907827,1,22,113,4016954.0,4008310061.0,Steinway                                                                   
1057,QAEP,NYCEEC,Q,Sacred Heart Catholic Academy,,718-527-0123,115 - 50 221 St,11411,1,18,1057003,193854,sacredheartrcch@gmail.com,,5,9,3,29QAEP,40.699605,-73.736784,13,27,596,4243325.0,4112850032.0,Cambria Heights                                                            
1058,QAEQ,NYCEEC,Q,Sacred Heart School,,718-631-4804,216 - 01 38th Ave,11361,1,36,1048741,219042,shsbayside@aol.com,,5,9,3,26QAEQ,40.767393,-73.767433,11,19,1113,,,Bayside-Bayside Hills                                                      
1059,QAFC,NYCEEC,Q,St. Camillus School,,718-634-5260,185 Bch 99th St,11694,1,38,1034204,151925,kmontero@saintcamillusschool.com,http://saintcamillusschool.com,3,3,2,27QAFC,40.583856,-73.82011700000001,14,32,94201,4440329.0,4161720020.0,Breezy Point-Belle Harbor-Rockaway Park-Broad Channel                      
1060,QAFF,NYCEEC,Q,St. Clare Catholic Academy,,718-528-7174,137 - 25 Brookville Blvd,11422,1,36,1057487,183258,mbasile@stclarecatholicacademy.org,http://stclarecatholicacademy.org,5,9,3,29QAFF,40.669532000000004,-73.736236,13,31,638,4284358.0,4132320001.0,Rosedale                                                                   
1061,QAFJ,NYCEEC,Q,St. Elizabeth School,,718-843-0914,9401 85th St,11416,1,90,1024149,189094,secaupk@Gmail.com,,3,3,1,27QAFJ,40.685708,-73.85639300000001,9,32,34,4187302.0,4090190001.0,Woodhaven                                                                  
1062,QAFR,NYCEEC,Q,St. Helen Catholic Academy,,718-835-4155,83 - 09 157th Ave,11414,1,40,1025898,180292,czerillo@sthelencatholicacademy.org,http://sthelencatholicacademy.org,5,9,3,27QAFR,40.661189,-73.84991099999999,10,32,892,,,Lindenwood-Howard Beach                                                    
1063,QAFY,NYCEEC,Q,St. Kevin School,,718-357-8110,4550 195th St,11358,1,108,1043408,214042,stkevinschool@yahoo.com,http://stkevincatholicacademy.org,2,3,1,25QAFY,40.754814,-73.786293,11,19,145101,4438234.0,4055360041.0,Auburndale                                                                 
1064,QAGC,NYCEEC,Q,St. Mary Gate Of Heaven,,718-846-0689,104 - 06 101st Ave,11416,1,60,1029001,189279,corsoralph@gmail.com,http://smgh.org,5,9,3,27QAGC,40.68627,-73.838918,9,28,112,,,Richmond Hill                                                              
1065,QAGI,NYCEEC,Q,St. Nicolas Of Tolentine School,,718-380-1900,8022 Parsons Blvd,11435,1,36,1037158,201181,svidal@sntschool.org,http://sntschool.org,3,3,2,28QAGI,40.719427,-73.80891,8,24,77905,4439698.0,4067130041.0,Kew Gardens Hills                                                          
1066,QAGR,NYCEEC,Q,St. Stanislaus Kostka School,,718-326-1585,6117 Grand Ave,11378,2,36,1010927,202441,ststansupk@gmail.com,http://ststansschool.org,8,3,1,24QAGR,40.722,-73.90402900000001,5,30,521,4437556.0,4027120058.0,Maspeth                                                                    
1067,QAGU,NYCEEC,Q,St. Thomas The Apostle School,,718-847-3904,8749 87th St,11421,1,72,1024009,191219,stafpq@nyc.rr.com,http://stawoodhaven.com,3,7,1,27QAGU,40.691835,-73.856931,9,32,16,4438403.0,4089250026.0,Woodhaven                                                                  
1068,QAGW,NYCEEC,Q,Sesame Sprout,,718-271-2294,96 - 08 57 Ave,11368,1,51,1021854,207553,skrinsky@sesamesproutschool.com,http://sesamesproutschool.com,7,7,1,24QAGW,40.736847999999995,-73.865066,4,21,455,,,Corona                                                                     
1069,QAHG,NYCEEC,Q,Stepping Stone Pre & Grade School,,718-465-2344,114 - 28 Francis Lewis Blvd,11412,1,54,1053999,194633,steppingstone1982@hotmail.com,,5,9,3,29QAHG,40.701443,-73.748588,12,27,532,4236967.0,4110220078.0,Queens Village                                                             
1070,QAHH,NYCEEC,Q,"Stepping Stone Day School, Inc.",,718-591-9093,7740 Vleigh Pl,11367,1,44,1033919,201620,yvettea@steppingstonedayschool.org,http://steppingstonedayschool.org,7,2,1,25QAHH,40.719978999999995,-73.820623,8,24,77903,4143108.0,4066080002.0,Kew Gardens Hills                                                          
1071,QAHI,NYCEEC,Q,Saints Joachim And Anne School,,718-465-2230,218 - 19 105 Ave,11429,1,36,1056691,198832,ssjaschool@aol.com,http://ssjaschool.org,5,9,3,29QAHI,40.712047,-73.738997,13,27,540,4239367.0,4111080009.0,Queens Village                                                             
1072,QAIM,NYCEEC,Q,Yeshiva Of Central Queens,,718-793-8500,147 - 37 70 Rd,11367,1,40,1034332,205260,hgoodrich@ycq.us,,5,9,3,25QAIM,40.729481,-73.820734,8,24,77906,,,Kew Gardens Hills                                                          
1073,QAIR,NYCEEC,Q,Yeshiva Tifereth Moshe Day Care,,718-846-7300,8306 Abingdon Rd,11415,1,19,1030263,197144,ytmdaycare@gmail.com,http://tiferesmoshe.org,3,3,1,28QAIR,40.707786999999996,-73.833842,9,29,775,4437658.0,4033290011.0,Kew Gardens                                                                
1074,QAJB,NYCEEC,Q,"Books And Rattles, Inc. Site 2",,718-381-7777,6308 69th Pl,11379,1,15,1015680,200155,peekaboolc1@aol.com,http://booksandrattlesinc.com,3,3,1,24QAJB,40.716313,-73.886607,5,30,659,4070409.0,4030250020.0,Middle Village                                                             
1075,QAJR,NYCEEC,Q,YMCA Of Greater New York - Flushing,,718-551-9356,13846 Northern Blvd,11354,1,56,1032345,217683,lrothstein@YMCAnyc.org,http://ymcanyc.org/flushing,3,3,2,25QAJR,40.764119,-73.82714200000001,7,20,865,4113292.0,4050100038.0,Flushing                                                                   
1076,QAJX,NYCEEC,Q,YMCA Of Greater New York - Cross Island,,718-551-9313,238 - 10 Hillside Ave,11426,1,54,1059754,206399,sbatra@YMCAnyc.org,http://ymcanyc.org,7,3,1,26QAJX,40.732395000000004,-73.727591,13,23,1567,,4079550300.0,QUEENS VILLAGE
1077,QAKA,NYCEEC,Q,Little Meadows ECC,,718-454-6460,67 - 25 188th St,11365,1,28,1044022,207670,lmecc@littlemeadows.org,http://littlemeadows.org,3,3,1,26QAKA,40.737094,-73.78491,8,23,1347,,,Fresh Meadows-Utopia                                                       
1078,QAKH,NYCEEC,Q,Samuel Field YM & YWHA ( Little Neck ),,718-225-6750,5820 Little Nck Pkwy,11362,1,54,1060902,216694,tcampo@sfy.org,http://sfy.org,3,7,1,26QAKH,40.761577,-73.723122,11,23,152902,4173029.0,4083520051.0,Douglas Manor-Douglaston-Little Neck                                       
1079,QAKM,NYCEEC,Q,Mi Nuevo Mundo ( 31 - 05 ),,718-476-3128,31 - 05 51 St,11377,1,40,1009812,214965,mnm104100@gmail.com,,5,9,3,30QAKM,40.756952000000005,-73.90785600000001,1,26,163,,,Astoria                                                                    
1080,QAKQ,NYCEEC,Q,Denizko DCC,,718-426-0123,51 - 07 69th St,11377,1,13,1013141,207040,one23stepahead@gmail.com,,3,7,1,24QAKQ,40.735206,-73.896029,2,30,243,,,Elmhurst-Maspeth                                                           
1081,QAKT,NYCEEC,Q,Mi Nuevo Mundo,,718-476-3128,100 - 05 39th Ave,11368,1,18,1021520,212594,mnm104100@gmail.com,,3,3,2,24QAKT,40.749952,-73.865494,3,21,407,,,North Corona                                                               
1082,QAKV,NYCEEC,Q,Honeypot Day Care,,718-539-2388,140 - 22 Beech Ave,11355,1,53,1033397,214282,honeypotdcc@gmail.com,http://honeypotdcc.com,3,6,1,25QAKV,40.754619,-73.823009,7,20,859,4117147.0,4051867501.0,Flushing                                                                   
1083,QAKW,NYCEEC,Q,Kwanis First Step,,718-848-0300,8212 151st Ave,11414,1,28,1025352,182507,sam.verdi@heartshare.org,http://heartshare.org,2,7,2,27QAKW,40.667615000000005,-73.852384,10,32,6202,4448909.0,4114290001.0,Lindenwood-Howard Beach                                                    
1084,QAKY,NYCEEC,Q,Kissena Cherry Day Care,,917-952-6727,14026 Cherry Ave,11355,1,76,1033587,214128,flora888c@yahoo.com,http://kissenadaycare.com,2,6,1,25QAKY,40.754124,-73.822415,7,20,859,4535115.0,4051927502.0,Flushing                                                                   
1085,QAKZ,NYCEEC,Q,"Bright Beginnings In Queens Village, Inc.",,718-264-3860,8045 Winchester Blvd,11427,1,18,1059334,207936,bbqv@verizon.net,http://brightbeginningsinqueensvillage.com,5,9,3,26QAKZ,40.737685,-73.734021,13,23,1567,4537294.0,4078800400.0,Bellerose                                                                  
1086,QBCW,NYCEEC,Q,It's My Turn,,718-845-4973,131 - 13 Liberty Ave,11419,1,18,1035674,190876,playmatesnurseryinc@gmail.com,,5,9,3,28QBCW,40.690128,-73.814706,10,28,15801,4204052.0,4095680049.0,South Ozone Park                                                           
1087,QALA,NYCEEC,Q,Rainbow Child Dev Center,,718-321-1610,13320 Avery Ave,11355,1,72,1031102,213556,info@rainbowchildlearning.com,http://rainbowchildlearning.com,3,7,1,25QALA,40.752978000000006,-73.830589,7,20,79702,4115179.0,4051057503.0,Flushing                                                                   
1088,QALC,NYCEEC,Q,Little Sweet Angels Preschool,,718-888-1819,14627 Beech Avenue#1b,11355,1,36,1034728,215538,daphneyeh.lsaprek@gmail.com,http://littlesweetangels.com,3,7,2,25QALC,40.757791999999995,-73.81786,7,20,861,4523226.0,4053757502.0,East Flushing                                                              
1089,QALD,NYCEEC,Q,Kiddie Academy Of Little Neck,,718-229-2829,25220 Northern Boulevard3rd Floor,11362,1,54,1057488,219913,kiddieacademy.littleneck@gmail.com,http://kiddieacademy.com,3,3,1,26QALD,40.769974,-73.736051,11,19,150702,4537295.0,4082290006.0,Douglas Manor-Douglaston-Little Neck                                       
1090,QALM,NYCEEC,Q,Professional Childcare Inc.,,718-229-5357,3803 Francis Lewis Blvd,11358,1,18,1043792,217155,ny1school@gmail.com,,1,7,1,26QALM,40.762514,-73.78529,11,19,1133,4136930.0,4061980001.0,Bayside-Bayside Hills                                                      
1091,QALO,NYCEEC,Q,Imagine ELC,,718-557-5520,1 Jamaica Ctr Plz,11432,1,15,1039468,195353,catherine@imagineelc.com,http://imagineelc.com,5,1,1,28QALO,40.703274,-73.800405,12,27,240,4000000.0,4100970010.0,Jamaica                                                                    
1092,QALP,NYCEEC,Q,Early Sunrise Preschool,,718-736-9064,18708 Hillside Ave,11432,1,29,1046665,199698,horna21547@aol.com,,3,7,2,29QALP,40.714763,-73.774997,12,27,480,4212871.0,4099350031.0,Jamaica                                                                    
1093,QALQ,NYCEEC,Q,Elber Islamic School,,917-362-1130,25 - 42 49th St,11103,1,34,1010414,217481,amohamed2@gmail.com,,5,9,3,30QALQ,40.764385,-73.90469399999999,1,22,145,4013983.0,4007440040.0,Astoria                                                                    
1094,QALW,NYCEEC,Q,Peek - A - Boo! Learning Center,,718-899-1532,75 - 02 51st Ave,11373,1,20,1015239,207610,areyes@booksandrattlesinc.com,http://booksandrattlesinc.com,3,3,1,24QALW,40.736563000000004,-73.888572,4,25,479,,,Elmhurst-Maspeth                                                           
1095,QAMB,NYCEEC,Q,Jackson Heights Learning Center Annex,,917-382-5150,7910 34 Ave Suite 1x,11372,1,20,1015411,213723,jacksonheightselc@gmail.com,,3,6,2,30QAMB,40.753448,-73.88761600000001,3,25,285,4029138.0,4012660001.0,Jackson Heights                                                            
1096,QAMJ,NYCEEC,Q,Little Dolphin,,718-641-7754,10701 Crossbay Blvd,11417,1,40,1027563,186624,dolphin10701@yahoo.com,http://littledolphin.org,2,7,1,27QAMJ,40.678677,-73.844222,10,32,86,4191045.0,4091630076.0,Ozone Park                                                                 
1097,QAMK,NYCEEC,Q,Lolly's ECC,,516-852-6339,5 - 44 47 Ave,11101,3,17,997043,210874,ilana@lollyslearningcenter.com,,5,9,3,30QAMK,40.745869,-73.955163,2,26,7,4000076.0,4000290026.0,Hunters Point-Sunnyside-West Maspeth                                       
1098,QAMN,NYCEEC,Q,"Richmond Hill Day Care, Inc.",,718-441-8191,11524 Myrtle Ave,11418,1,20,1030274,194385,richhilldc@gmail.com,,1,7,1,27QAMN,40.700303000000005,-73.834532,9,29,132,4192718.0,4092290008.0,Richmond Hill                                                              
1099,QAMO,NYCEEC,Q,Greater Ridgewood,,718-456-5437,5903 Summerfield St,11385,1,54,1012517,194119,lstarsprek@thegryc.org,http://thegryc.org,3,3,2,24QAMO,40.699463,-73.897855,5,34,557,4437841.0,4035880001.0,Ridgewood                                                                  
1100,QAMS,NYCEEC,Q,Kid Krazy,,718-204-0646,2519 27 St,11102,1,18,1006262,220364,kdkrzyprschl@aol.com,http://kidkrazypreschool.com,7,7,1,30QAMS,40.771609999999995,-73.92062299999999,1,22,69,4017414.0,4008397501.0,Old Astoria                                                                
1101,QAMT,NYCEEC,Q,Ralph Hirschkorn CCC,<p><strong>Alert</strong>: Program may have income or other eligibility requirements. Contact for more information.</p>,718-327-1141,310 Bch 20th St,11691,1,48,1052560,157261,rhccclisa@hotmail.com,,3,3,1,27QAMT,40.597521,-73.754248,14,31,99801,4448978.0,4156360007.0,Far Rockaway-Bayswater                                                     
1102,QAMU,NYCEEC,Q,Saratoga Early Childhood Education Center,<p><strong>Alert</strong>: Program may have income or other eligibility requirements. Contact for more information.</p>,718-244-0670,17515 Rockaway Blvd,11434,1,12,1048162,179040,jameddir@verizon.net,,3,7,1,29QAMU,40.657786,-73.77031,13,31,320,4286135.0,4133810001.0,Springfield Gardens South-Brookville                                       
1103,QAMV,NYCEEC,Q,SCO Family Of Services Jerome Hardeman Ece,<p><strong>Alert</strong>: Program may have income or other eligibility requirements. Contact for more information.</p>,718-779-1660,29 - 49 Gillmore St,11369,1,75,1021867,216706,mfadoul@sco.com,http://sco.org/programs/early-childhood/,3,7,1,30QAMV,40.762316999999996,-73.865371,3,21,367,4431488.0,4016680007.0,East Elmhurst                                                              
1104,QANH,NYCEEC,Q,Quick Start DCC Inc.,<p><strong>Alert</strong>: Program may have income or other eligibility requirements. Contact for more information.</p>,718-659-6928,126 - 22 150th St,11436,1,26,1042850,184315,quickdayc@aol.com,,3,7,1,27QANH,40.672757,-73.788157,12,28,788,4262729.0,4121040022.0,Baisley Park                                                               
1105,QANJ,NYCEEC,Q,North Side School - Parsons ( Half - Day ),,718-229-5050,84 - 60 Parsons Blvd,11432,3,18,1037792,198993,Richard@nss123.org,,5,9,3,28QANJ,40.71402,-73.807209,8,24,230,,,Briarwood-Jamaica Hills                                                    
1106,QANR,NYCEEC,Q,Malcolm X Day Care,<p><strong>Alert</strong>: Program may have income or other eligibility requirements. Contact for more information.</p>,718-651-7880,11112 Northern Blvd,11368,1,60,1023600,215376,cannadyh@e-s-s.org,,5,9,3,24QANR,40.757931,-73.85837099999999,3,21,381,4042862.0,4017260005.0,North Corona                                                               
1107,QANS,NYCEEC,Q,"A To Z Center Too, Inc.",,718-740-8400,220 - 24 Jamaica Ave,11428,1,130,1058114,201386,ATOZTOO@YAHOO.COM,http://atozcentertoo.com,3,3,1,29QANS,40.719032,-73.734175,13,27,568,4231220.0,4107890264.0,Queens Village                                                             
1108,QANT,NYCEEC,Q,Child Center Of NY 1,<p><strong>Alert</strong>: Program may have income or other eligibility requirements. Contact for more information.</p>,718-943-2800,6002 Roosevelt Ave,11377,1,53,1010890,210856,mariemason@childcenterny.org,http://childcenterny.org,2,2,1,30QANT,40.745487,-73.904274,2,26,259,4030038.0,4012930007.0,Woodside                                                                   
1109,QANU,NYCEEC,Q,Happy Dragon Of New York,,718-397-5733,8602 57th Ave,11373,1,52,1018566,206123,director@happydragonschool.com,http://happydragonschool.com,7,6,1,24QANU,40.732554,-73.876202,4,25,475,4065133.0,4028700001.0,Elmhurst                                                                   
1110,QANV,NYCEEC,Q,Happy Dragon Of USA Inc.,,718-271-5637,9825 Horace Harding Expy,11368,1,98,1023141,207444,director@happydragonschool.com,http://happydragonschool.com,2,6,1,28QANV,40.735678,-73.85984300000001,4,21,455,4047330.0,4019180090.0,Corona                                                                     
1111,QANZ,NYCEEC,Q,Battalion Christian Academy,,718-634-7172,454 Bch 67 St,11692,1,18,1040910,155872,bcafarrockaway@gmail.com,http://battalionchurch.org,7,8,2,27QANZ,40.593999,-73.796263,14,31,964,4438906.0,4160400024.0,Hammels-Arverne-Edgemere                                                   
1112,QAOC,NYCEEC,Q,Afro American Parents,<p><strong>Alert</strong>: Program may have income or other eligibility requirements. Contact for more information.</p>,347-676-5077,117 - 02 Guy Brewer Blvd,11434,1,16,1044395,188580,aapedcc3@aol.com,,3,2,1,28QAOC,40.684182,-73.782972,12,28,288,,,Baisley Park                                                               
1113,QAOO,NYCEEC,Q,Forest Park - Beth Jacob,,718-896-4444,10235 63rd Rd,11375,1,88,1024841,206519,info@forestparkschool.org,http://forestparkpreschool.com,3,7,1,28QAOO,40.733162,-73.85382299999999,6,29,719,4051133.0,4021240053.0,Forest Hills                                                               
1114,QAOQ,NYCEEC,Q,Rockaway CCC,<p><strong>Alert</strong>: Program may have income or other eligibility requirements. Contact for more information.</p>,718-327-1384,1466 Bch Channel Dr,11691,1,18,1052952,161672,rockawayccc@aol.com,,3,7,1,27QAOQ,40.609989,-73.753586,14,31,103201,4449690.0,4155010002.0,Far Rockaway-Bayswater                                                     
1115,QAOW,NYCEEC,Q,All My Children Day Care 6,<p><strong>Alert</strong>: Program may have income or other eligibility requirements. Contact for more information.</p>,718-322-2030,11716 Sutphin Blvd,11434,1,40,1041882,187064,info@amcearlylearn.com,http://allmychildrendaycare.com,3,7,1,27QAOW,40.680282,-73.792045,12,28,18402,4260903.0,4120220020.0,Baisley Park                                                               
1116,QAPB,NYCEEC,Q,All My Children Day Care 4,<p><strong>Alert</strong>: Program may have income or other eligibility requirements. Contact for more information.</p>,718-526-5911,11015 164th Pl,11433,1,40,1043382,192083,info@allmychildrendaycare.com,http://allmychildrendaycare.com,3,7,1,28QAPB,40.693627,-73.786987,12,27,264,4216947.0,4101930001.0,South Jamaica                                                              
1117,QAPD,NYCEEC,Q,NY League Forest Hills West,,718-639-9750,6325 Dry Hbr Rd,11379,1,16,1019247,202210,mary.rosa@yai.org,http://yai.org,2,3,2,24QAPD,40.721488,-73.873914,5,30,663,4069277.0,4029930012.0,Middle Village                                                             
1118,QAPK,NYCEEC,Q,Concerned Parents Of Jamaica ELC,<p><strong>Alert</strong>: Program may have income or other eligibility requirements. Contact for more information.</p>,718-658-4091,143 - 04 101st Ave,11435,1,69,1037526,192496,mmenrtor1cpjelc@gmail.com,http://concernedparentsofjamaica.com,3,3,2,28QAPK,40.694998,-73.808212,12,28,206,,,Jamaica                                                                    
1119,QAPL,NYCEEC,Q,Sholom Day Care 1,<p><strong>Alert</strong>: Program may have income or other eligibility requirements. Contact for more information.</p>,718-850-2934,8204 Lefferts Blvd,11418,1,30,1030936,197073,sholomdaycare@aol.com,,3,7,1,28QAPL,40.707498,-73.831304,9,29,775,4079530.0,4033300033.0,Kew Gardens                                                                
1120,QAPM,NYCEEC,Q,Charles R Drew ELC 3,<p><strong>Alert</strong>: Program may have income or other eligibility requirements. Contact for more information.</p>,718-523-7600,16515 Archer Ave,11433,1,38,1041433,195926,crddcc@aol.com,http://charlesrdrewforsuccess.org,3,7,2,28QAPM,40.704137,-73.793561,12,27,444,4216225.0,4101550029.0,Jamaica                                                                    
1121,QAPP,NYCEEC,Q,Be Above Site 16,<p><strong>Alert</strong>: Program may have income or other eligibility requirements. Contact for more information.</p>,718-978-0400,189 - 26 Linden Blvd,11412,1,56,1050411,191374,jameddir@verizon.net,,3,3,2,29QAPP,40.691714000000005,-73.762173,12,27,394,4271345.0,4125990001.0,St. Albans                                                                 
1122,QAPS,NYCEEC,Q,Be Above 22 ( New World Education Center ),<p><strong>Alert</strong>: Program may have income or other eligibility requirements. Contact for more information.</p>,718-528-8751,13737 Farmers Blvd,11434,1,30,1049800,184577,nwecsamuels@hotmail.com,http://babove.com,3,7,1,29QAPS,40.673147,-73.763952,12,31,330,4280110.0,4130210023.0,Springfield Gardens North                                                  
1123,QAPU,NYCEEC,Q,Xcel Tiny Tots Inc.,,718-740-2557,113 - 15 Springfield Blvd,11429,1,18,1056311,195743,XceltinytotsUPK@gmail.com,http://xceltinytots.com,3,3,1,29QAPU,40.704103,-73.740243,13,27,582,,,Queens Village                                                             
1124,QAPW,NYCEEC,Q,Queensbridge ECDC,<p><strong>Alert</strong>: Program may have income or other eligibility requirements. Contact for more information.</p>,718-722-6026,38 - 11 27th St,11101,1,96,1002192,214313,desiree.fryson@ccbq.org,http://ccbq.org,3,3,1,30QAPW,40.75523,-73.93517800000001,1,26,31,4004683.0,4003860015.0,Queensbridge-Ravenswood-Long Island City                                   
1125,QAQC,NYCEEC,Q,Howard Beach Judea Center,,718-848-1111,16205 90th St,11414,1,18,1028325,177403,fantasyrich@aol.com,,3,3,2,27QAQC,40.653523,-73.841391,10,32,892,4294161.0,4140640001.0,Lindenwood-Howard Beach                                                    
1126,QARC,NYCEEC,Q,Lucille Rose DCC,<p><strong>Alert</strong>: Program may have income or other eligibility requirements. Contact for more information.</p>,718-634-0331,148 Bch 59th St,11692,1,36,1043060,154568,lucillerosedcc@twcmetrobiz.com,,3,7,1,27QARC,40.590434,-73.788735,14,31,97202,4459305.0,4159260001.0,Hammels-Arverne-Edgemere                                                   
1127,QARE,NYCEEC,Q,PAL Woodside Early Learn Center,<p><strong>Alert</strong>: Program may have income or other eligibility requirements. Contact for more information.</p>,718-278-3616,5037 Broadway,11377,1,31,1009287,214406,skelley@palnyc.org,http://palnyc.org,3,7,1,30QARE,40.754763,-73.910021,1,26,163,4431003.0,4007380050.0,Astoria                                                                    
1128,QARG,NYCEEC,Q,South Jamaica Center For Children And Parents Inc. Center 1,<p><strong>Alert</strong>: Program may have income or other eligibility requirements. Contact for more information.</p>,718-526-2500,11402 Guy R Brewer Blvd,11434,1,34,1043654,190194,acanteysjc@aol.com,,3,7,1,28QARG,40.688615000000006,-73.785593,12,28,276,4264631.0,4122000052.0,Baisley Park                                                               
1129,QARK,NYCEEC,Q,Sholom Day Care 2,<p><strong>Alert</strong>: Program may have income or other eligibility requirements. Contact for more information.</p>,718-850-2934,8437 118th St,11418,1,14,1030561,195499,shalomdaycare@aol.com,,3,7,1,27QARK,40.703509999999994,-73.833424,9,29,134,4192902.0,4092340040.0,Kew Gardens                                                                
1130,QARN,NYCEEC,Q,All My Children Day Care 8,<p><strong>Alert</strong>: Program may have income or other eligibility requirements. Contact for more information.</p>,718-786-1166,97 - 30 Queens Blvd,11374,1,37,1023236,204754,eyusupova@amcearlylearn.com,,3,3,2,28QARN,40.729749,-73.861277,6,29,71701,4050444.0,4020900001.0,Rego Park                                                                  
1131,QARO,NYCEEC,Q,Committee For Early Childhood Development Head Start 2,<p><strong>Alert</strong>: Program may have income or other eligibility requirements. Contact for more information.</p>,718-848-0276,11721 Sutphin Blvd,11434,1,129,1042016,187099,charlucie@hotmail.com,http://cecdhs.org,3,1,1,27QARO,40.680265999999996,-73.792016,12,28,288,4264848.0,4122040001.0,Baisley Park                                                               
1132,QARP,NYCEEC,Q,Myrtle P Jarmon ECEC,<p><strong>Alert</strong>: Program may have income or other eligibility requirements. Contact for more information.</p>,718-528-0922,11655 Guy R Brewer Blvd,11434,1,23,1044519,189050,mpjecec@yahoo.com,,3,3,1,28QARP,40.685265,-73.783585,12,28,278,4435292.0,4123350044.0,Baisley Park                                                               
1133,QARQ,NYCEEC,Q,All My Children,<p><strong>Alert</strong>: Program may have income or other eligibility requirements. Contact for more information.</p>,718-576-6812,83 - 10 188 St,11423,1,21,1045461,203314,grosler@amcearlylearn.com,http://amcearlylearn.com,3,7,1,26QARQ,40.724817,-73.778961,8,23,1277,,,Jamaica Estates-Holliswood                                                 
1134,QARX,NYCEEC,Q,Redeemer Lutheran School,,718-821-6670,6926 Cooper Ave,11385,1,18,1017123,194776,redluthglenam@aol.com,http://redeemerlutheranschool.org,5,9,3,24QARX,40.701338,-73.88155400000001,5,30,629,4090409.0,4037070016.0,Glendale                                                                   
1135,QASB,NYCEEC,Q,Mi Nuevo Mundo,,718-476-3128,104 - 19 39th Ave,11368,1,32,1022636,212934,mnm104100@gmail.com,,3,2,2,24QASB,40.750793,-73.86166999999999,3,21,403,,,North Corona                                                               
1136,QASC,NYCEEC,Q,St. Mel School,,718-539-8211,15424 26th Ave,11354,3,34,1037102,221173,cstein@stmelsacademy.org,http://stmelsacademy.org,8,3,1,25QASC,40.773887,-73.809296,7,19,1059,4109698.0,4048490001.0,Murray Hill                                                                
1137,QASD,NYCEEC,Q,Immanuel Genius,,718-819-0190,"213 - 03 Northern Blvd, 3fl",11361,1,49,1047947,216381,Geniusd26@gmail.com,http://immanuelgenius.com,3,6,1,26QASD,40.760104999999996,-73.770134,11,19,1447,4530080.0,4073130019.0,Bayside-Bayside Hills                                                      
1138,QASE,NYCEEC,Q,"Talented Little Children III / TLC Spirit, LLC",,718-658-4384,104 - 40 134th St,11419,3,24,1036286,190784,tlcspirit2000@gmail.com,http://tlcpreschoolnyc.com,3,7,2,28QASE,40.691069,-73.81259,10,28,15801,,,South Ozone Park                                                           
1139,QASF,NYCEEC,Q,Ira's Parkway Day Care,,718-739-6500,14120 Grand Central Pkwy,11435,1,18,1034924,199998,lindapinkhasov@gmail.com,http://irasdaycare.com,3,3,1,28QASF,40.71565,-73.817214,8,24,22001,4143650.0,4066390016.0,Briarwood-Jamaica Hills                                                    
1140,QASG,NYCEEC,Q,Positive Beginnings II,,718-261-0211,71 - 25 Main St,11367,1,40,1033674,204304,Iecheverry@positivebeginnings.org,,3,3,1,25QASG,40.727911,-73.82239399999999,8,24,77902,4143318.0,4066190031.0,Kew Gardens Hills                                                          
1141,QASH,NYCEEC,Q,Jewish Institute Of Queens,,718-480-0100,64 - 41 Utopia Pkwy,11365,1,36,1041702,207852,OFFICE@QUEENSGYMNASIA.ORG,http://jiqueens.com,3,3,1,26QASH,40.737636,-73.793031,8,24,1341,4149093.0,4069040036.0,Fresh Meadows-Utopia                                                       
1142,QASI,NYCEEC,Q,"Early Sunrise Preschool And Kindergarten, Inc.",,718-736-9064,187 - 10 Hillside Ave,11432,1,28,1046683,199706,horna21547@aol.com,,3,7,2,29QASI,40.714622,-73.77565799999999,8,24,472,4213411.0,4099600019.0,Jamaica Estates-Holliswood                                                 
1143,QASJ,NYCEEC,Q,Northside School,,718-298-6161,84 - 60 Parsons Blvd,11432,1,54,1037801,198967,david@nextstepcg.com,http://northside123.com,3,3,1,28QASJ,40.71402,-73.807209,8,24,230,,,Briarwood-Jamaica Hills                                                    
1144,QASK,NYCEEC,Q,Jackson Children's Services,,718-779-8800,3602 14th St,11106,1,10,1001433,216147,jackdevctr@aol.com,http://jacksonchild.com,5,3,2,30QASK,40.759986,-73.937635,1,26,43,4004284.0,4003500020.0,Queensbridge-Ravenswood-Long Island City                                   
1145,QASL,NYCEEC,Q,Bessie & Nora's Place,,718-739-0884,90 - 05 161st St,11432,1,30,1039977,196237,bessienorapl@aol.com,,3,2,1,28QASL,40.705201,-73.799278,12,24,44601,,,Jamaica                                                                    
1146,QASN,NYCEEC,Q,Early Steps Family Center,,718-888-2301,216 Bch 87th St,11693,3,20,1036465,153570,carmen.ayala@vnsny.org,http://vnsny.org,5,9,3,27QASN,40.588048,-73.812206,14,32,94202,4303414.0,4161200006.0,Hammels-Arverne-Edgemere                                                   
1147,QASO,NYCEEC,Q,St. Luke's Evangelical Lutheran Church,,718-296-6683,87 - 34 85th St,11421,1,30,1023433,191028,st.lukes_ns@verizon.net,http://stlukesnurseryschool.weebly.com,7,7,2,27QASO,40.691725,-73.858767,9,32,10,4183897.0,4089220058.0,Woodhaven                                                                  
1148,QASP,NYCEEC,Q,Qing Sheng Wang GFDC,,718-651-3372,83 - 32 Cornish Ave,11373,1,12,1017390,209062,starpreschool80@yahoo.com,,2,7,2,24QASP,40.740113,-73.881233,4,25,485,4038655.0,4015430023.0,Elmhurst-Maspeth                                                           
1149,QASR,NYCEEC,Q,"A Child's Place Too, Inc.",,646-302-8379,100 - 10 Astoria Blvd,11369,1,45,1020594,216770,tameshadaviscoles@yahoo.com,,6,3,2,30QASR,40.76197,-73.86917,3,21,367,,,East Elmhurst                                                              
1150,QAST,NYCEEC,Q,"ABC Preschool & Kindergarten Center, Corp.",,718-672-2424,66 - 20 Laurel Hl Blvd,11377,1,80,1012501,208731,abc_preschool@yahoo.com,http://abcpreschoolny.com,3,3,1,24QAST,40.739682,-73.89868100000001,2,30,243,,,Elmhurst-Maspeth                                                           
1151,QASU,NYCEEC,Q,Child Center Of NY 2,<p><strong>Alert</strong>: Program may have income or other eligibility requirements. Contact for more information.</p>,347-287-0175,3410 108th St,11368,1,73,1022787,214732,telvarivera@childcenterny.org,http://ccny.org,3,3,1,24QASU,40.75607,-73.860688,3,21,381,4043525.0,4017490007.0,North Corona                                                               
1152,QASV,NYCEEC,Q,Bwy Preschool,,718-205-4855,7714 Roosevelt Ave,11372,1,138,1015231,211446,bwypreschool@gmail.com,http://bwypreschool.com,2,1,1,24QASV,40.74715,-73.888453,4,25,267,4036780.0,4014880006.0,Elmhurst                                                                   
1153,QASW,NYCEEC,Q,"Children's Big Apple, Inc.",,718-565-5311,3703 94th St,11372,1,90,1019464,212789,angelblue1228@yahoo.com,,8,6,2,24QASW,40.750446999999994,-73.87305400000001,3,21,273,4036590.0,4014820077.0,Jackson Heights                                                            
1154,QASX,NYCEEC,Q,"Children's Big Apple, Inc.",,718-565-5311,4126 Case St,11376,1,18,1019264,211355,marcushuang@aol.com,,8,7,2,24QASX,40.746865,-73.873573,4,25,467,4039116.0,4015650021.0,Elmhurst                                                                   
1155,QASY,NYCEEC,Q,Gryc Little Stars @ Notre Dame,,718-456-5437,6281 60th Pl,11385,1,36,1011175,198534,lstarsprek@thegryc.org,http://thegryc.org,3,3,2,24QASY,40.711706,-73.90322900000001,5,30,593,4084519.0,4035190005.0,Ridgewood                                                                  
1156,QATA,NYCEEC,Q,Jc's Daywatch Pre - K,,718-381-3777,20 St Johns Rd,11385,1,36,1009900,196752,jcsndaywatch@Aol.com,,5,9,3,24QATA,40.70678,-73.907388,5,30,589,4080903.0,4033910026.0,Ridgewood                                                                  
1157,QATB,NYCEEC,Q,Johnson's Academy LLC,,718-592-7289,9904 57th Ave,11368,1,20,1023253,208338,aleimj@gmail.com,,5,9,3,24QATB,40.738423,-73.859873,4,21,43702,4431741.0,4019450001.0,Corona                                                                     
1158,QATC,NYCEEC,Q,"Little Friends School Elmhurst, Inc.",,718-458-5415,8503 Britton Ave,11373,1,38,1017265,210883,littlefriendschool@nyc.rr.com,http://elmhurstdaycare.com,2,7,1,24QATC,40.745363,-73.880661,4,25,26901,4037168.0,4015050051.0,Elmhurst                                                                   
1159,QATD,NYCEEC,Q,Little Friends School Sunnyside,,718-786-4644,43 - 42 47 St,11104,1,56,1007014,210182,littlefriendssunnyside@gmail.com,,5,9,3,30QATD,40.744512,-73.917487,2,26,25301,4448550.0,4001410027.0,Hunters Point-Sunnyside-West Maspeth                                       
1160,QATE,NYCEEC,Q,Center Of Excellence Springfield Gardens Preschool,,718-276-8200,127 - 08 Merrick Blvd,11434,1,74,1049436,187492,childcarenyc@aol.com,http://aoeschool.com,3,7,1,28QATE,40.681323,-73.764975,12,27,33401,,,St. Albans                                                                 
1161,QATH,NYCEEC,Q,Maspeth Town Hall Preschool,,718-335-6049,5337 72nd St,11378,1,40,1014147,205387,arychlowski@maspethtownhall.org,http://maspethtownhall.org,2,7,2,24QATH,40.730174,-73.892364,5,30,497,4058706.0,4025060015.0,Maspeth                                                                    
1162,QATJ,NYCEEC,Q,Smiles GFDC Inc.,,917-943-3501,53 - 14 102 St,11368,1,12,1023293,209237,nancypolanco@gmail.com,,5,9,3,24QATJ,40.74126,-73.859229,4,21,44301,4047669.0,4019400012.0,Corona                                                                     
1163,QATK,NYCEEC,Q,Ping Sheng Ye Group Family Day Care,,917-853-4865,8332 Cornish Ave,11373,1,12,1017379,209073,starpreschool80@yahoo.com,,2,7,1,24QATK,40.740349,-73.880901,4,25,485,4038662.0,4015440019.0,Elmhurst-Maspeth                                                           
1164,QATL,NYCEEC,Q,Rainbow Christian Preschool,,718-335-3361,7201 43rd Ave,11377,1,76,1014059,209714,rainbowchristianwoodside@gmail.com,http://rainbowchristian.com,3,3,1,24QATL,40.742057,-73.892514,2,26,483,4437121.0,4013530001.0,Elmhurst-Maspeth                                                           
1165,QATM,NYCEEC,Q,Star America Preschool,,718-396-9739,"80 - 07 Broadway, 2 / F",11373,1,80,1016236,210336,staramerica11373@gmail.com,,2,6,1,24QATM,40.743728999999995,-73.88459,4,25,481,,,Elmhurst                                                                   
1166,QATO,NYCEEC,Q,Long Island City YMCA,,212-912-2576,3223 Queens Blvd,11101,1,53,1003018,210744,npolanco2@YMCAnyc.org,http://licymca.org,3,2,1,30QATO,40.744771,-73.932449,2,26,179,4537914.0,4002440024.0,Hunters Point-Sunnyside-West Maspeth                                       
1167,QATQ,NYCEEC,Q,Better Community Life DCC 2,<p><strong>Alert</strong>: Program may have income or other eligibility requirements. Contact for more information.</p>,718-463-0403,13316 Roosevelt Ave,11354,1,42,1030465,215487,bcl21@verizon.net,,3,7,2,25QATQ,40.758288,-73.833832,7,20,871,4443446.0,4050370008.0,Flushing                                                                   
1168,QATS,NYCEEC,Q,Therese Cervini ECDC Site I,,718-478-2169,3533 104th St,11368,3,50,1021997,214102,bcheco@ccbq.org,,3,7,2,24QATS,40.75468,-73.864138,3,21,379,4437217.0,4017460027.0,North Corona                                                               
1169,QATT,NYCEEC,Q,Preschool R Us,,718-888-1958,150 - 15 41st Ave,11354,1,38,1035902,217337,Preschoolrus88@gmail.com,,3,7,1,25QATT,40.762838,-73.813789,7,20,1167,4443442.0,4050340014.0,Murray Hill                                                                
1170,QATU,NYCEEC,Q,Evbo Inc. D / B / A Jack & Jill Nursery School,,718-762-1218,4323 Colden St,11355,1,72,1032797,213598,JackJill1@aol.com,http://jackandjillschools.com,3,7,1,25QATU,40.75247,-73.824913,7,20,79701,4115898.0,4051370005.0,Flushing                                                                   
1171,QATV,NYCEEC,Q,Happy Dragon Children's Learning Center Site 2,,718-445-8382,14330 Cherry Ave,11355,1,51,1034317,214730,cherry@happydragonschool.com,http://happydragonschool.com,7,7,1,25QATV,40.755997,-73.819558,7,20,861,4117333.0,4051960043.0,East Flushing                                                              
1172,QATX,NYCEEC,Q,Immanuel Creative,,718-460-9991,16315 Oak Ave,11358,1,38,1038625,212577,geniusd25@gmail.com,http://immanuelgenius.com,3,4,1,25QATX,40.749860999999996,-73.80386800000001,7,20,1207,4124168.0,4054930001.0,East Flushing                                                              
1173,QATY,NYCEEC,Q,International Nursery School,,718-353-0932,171 - 39 Northern Blvd,11358,2,76,1041195,215505,INSSchool@yahoo.com,http://internationalnurseryschool.com,3,3,1,25QATY,40.75804,-73.79561700000001,7,19,1175,4438198.0,4053500001.0,Murray Hill                                                                
1174,QATZ,NYCEEC,Q,"Judi's Nursery, Inc.",,718-520-1324,15005 70th Rd,11367,1,60,1034672,205384,judisnursery@gmail.com,,3,3,1,25QATZ,40.729929999999996,-73.818146,8,24,77906,4143983.0,4066560094.0,Kew Gardens Hills                                                          
1175,QAUA,NYCEEC,Q,Kon Wah Day School,,718-353-4388,13527 38th Ave 2nd Floor,11354,1,90,1030841,216418,konwahflushing@yahoo.com,,2,3,1,25QAUA,40.760388,-73.83198900000001,7,20,871,4112297.0,4049740051.0,Flushing                                                                   
1176,QAUB,NYCEEC,Q,"New Milestone, Inc.",,718-380-1978,15813 72nd Ave,11365,1,40,1036680,204574,new.milestone@yahoo.com,,2,7,1,25QAUB,40.727863,-73.810824,8,24,122701,4147000.0,4067977503.0,Pomonok-Flushing Heights-Hillcrest                                         
1177,QAUC,NYCEEC,Q,Pee Wee Folks,,718-746-6107,1245 Clintonville St,11357,1,40,1036415,227204,mgembressi@aol.com,http://peeweefolkspreschool.com,2,2,1,25QAUC,40.790172999999996,-73.81183100000001,7,19,987,4102995.0,4045300018.0,Whitestone                                                                 
1178,QAUD,NYCEEC,Q,Precious Moments,,718-767-6655,1102 Clintonville St,11357,1,18,1036136,227743,preciousmoments2@verizon.net,http://preciousmomentsnursery.com,5,1,1,25QAUD,40.791878000000004,-73.812538,7,19,981,4102661.0,4045160027.0,Whitestone                                                                 
1179,QAUE,NYCEEC,Q,"Ready, Set, Grow Child Center, LLC",,718-888-7871,13616 31st Rd,11354,1,40,1030800,219622,readysetgrowccc@yahoo.com,http://readysetgrowccc.com,3,6,1,25QAUE,40.769473,-73.832038,7,20,88901,4308655.0,4044097503.0,Flushing                                                                   
1180,QAUG,NYCEEC,Q,Sharon Nursery,,718-539-8467,14515 34th Ave,11354,1,34,1033498,218874,sharon_nursery@yahoo.com,http://sharonnurseryny.com,2,7,1,25QAUG,40.767082,-73.822395,7,20,1159,4112734.0,4049830035.0,Murray Hill                                                                
1181,QAUH,NYCEEC,Q,"Corner School, The",,718-445-2811,15003 Bayside Ave,11354,1,18,1035326,220479,baysidetcs@aol.com,http://thecornerschool.com,3,7,1,25QAUH,40.771526,-73.815657,7,19,1047,4109019.0,4048230005.0,Murray Hill                                                                
1182,QAUJ,NYCEEC,Q,Martin L King Jr. Mem DCC,<p><strong>Alert</strong>: Program may have income or other eligibility requirements. Contact for more information.</p>,718-886-3165,3606 Prince St,11354,1,20,1030417,216965,mlkdcc@hotmail.com,,7,7,2,25QAUJ,40.762091,-73.833107,7,20,869,4112217.0,4049690018.0,Flushing                                                                   
1183,QAUK,NYCEEC,Q,Chabad ELC,,718-279-1457,21212 26th Ave,11360,1,53,1045927,222814,Dina@chabadnequeens.com,http://chabadnequeens.com,3,3,1,26QAUK,40.778213,-73.777477,11,19,1093,4133551.0,4059990020.0,Bayside-Bayside Hills                                                      
1184,QAUL,NYCEEC,Q,Community Church Of Douglaston,,718-767-1961,3950 Douglaston Pkwy,11363,1,30,1053391,219671,Upkofdouglaston@gmail.com,,7,3,1,26QAUL,40.770345,-73.74998199999999,11,19,1483,4438356.0,4080820280.0,Douglas Manor-Douglaston-Little Neck                                       
1185,QAYJ,NYCEEC,Q,Brite Adventure Center ( 58th St. ),,718-274-4769,4131 58th St,11377,1,40,1010067,210253,nycdaycare@aol.com,,3,5,2,30QAYJ,40.74398,-73.906961,2,26,249,4031249.0,4013320044.0,Woodside                                                                   
1186,QAUM,NYCEEC,Q,Home Sweet Home Children's School,,718-357-9738,19617 53 Ave,11365,1,54,1044604,211822,homesweethomeschool@msn.com,http://homesweethomechildrensschool.org,3,7,1,26QAUM,40.7477,-73.782162,11,20,1429,4158441.0,4073750044.0,Auburndale                                                                 
1187,QAUN,NYCEEC,Q,Jack & Jill II,,718-939-8687,6805 Fresh Mdw Ln,11365,1,36,1041220,206562,mirna_p_ramos@yahoo.com,http://jackandjillschools.com,3,2,1,26QAUN,40.733431,-73.794585,8,24,1341,4149755.0,4069300011.0,Fresh Meadows-Utopia                                                       
1188,QAUO,NYCEEC,Q,Noah's Ark Progressive Learning Center,,718-279-4251,3820 Bell Blvd,11361,1,40,1047310,218308,noahsarkschool@aol.com,http://noahsarkschool.com,3,3,1,26QAUO,40.766189000000004,-73.77236500000001,11,19,1123,4438252.0,4062340006.0,Bayside-Bayside Hills                                                      
1189,QAUQ,NYCEEC,Q,YAI / NYL Clearview School Annex,,718-352-0104,12307 22 Ave,11356,1,18,1027207,223592,hilary.tischenkel@yai.org,,5,9,3,25QAUQ,40.780159999999995,-73.844931,7,19,925,4099233.0,4041670001.0,College Point                                                              
1190,QAUS,NYCEEC,Q,"Lutheran Schools Of Flushing And Bayside, The",,718-225-5502,3601 Bell Blvd,11361,1,36,1047142,219122,info@LSFB.org,http://lsfb.org,7,3,1,26QAUS,40.767804999999996,-73.773168,11,19,1123,4136561.0,4061760001.0,Bayside-Bayside Hills                                                      
1191,QAUT,NYCEEC,Q,All My Children Day Care 2,<p><strong>Alert</strong>: Program may have income or other eligibility requirements. Contact for more information.</p>,718-454-5600,16907 Jewel Ave,11365,1,12,1039699,205916,jashkenazy@amcearlylearn.com,http://allmychildrendaycare.com,3,7,1,26QAUT,40.731501,-73.800288,8,24,1223,4149982.0,4069400029.0,Pomonok-Flushing Heights-Hillcrest                                         
1192,QAUW,NYCEEC,Q,Alpha Kappa Alpha Epsilon Pi Omega DCC,<p><strong>Alert</strong>: Program may have income or other eligibility requirements. Contact for more information.</p>,718-322-6242,14406 Rockaway Blvd,11420,1,46,1041245,184720,akadaycare@aol.com,,3,3,1,27QAUW,40.673735,-73.794538,12,28,790,4261925.0,4120620051.0,Baisley Park                                                               
1193,QAVB,NYCEEC,Q,"Bev's Kiddie Daycare, Inc.",,718-850-3083,10145 113th St,11419,1,12,1031332,189727,Bevkiddie@verizon.net,http://bevkiddiebiz.com,3,7,2,27QAVB,40.688182,-73.830812,9,28,108,4198930.0,4094310058.0,Richmond Hill                                                              
1194,QAVC,NYCEEC,Q,Blanche Community Progress Dcc#2,<p><strong>Alert</strong>: Program may have income or other eligibility requirements. Contact for more information.</p>,718-471-7881,4402 Bch Channel Dr,11691,1,80,1046424,156441,williamsflorence@hotmail.com,http://blanchecommunity.com,3,7,1,27QAVC,40.595667999999996,-73.77586,14,31,97203,4463476.0,4159670001.0,Hammels-Arverne-Edgemere                                                   
1195,QAVD,NYCEEC,Q,Community And Family Head Start,<p><strong>Alert</strong>: Program may have income or other eligibility requirements. Contact for more information.</p>,718-471-7970,4105 Bch Channel Dr,11691,1,68,1047279,156339,mariposa3.13@hotmail.com,,3,7,2,27QAVD,40.595787,-73.773083,14,31,992,4301797.0,4158310032.0,Hammels-Arverne-Edgemere                                                   
1196,QAVE,NYCEEC,Q,De Anna Learning Center,,718-847-1310,9140 120th St,11418,1,24,1032071,192519,deannagroup@aol.com,,3,3,2,27QAVE,40.695402,-73.827504,9,29,144,4196677.0,4093510026.0,Richmond Hill                                                              
1197,QAVF,NYCEEC,Q,Cuomo First Step,,718-441-5333,11515 101st Ave,11419,1,19,1031686,190450,elizabeth.recine@heartshare.org,http://heartshare.org,3,7,2,27QAVF,40.689069,-73.829133,9,28,120,4198275.0,4094170046.0,Richmond Hill                                                              
1198,QAVG,NYCEEC,Q,Russo First Step,,718-805-7117,11801 101st Ave,11419,1,16,1032285,190674,mildred.agate@heartshare.org,http://heartshare.org,2,6,2,27QAVG,40.689754,-73.826729,9,28,120,4199634.0,4094560030.0,Richmond Hill                                                              
1199,QAVH,NYCEEC,Q,Hammel CCC,<p><strong>Alert</strong>: Program may have income or other eligibility requirements. Contact for more information.</p>,718-474-3162,82 - 10 Rockaway Bch Blvd,11693,1,18,1037479,153642,HammelCCC@verizon.net,,3,7,1,27QAVH,40.587869,-73.808531,14,32,94203,,,Hammels-Arverne-Edgemere                                                   
1200,QAVJ,NYCEEC,Q,Jfkidsport,,718-553-5437,Jfk Airport Building 350,11430,1,36,1047995,178209,jfkidsport@hotmail.com,http://jfkidsport.com,2,7,1,27QAVJ,40.648244,-73.78824200000001,83,28,716,4000000.0,4142600001.0,Airport                                                                    
1201,QAVO,NYCEEC,Q,Omega Psi Phi Fraternity,<p><strong>Alert</strong>: Program may have income or other eligibility requirements. Contact for more information.</p>,718-322-9671,12310 143rd St,11436,1,34,1040835,185019,omegaecec@gmail.com,,3,4,1,27QAVO,40.674521999999996,-73.795725,12,28,182,4261337.0,4120390044.0,Baisley Park                                                               
1202,QAVP,NYCEEC,Q,On Our Way Learning Center,,718-868-2961,264 Bch 19 St,11691,1,40,1052893,156945,sungar@onourwaylc.org,http://onourwaylc.org,7,3,2,27QAVP,40.596882,-73.753199,14,31,101001,4299362.0,4156340048.0,Far Rockaway-Bayswater                                                     
1203,QAVS,NYCEEC,Q,St. John's Lutheran Church,,718-441-3611,8620 114th St,11418,1,20,1029911,193883,imnmontalvo@hotmail.com,,3,3,1,27QAVS,40.699104999999996,-73.835259,9,32,130,4192690.0,4092260069.0,Richmond Hill                                                              
1204,QAVU,NYCEEC,Q,"St. Albans Montessori DCC, Inc.",<p><strong>Alert</strong>: Program may have income or other eligibility requirements. Contact for more information.</p>,718-341-5945,118 - 49 Montauk St,11412,1,54,1049845,190120,aJohnson@saintalbansmontessori.com,http://saintalbansmontessori.com,2,3,1,29QAVU,40.689331,-73.76428,12,27,366,,,St. Albans                                                                 
1205,QAVV,NYCEEC,Q,Up The Ladder,,718-843-4913,8011 101st Ave,11416,1,28,1023528,187386,gonzalezmarga@aol.com,,3,7,2,27QAVV,40.680784,-73.858271,9,32,42,4188129.0,4090510037.0,Woodhaven                                                                  
1206,QAVW,NYCEEC,Q,West End Temple Nursery School,,718-318-0030,14702 Newport Ave,11694,1,30,1021796,148140,westendupk@westendtemple.org,http://westendtemple.org,3,3,2,27QAVW,40.573033,-73.864432,14,32,922,4306479.0,4162900001.0,Breezy Point-Belle Harbor-Rockaway Park-Broad Channel                      
1207,QAVY,NYCEEC,Q,Nayda Day Care,,718-805-8893,9734 108th St,11419,1,12,1029688,189977,islamislam22@aol.com,,3,7,2,27QAVY,40.68866,-73.836226,9,28,110,4197881.0,4094090020.0,Richmond Hill                                                              
1208,QAVZ,NYCEEC,Q,Nayda Day Care II,,718-805-8893,9736 108th St,11419,1,12,1029694,189963,islamislam22@aol.com,,3,7,2,27QAVZ,40.688659,-73.836223,9,28,110,4197882.0,4094090021.0,Richmond Hill                                                              
1209,QAWA,NYCEEC,Q,A To Z Learning Center,,718-805-4400,123 - 21 Jamaica Ave,11418,3,87,1032308,194686,atozcenter@yahoo.com,,3,3,1,28QAWA,40.700685,-73.827148,9,29,14201,4196006.0,4093320001.0,Richmond Hill                                                              
1210,QAWC,NYCEEC,Q,Paccor Kids,,718-525-9620,11817 Guy R Brewer Blvd,11434,1,36,1044665,188289,Mrodri228@gmail.com,http://paccorpreschool.wix.com/paccorpreschool,3,8,1,28QAWC,40.683248,-73.78240100000001,12,27,284,4448582.0,4123540112.0,Baisley Park                                                               
1211,QAWE,NYCEEC,Q,Ira's Parkway Daycare & Preschool Inc.,,917-807-2683,139 - 76 85 Dr,11435,1,36,1035784,197542,lindapinkhasov@gmail.com,,5,9,3,28QAWE,40.708809,-73.81658399999999,8,24,214,,,Briarwood-Jamaica Hills                                                    
1212,QAWG,NYCEEC,Q,Bright Beginnings Pre - School,,718-297-6767,8625 162nd St,11432,1,58,1039416,198013,brightbeginningsjamaica@gmail.com,http://brightbeginningschildcenter.com,3,6,1,28QAWG,40.710483,-73.801466,8,24,448,4209097.0,4097730001.0,Briarwood-Jamaica Hills                                                    
1213,QAWH,NYCEEC,Q,Central Queens YM & YWHA,,718-268-5011,67 - 09 108th St,11375,1,36,1026604,204822,asolomonia@cqy.org,http://cqy.org,7,3,1,28QAWH,40.728853,-73.847514,6,29,741,,,Forest Hills                                                               
1214,QAWK,NYCEEC,Q,Sholom Sholom Inc.,,718-850-2934,11666 Park Ln South,11415,1,36,1029567,197371,sholomdaycare@aol.com,,3,7,1,28QAWK,40.70839,-73.836838,9,29,775,4079403.0,4033230008.0,Kew Gardens                                                                
1215,QAWM,NYCEEC,Q,Rego Park Day School,,718-897-0693,6344 Wetherole St,11374,1,54,1021810,204581,Mjoseph481@aol.com,,7,7,2,28QAWM,40.728276,-73.864398,6,29,693,4072455.0,4030940034.0,Rego Park                                                                  
1216,QAWO,NYCEEC,Q,ICCD,,718-263-1587,98 - 02 62nd Dr,11374,1,41,1023153,206307,rkontner@iccd.com,http://iccd.com,5,2,1,28QAWO,40.733062,-73.859657,6,29,71701,4440231.0,4020860050.0,Rego Park                                                                  
1217,QAWQ,NYCEEC,Q,Forest Hills CCC,,718-263-5730,108 - 05 68th Rd,11375,1,18,1026956,204028,Natanielova@jccany.org,http://jccany.org,3,7,1,28QAWQ,40.726389000000005,-73.845842,6,29,739,,,Forest Hills                                                               
1218,QAWS,NYCEEC,Q,It's My Turn,,347-385-0824,131 - 15 Liberty Ave,11419,1,20,1035688,190884,playmatesnurseryinc@gmail.com,,5,9,3,28QAWS,40.690128,-73.814706,10,28,15801,4204052.0,4095680049.0,South Ozone Park                                                           
1219,QAWT,NYCEEC,Q,Afro - American Parents Educational Center Site 2,<p><strong>Alert</strong>: Program may have income or other eligibility requirements. Contact for more information.</p>,718-322-9080,11206 Sutphin Blvd,11435,4,36,1041167,189650,bev11435@yahoo.com,,3,3,1,28QAWT,40.687358,-73.794709,12,28,190,4258993.0,4119660001.0,Baisley Park                                                               
1220,QAWU,NYCEEC,Q,"Sunshine School, LLC",,718-468-9000,9110 146th St,11435,1,56,1037203,194623,sbisnauth@sunshineschool.org,http://sunshineschool.org,3,4,1,28QAWU,40.700875,-73.808841,12,24,212,4213884.0,4099860061.0,Jamaica                                                                    
1221,QAWW,NYCEEC,Q,"Pickwick School, Inc.",,718-526-1340,15115 85th Dr,11432,1,30,1037832,197999,pickwickschool@gmail.com,http://pickwickschool.com,7,7,1,28QAWW,40.709672,-73.806969,8,24,230,4208372.0,4097340041.0,Briarwood-Jamaica Hills                                                    
1222,QAWX,NYCEEC,Q,Apple Tree Nursery School,,718-374-0002,8225 164th St,11432,1,18,1038730,201187,cheller@queenscp.org,,7,3,1,29QAWX,40.718546,-73.803761,8,24,1267,4152348.0,4070380020.0,Pomonok-Flushing Heights-Hillcrest                                         
1223,QAWY,NYCEEC,Q,CSC Montessori Center,,728-276-9538,165 - 27 Baisley Blvd,11434,1,36,1045800,186939,ccsyoung@gmail.com,,5,9,3,28QAWY,40.678540000000005,-73.779143,12,28,33402,4436354.0,4124950002.0,Springfield Gardens North                                                  
1224,QAWZ,NYCEEC,Q,All My Children Day Care ( 69th Ave ),,718-658-1563,10822 69th Ave,11375,1,18,1027345,203477,info@amcearlylearn.com,http://allmychildrendaycare.com,3,7,1,28QAWZ,40.725066999999996,-73.84513100000001,6,29,739,4052272.0,4022190015.0,Forest Hills                                                               
1225,QAXA,NYCEEC,Q,Colin Newll ECDC,,718-722-6236,161 - 06 89 Ave,11432,1,40,1039803,196665,desiree.fryson@ccbq.org,,9,5,3,28QAXA,40.706418,-73.799841,12,24,44601,,,Jamaica                                                                    
1226,QAXC,NYCEEC,Q,All My Children Day Care ( Mayfield ),,718-658-1563,17544 Mayfield Rd,11432,1,36,1042639,200485,info@allmychildrendaycare.com,http://allmychildrendaycare.com,5,7,1,29QAXC,40.716221000000004,-73.789783,8,24,458,4211404.0,4098900020.0,Jamaica Estates-Holliswood                                                 
1227,QAXD,NYCEEC,Q,"Blanche Community Progress DCC, Inc.",<p><strong>Alert</strong>: Program may have income or other eligibility requirements. Contact for more information.</p>,718-479-1800,10960 202nd St,11412,1,47,1052014,196609,blancheelc@gmail.com,,3,3,1,29QAXD,40.706083,-73.75541700000001,12,27,508,4234212.0,4109410206.0,Hollis                                                                     
1228,QAXF,NYCEEC,Q,Committee For Early Childhood Development,<p><strong>Alert</strong>: Program may have income or other eligibility requirements. Contact for more information.</p>,718-464-2422,193 - 04 Jamaica Ave,11423,1,94,1048844,199116,MBAFUNSO@MSN.COM,http://cecdhs.org,3,3,1,29QAXF,40.713093,-73.767363,12,27,500,,,Hollis                                                                     
1229,QAXI,NYCEEC,Q,Queens ECC,,212-616-1851,14502 Farmers Blvd,11434,1,36,1048668,182065,donna.franklin@birchfamilyservices.org,http://www.birchfamilyservices.org,5,9,3,29QAXI,40.666171000000006,-73.767379,13,31,306,4285481.0,4133120015.0,Springfield Gardens South-Brookville                                       
1230,QAXK,NYCEEC,Q,Kids Circle Daycare,,718-380-1280,164 - 04 Goethals Ave,11432,1,20,1038694,201346,thekidscircle@aol.com,http://kidscircledaycare.com,3,7,1,29QAXK,40.719328000000004,-73.803709,8,24,1267,,,Pomonok-Flushing Heights-Hillcrest                                         
1231,QAXL,NYCEEC,Q,Laurelton Day Care,,718-712-1860,14119 224th St,11413,1,58,1053224,183130,laureltondaycare@aol.com,http://laureltonacademy.net,3,7,1,29QAXL,40.669267,-73.75140999999999,13,31,682,4282460.0,4131520035.0,Laurelton                                                                  
1232,QAXN,NYCEEC,Q,Montessori Progressive,<p><strong>Alert</strong>: Program may have income or other eligibility requirements. Contact for more information.</p>,718-723-3967,19503 Linden Blvd,11412,1,72,1051671,192003,Montessori1989@verizon.net,,3,3,1,29QAXN,40.693218,-73.756733,12,27,528,4238357.0,4110670040.0,St. Albans                                                                 
1233,QAXQ,NYCEEC,Q,Our Saviour Lutheran,,718-739-7452,90 - 04 175 Th St,11432,1,45,1043333,197890,oursaviourdirector@gmail.com,http://oursaviourjamaica.com,7,3,2,29QAXQ,40.709875,-73.786722,12,27,462,,,Jamaica                                                                    
1234,QAXV,NYCEEC,Q,Redeemer Lutheran Church And Nursery School,,718-465-3252,9210 217th St,11428,1,51,1055738,202583,redeemernurseryschool@gmail.com,http://redeemerqv.org,7,3,2,29QAXV,40.722469,-73.741759,13,23,558,4227031.0,4106330001.0,Queens Village                                                             
1235,QAYB,NYCEEC,Q,Charles R Drew ELC 1,<p><strong>Alert</strong>: Program may have income or other eligibility requirements. Contact for more information.</p>,718-740-2400,10945 207th St,11429,1,53,1053511,197278,crddcc@aol.com,http://charlesrdrewforsuccess.org,3,7,2,29QAYB,40.708351,-73.750633,13,27,512,4233644.0,4109170029.0,Queens Village                                                             
1236,QAYD,NYCEEC,Q,"South Jamaica Center For Children And Parents, Inc.",<p><strong>Alert</strong>: Program may have income or other eligibility requirements. Contact for more information.</p>,718-523-6455,94 - 43 160th St,11433,1,48,1040547,195093,acanteysjc@aol.com,,3,1,1,28QAYD,40.702359,-73.798125,12,27,246,4439752.0,4101030016.0,Jamaica                                                                    
1237,QAYE,NYCEEC,Q,Quick Start DCC,<p><strong>Alert</strong>: Program may have income or other eligibility requirements. Contact for more information.</p>,718-978-0800,118 - 46 Riverton St,11412,1,34,1049910,190389,quickdayc@aol.com,,3,3,1,29QAYE,40.690058,-73.763131,12,27,366,4268946.0,4124490004.0,St. Albans                                                                 
1238,QBGK,NYCEEC,Q,Kon Gen International Preschool,,718-281-2338,196 - 25 42nd Ave,11358,1,90,1043827,216250,kongenbayside@gmail.com,,2,3,1,26QBGK,40.759759,-73.785678,11,19,1181,,,Auburndale                                                                 
1239,QAYG,NYCEEC,Q,All Children's Child Care ( 31st Ave ),,718-777-2011,32 - 04 31st Ave ( Cellar ),11106,1,40,1005693,217526,nycdaycare24@aol.com,http://allchildrenschildcare.org,3,3,2,30QAYG,40.77807,-73.749238,11,19,1483,4168187.0,4080360014.0,Douglas Manor-Douglaston-Little Neck                                       
1240,QAYH,NYCEEC,Q,All Children's Child Care ( 24th St. ),,718-707-0501,3501 24th St,11106,1,60,1002858,216153,NYCDaycare24@aol.com,http://allchildrenschildcare.org,3,6,1,30QAYH,40.760172,-73.932899,1,26,47,4003978.0,4003380023.0,Astoria                                                                    
1241,QAYI,NYCEEC,Q,Brite Adventure Center ( 30th St. ),,718-777-6664,4922 30th Ave,11377,1,20,1009936,216204,nycdaycare24@aol.com,,3,6,1,30QAYI,40.760284000000006,-73.907313,1,22,163,4013772.0,4007400049.0,Astoria                                                                    
1242,QAYK,NYCEEC,Q,Christ Evangelical Lutheran Church,,718-205-1425,3357 58th St,11377,1,18,1011041,213285,sloweclc@gmail.com,http://christchurchwoodside.com,8,1,1,30QAYK,40.752595,-73.903238,2,26,257,4437084.0,4011820015.0,Woodside                                                                   
1243,QAYL,NYCEEC,Q,82nd Street Academics,,718-457-0429,8110 35th Ave,11372,1,140,1016029,213057,Carolyn.Hurtado@82ndst.com,http://preknyc.com,2,3,1,30QAYL,40.751703000000006,-73.885406,3,25,283,4029684.0,4012810001.0,Jackson Heights                                                            
1244,QAYN,NYCEEC,Q,Jackson Children's Services,,718-779-8800,3136 88th St,11369,5,25,1017376,215709,jackdevctr@aol.com,http://jacksonchild.com,5,3,2,30QAYN,40.759188,-73.880354,3,25,339,4595432.0,4013990023.0,Jackson Heights                                                            
1245,QAYP,NYCEEC,Q,Kid Krazy @ 21st Avenue,,718-545-5728,2125 21 Ave,11105,1,18,1008100,224198,kdkrzyprschl@aol.com,http://kidkrazypreschool.com,7,6,1,30QAYP,40.781909000000006,-73.914043,1,22,105,4447576.0,4008820007.0,Steinway                                                                   
1246,QAYT,NYCEEC,Q,Queensview Nursery School & Kindergarten,,718-728-4164,2136 33rd Rd,11106,1,18,1003153,217260,hevarsam@queensviewschool.com,http://queensviewschool.com,8,7,1,30QAYT,40.763325,-73.931466,1,22,45,4430866.0,4005570003.0,Astoria                                                                    
1247,QAYU,NYCEEC,Q,Rainbowland Nursery School,,718-899-7590,3960 54th St,11377,1,36,1009194,211347,info@rainbowlandschool.org,,2,7,1,30QAYU,40.746611,-73.909736,2,26,251,4028427.0,4012380040.0,Woodside                                                                   
1248,QAYV,NYCEEC,Q,Rainbowland Nursery School,,718-803-1728,3311 77th St,11372,1,16,1014792,214233,info@rainbowlandschool.org,,2,7,1,30QAYV,40.754675,-73.889931,3,25,287,4028769.0,4012500063.0,Jackson Heights                                                            
1249,QAYW,NYCEEC,Q,St. Francis Of Assisi School,,718-726-9405,2118 46th St,11105,4,54,1011680,220497,lnealis@sfaschool.org,http://sfaschool.org,3,3,1,30QAYW,40.771724,-73.900773,1,22,121,4439584.0,4007710022.0,Steinway                                                                   
1250,QAYX,NYCEEC,Q,St. Joseph School,,718-728-0724,28 - 46 44th St,11103,1,90,1008746,217246,jsgritto@stjosephsch.org,http://stjosephsch.org,3,1,1,30QAYX,40.763853999999995,-73.910622,1,22,147,4012089.0,4006990023.0,Astoria                                                                    
1251,QAYZ,NYCEEC,Q,Atonement Pre - School,,718-639-6074,3061 87 St,11369,1,36,1017149,216191,AWalbrodt@aol.com,,2,8,2,30QAYZ,40.760556,-73.881529,3,22,339,4033380.0,4013850040.0,Jackson Heights                                                            
1252,QAZC,NYCEEC,Q,PAL Western Queens,<p><strong>Alert</strong>: Program may have income or other eligibility requirements. Contact for more information.</p>,718-784-2092,1026 41st Ave,11101,4,36,999430,214286,vrichardson@palnyc.org,http://palnyc.org,3,7,1,30QAZC,40.755455,-73.945299,1,26,25,4433390.0,4004650100.0,Queensbridge-Ravenswood-Long Island City                                   
1253,QAZD,NYCEEC,Q,St. Margaret Mary ECDC,,718-722-6236,9 - 06 27 Ave,11102,1,20,1003385,221166,desiree.fryson@ccbq.org,,5,9,3,30QAZD,40.773953000000006,-73.930993,1,22,83,,,Old Astoria                                                                
1254,QAZI,NYCEEC,Q,Sheldon R Weaver CCC,,718-327-4078,72 - 05 Bch Channel Dr,11692,1,18,1039724,154631,srwdccfarrock@yahoo.com,,3,7,1,27QAZI,40.591317,-73.800607,14,31,954,,,Hammels-Arverne-Edgemere                                                   
1255,QAZV,NYCEEC,Q,Macedonia CDC,<p><strong>Alert</strong>: Program may have income or other eligibility requirements. Contact for more information.</p>,718-939-6060,3722 Un St,11354,1,18,1032033,216864,huynh357@aol.com,,3,2,2,25QAZV,40.762182,-73.827411,7,20,871,4438110.0,4049780046.0,Flushing                                                                   
1256,QAZW,NYCEEC,Q,La Guardia Community College Pre - School,,718-482-5295,3110 Thomson Ave,11101,5,36,1002286,210576,mflor@lagcc.cuny.edu,,2,3,1,24QAZW,40.744902,-73.935022,2,26,179,4003534.0,4002780001.0,Hunters Point-Sunnyside-West Maspeth                                       
1257,QBAA,NYCEEC,Q,"Sunshine Daycare Center, Inc.",,718-353-1800,"34 - 57a Francis Lewis Blvd, #2a",11358,1,15,1042858,218059,sunshinedaycareny@yahoo.com,,4,4,1,26QBAA,40.765439,-73.789118,11,19,1099,4446961.0,4060770048.0,Bayside-Bayside Hills                                                      
1258,QBAB,NYCEEC,Q,"Mona Prep Day Care, Inc.",,718-525-8555,24115 North Conduit Ave,11422,1,52,1057456,182294,monaprepdaycare@aol.com,http://monaprepdaycare.com,3,7,1,29QBAB,40.666584,-73.736028,13,31,638,4284726.0,4132560001.0,Rosedale                                                                   
1259,QBAC,NYCEEC,Q,Cambria Center For The Gifted Child,,718-341-1991,233 - 10 Linden Blvd,11411,1,50,1059516,191077,gchung@ccgcschool.org,http://cambriacenter-giftedchild.org,2,3,1,29QBAC,40.691064000000004,-73.728961,13,27,622,4244790.0,4113340010.0,Cambria Heights                                                            
1260,QBAF,NYCEEC,Q,Samuel Field YM & YWHA ( Bayside ),,718-423-6111,212 - 00 23rd Ave,11360,1,54,1045832,223897,brichman@sfy.org,http://sfy.org,7,3,1,25QBAF,40.781448,-73.778109,7,19,99704,4132408.0,4059000050.0,Ft. Totten-Bay Terrace-Clearview                                           
1261,QBAJ,NYCEEC,Q,Community Nursery School Coth,,718-539-0732,167 - 07 35th Ave,11358,1,18,1040140,218148,reginacoth@gmail.com,http://cothcommunitynursery.com,3,7,2,25QBAJ,40.765044,-73.798484,7,19,1175,,,Murray Hill                                                                
1262,QBBC,NYCEEC,Q,Irene Kouba,,718-229-5050,1650 Utopia Pkwy,11357,1,74,1041051,224549,info@northside123.com,http://northside123.com,3,4,1,25QBBC,40.78301,-73.794537,7,19,1017,4128728.0,4057350045.0,Ft. Totten-Bay Terrace-Clearview                                           
1263,QBBE,NYCEEC,Q,Our Kids Place Country Day,,718-276-3722,137 - 25 Brookville Blvd,11422,1,54,1057476,183228,Lpeters@ourkidsplacecares.com,http://ourkidsplacecares.com,3,2,1,29QBBE,40.669532000000004,-73.736236,13,31,638,4284358.0,4132320001.0,Rosedale                                                                   
1264,QBBF,NYCEEC,Q,Divine Wisdom Catholic Academy Douglaston,,718-631-3153,45 - 11 245th St,11363,1,54,1056050,218111,dwisdom@dwcaonline.org,http://dwcaonline.org,3,3,1,26QBBF,40.765539000000004,-73.741191,11,19,150701,4438365.0,4081950001.0,Douglas Manor-Douglaston-Little Neck                                       
1265,QBBG,NYCEEC,Q,Han - I Preschool,,718-358-3377,19818 32nd Rd - 1st Floor,11358,1,18,1042288,219298,hanipreschool@gmail.com,http://hanipreschool.com,3,3,1,26QBBG,40.768461,-73.790899,11,19,1099,4134101.0,4060250009.0,Bayside-Bayside Hills                                                      
1266,QBBL,NYCEEC,Q,"ABC Kiddieland, Inc.",,718-651-3551,6521a Roosevelt Ave,11377,1,20,1012431,211196,abckiddieland@verizon.net,,3,7,2,30QBBL,40.746143,-73.898202,2,26,263,,,Woodside                                                                   
1267,QBBM,NYCEEC,Q,Mushroom House Day Care LLC,,917-500-5022,38 - 00 Ditmars Blvd,11105,1,18,1010059,220976,mushroomhousedaycare@yahoo.com,http://mushroomhousedaycare.org,5,9,3,30QBBM,40.773284999999994,-73.906689,1,22,119,4015824.0,4008050031.0,Steinway                                                                   
1268,QBBN,NYCEEC,Q,Noah's Ark Progressive Learning Center,,347-335-0044,6248 Mt Olivet Cres,11379,1,56,1013148,199305,noahsarkschool@aol.com,,3,7,1,24QBBN,40.714313,-73.895924,5,30,603,4530837.0,4027737501.0,Middle Village                                                             
1269,QBBP,NYCEEC,Q,The Laugh And Learn Place,,718-525-6194,228 - 23 Merrick Blvd,11413,1,36,1055977,185904,LLdaycare1@gmail.com,http://laughandlearnplace.com,3,7,3,29QBBP,40.67664,-73.742063,13,31,632,4282538.0,4131550030.0,Laurelton                                                                  
1270,QBBQ,NYCEEC,Q,Most Holy Redeemer Catholic Academy,,718-961-0246,136 - 58 41st Ave,11355,1,71,1032104,215791,embaginski@yahoo.com,http://mhrca-nyc.org,2,3,1,25QBBQ,40.758676,-73.829088,7,20,853,,,Flushing                                                                   
1271,QBBR,NYCEEC,Q,ICCD,,718-428-5370,35 - 55 223rd St,11361,1,14,1050263,219672,Lsolan@iccd.com,http://iccd.com,7,3,1,26QBBR,40.769560999999996,-73.762029,11,19,1113,4462114.0,4061920060.0,Bayside-Bayside Hills                                                      
1272,QBBU,NYCEEC,Q,"Nurturing Center, Inc., The",,718-527-5932,112 - 18 Springfield Blvd,11429,1,54,1056269,196216,,http://nurturingcenterandacademy.com,7,3,1,29QBBU,40.705538,-73.73971800000001,13,27,582,4430416.0,4112130001.0,Queens Village                                                             
1273,QBCC,NYCEEC,Q,"Rochdale Village Nursery School, Inc.",<p><strong>Alert</strong>: Program may have income or other eligibility requirements. Contact for more information.</p>,718-723-2224,17030 130th Ave,11434,1,20,1047824,185923,rrochdalenursery@aim.com,,3,7,1,28QBCC,40.676795,-73.771088,12,28,33402,4436341.0,4124950002.0,Springfield Gardens North                                                  
1274,QBCD,NYCEEC,Q,Mi Nuevo Mundo,,718-476-3128,10421 39th Ave,11368,1,20,1022657,212941,mnm104100@gmail.com,,3,2,2,24QBCD,40.750796,-73.86165600000001,3,21,403,4595539.0,4017757501.0,North Corona                                                               
1275,QBCQ,NYCEEC,Q,Haup UPK Program,,718-527-3776,197 - 25 Hillside Ave,11423,1,36,1049352,201227,mjcharles2@gmail.com,,5,9,3,29QCBQ,40.718438,-73.765238,12,23,478,4591612.0,4104720003.0,Jamaica Estates-Holliswood                                                 
1276,QBCS,NYCEEC,Q,"Funday Daycare Center, Inc.",,718-460-8552,47 - 05 104th St,11368,1,17,1023224,210957,khanh6688@yahoo.com,,5,9,3,24QBCS,40.745622,-73.85951899999999,4,21,413,,,Corona                                                                     
1277,QBCT,NYCEEC,Q,Kiddie Academy Of Whitestone,,718-747-5555,7 - 05 152nd St,11357,1,50,1036786,229053,WHITESTONE@KIDDIEACADEMY.NET,,3,7,1,25QBCT,40.794793,-73.810428,7,19,987,,,Whitestone                                                                 
1279,QBDA,NYCEEC,Q,Highland Academics,,718-457-0429,162 - 10 Highland Ave,11432,1,100,1039492,197912,michelle.vitale@82ndst.com,http://82ndst.com,3,7,2,28QBDA,40.709891999999996,-73.80089100000001,8,24,448,4209097.0,4097730001.0,Briarwood-Jamaica Hills                                                    
1280,QBDB,NYCEEC,Q,"Queens Pointe Talent, Inc.",,917-913-1787,90 - 02 Queens Blvd,11373,1,110,1019540,206629,QPT.Preschool@gmail.com,http://queenspointepreschool.com,5,9,3,24QBDB,40.734145,-73.87267,4,25,475,4064869.0,4028570036.0,Elmhurst                                                                   
1281,QBDC,NYCEEC,Q,SCO Corona Early Childhood Education Center,,718-779-1660,33 - 27 97th St,11368,1,54,1020006,214786,chill@sco.org,,5,9,3,30QBDC,40.756741,-73.87128100000001,3,21,375,,,North Corona                                                               
1282,QBDD,NYCEEC,Q,Hellenic Orthodox Community Of Astoria St. Demetrios,,718-728-1754,30 - 11 30 Dr,11102,1,54,1005480,218188,sdastoriaschool@aol.com,http://saintdemetriosastoria.com,5,9,3,30QBDD,40.765553999999995,-73.92341400000001,1,22,63,,,Astoria                                                                    
1283,QBDI,NYCEEC,Q,"Bethel Mission Station Church, Inc.",<p><strong>Alert</strong>: Program may have income or other eligibility requirements. Contact for more information.</p>,718-474-8618,72 - 05 Bch Channel Dr,11692,1,11,1039753,154669,,,5,9,3,27QBDI,40.591317,-73.800607,14,31,954,,,Hammels-Arverne-Edgemere                                                   
1284,QBDO,NYCEEC,Q,Bnos Bais Yaakov Of Far Rockaway,,718-337-6000,613 Bch 9 St,11691,3,60,1054853,158335,lposen@bbyschool.org,,5,9,3,27QBDO,40.601396,-73.745299,14,31,101001,4000000.0,4155840016.0,Far Rockaway-Bayswater                                                     
1285,QBEC,NYCEEC,Q,Emilia's Kids,,718-899-9060,8403 57 Ave,11373,2,50,1017677,205408,yomi@emiliaskids.com,http://emiliaskids.com,7,2,1,24QBEC,40.730292999999996,-73.879313,4,25,499,4065811.0,4028940047.0,Elmhurst                                                                   
1286,QBEF,NYCEEC,Q,"Learning Tree, The",,718-899-2020,7415 Juniper Blvd North Room 2,11379,1,36,1016300,202133,learningtreeny1@aol.com,http://thelearningtree.org,8,7,1,24QBEF,40.721238,-73.884513,5,30,66501,4067020.0,4029300012.0,Middle Village                                                             
1287,QBEG,NYCEEC,Q,Magic Years Preschool And Nursery,,718-271-1850,"90 - 20 55th Ave, 1 / F",11373,1,54,1019684,207726,mypreschoolnursery@gmail.com,,3,6,1,24QBEG,40.73683,-73.872636,4,25,457,4045987.0,4018570084.0,Elmhurst                                                                   
1288,QBEH,NYCEEC,Q,Mi Nuevo Mundo Corp.,,718-476-3128,10003 39th Ave,11368,1,36,1021497,212583,mnm104100@gmail.com,,3,3,2,24QBEH,40.749972,-73.86549000000001,3,21,407,4536914.0,4017667501.0,North Corona                                                               
1289,QBEJ,NYCEEC,Q,Queens Herald Community Corp.,,646-535-7245,"42 - 35 Main St, 2nd Floor",11355,1,32,1032025,214252,info@qhcommunity.org,http://qhcommunity.org,3,2,1,25QBEJ,40.755178,-73.828183,7,20,853,4115775.0,4051350001.0,Flushing                                                                   
1290,QBEK,NYCEEC,Q,YMCA Of Greater NY - Ridgewood Y,,212-912-2185,6902 64th St,11385,1,36,1013635,195824,mstraka@YMCAnyc.org,,8,2,1,24QBEK,40.704097999999995,-73.893798,5,30,581,4088138.0,4036310006.0,Ridgewood                                                                  
1291,QBEO,NYCEEC,Q,ABC ELC,,718-225-8044,54 - 25 Little Nck Pkwy,11362,1,64,1060350,218772,zepurv@aol.com,,3,7,1,26QBEO,40.766553,-73.726292,11,19,150702,,,Douglas Manor-Douglaston-Little Neck                                       
1292,QBEQ,NYCEEC,Q,Appletree DCC,,718-264-1588,7320 Bell Blvd,11364,1,38,1051240,208998,Lichen.appletree@gmail.com,,5,2,1,26QBEQ,40.740318,-73.758059,11,23,129103,4439704.0,4077320050.0,Oakland Gardens                                                            
1293,QBGC,NYCEEC,Q,Sunflower Kidz Day Care,,347-709-7793,10017 32nd Ave,11369,1,32,1020769,215986,sunflowerkidz@gmail.com,http://sunflowerkidz.com,3,7,1,30QBGC,40.759221999999994,-73.868551,3,21,363,4041703.0,4016860034.0,East Elmhurst                                                              
1294,QBMC,NYCEEC,Q,"Beth Gavriel DCC, Inc.",,917-416-4416,119 - 03 80th Rd,11415,1,18,1030667,198880,legoldenkey@gmail.com,,5,9,3,28QBMC,40.712407,-73.832236,9,29,773,,,Kew Gardens                                                                
1295,QBGD,NYCEEC,Q,Afro - American #4,<p><strong>Alert</strong>: Program may have income or other eligibility requirements. Contact for more information.</p>,347-676-5077,10817 159th St,11433,4,18,1041495,192554,aapedcc3@aol.com,,3,2,1,28QBGD,40.695014,-73.793773,12,28,254,4457481.0,4101480001.0,South Jamaica                                                              
1296,QBGH,NYCEEC,Q,Renanim Day Care,,718-206-4400,14129 84th Dr,11435,1,33,1035290,198279,Renanimbriarwood@gmail.com,http://renanimpreschool.com,2,7,1,28QBGH,40.710436,-73.815898,8,24,22002,4539450.0,4097130150.0,Briarwood-Jamaica Hills                                                    
1297,QBGI,NYCEEC,Q,Tiny Footsteps,,718-969-5500,167 - 01 Un Tpke,11366,1,37,1039421,202706,tinyfootstepsny@yahoo.com,http://tinyfootstepsny.com,3,7,1,25QBGI,40.722683,-73.800921,8,24,1265,,,Pomonok-Flushing Heights-Hillcrest                                         
1298,QBGJ,NYCEEC,Q,Committee For Early Childhood Development DCC,<p><strong>Alert</strong>: Program may have income or other eligibility requirements. Contact for more information.</p>,718-264-6572,193 - 25 Jamaica Ave,11423,1,60,1049009,199312,mbafunso@msn.com,http://cecdhs.org,3,7,1,29QBGJ,40.713107,-73.767309,12,27,500,,,Hollis                                                                     
1299,QBGL,NYCEEC,Q,"Star Paradise, Inc.",,718-255-1899,8655 Broadway 2nd Floor,11373,1,40,1018284,207840,nikki.starparadise@gmail.com,,2,7,1,24QBGL,40.737411,-73.877286,4,25,473,4045397.0,4018427502.0,Elmhurst                                                                   
1300,QBGM,NYCEEC,Q,Yeshiva Darchei Torah,,718-868-2300,257 Bch 17 St,11691,4,60,1053266,156934,Pmayer@darchei.org,,7,3,1,27QBGM,40.596751,-73.751147,14,31,101001,4454258.0,4156340094.0,Far Rockaway-Bayswater                                                     
1301,QBGO,NYCEEC,Q,Sunnyside Community Services,,718-684-6173,43 - 31 39th St Sunnyside,11104,1,36,1004833,210719,gmark@scsny.org,http://scsny.org,2,6,2,30QBGO,40.745506,-73.925844,2,26,179,4311533.0,4001910020.0,Hunters Point-Sunnyside-West Maspeth                                       
1302,QBGP,NYCEEC,Q,Moving Up Children Center,,718-271-5637,4069 94 St,11373,1,90,1019778,211459,director@happydragonschool.com,http://happydragonschool.com,7,6,1,24QBGP,40.747060999999995,-73.871967,4,21,465,4039599.0,4015870001.0,Elmhurst                                                                   
1303,QBGR,NYCEEC,Q,Mi Nuevo Mundo,,718-476-3128,5102 31st Ave,11377,1,36,1009845,215010,mnmchildren@gmail.com,,3,2,2,30QBGR,40.756988,-73.907758,1,26,295,4025175.0,4011310022.0,Woodside                                                                   
1304,QBGS,NYCEEC,Q,Ivy League Early Learning Academy,,718-352-8972,6158 Springfield Blvd,11364,1,54,1051811,211680,bayside@ivyleagueearlylearning.com,http://ivyleagueearlylearning.com,3,7,1,26QBGS,40.748777000000004,-73.756556,11,23,1367,4162215.0,4076100040.0,Oakland Gardens                                                            
1305,QBGU,NYCEEC,Q,Positive Beginnings Preschool,,718-326-0055,72 - 52 Metropolitan Ave,11379,3,12,1017631,198864,,,5,9,3,24QBGU,40.712503999999996,-73.881639,5,30,65702,,,Middle Village                                                             
1306,QBGV,NYCEEC,Q,Apple Tree DCC ( 197th St. ),,718-217-6666,7312 197 St,11366,1,12,1046551,207200,Lichen.appletree@gmail.com,,2,7,2,26QBGV,40.735261,-73.775,8,23,1333,4154430.0,4071840011.0,Fresh Meadows-Utopia                                                       
1307,QBGW,NYCEEC,Q,Catholic Charities At Ravenswood ( Andrew Landi ),,718-806-1598,2120 35th Ave,11106,1,25,1002318,216340,asottile@ccbq.org,http://ccbq.org,3,3,2,30QBGW,40.761162,-73.93499200000001,1,26,47,4430708.0,4003350002.0,Astoria                                                                    
1308,QBHB,NYCEEC,Q,Rainbow Child Dev Center II,,718-969-1900,77 - 40 164 St,11366,1,54,1038310,202825,info@rainbowchildlearning.com,http://rainbowchildlearning.com,3,7,1,25QBHB,40.724169,-73.804802,8,24,1257,,,Kew Gardens Hills                                                          
1309,QBHK,NYCEEC,Q,Rising Stars Islamic School ( Lcna ),,646-243-5895,166 - 26 89 Ave,11432,1,18,1041264,197375,fauziakhondker@gmail.com,,3,1,2,28QBHK,40.708128,-73.795197,12,27,460,4209635.0,4097980006.0,Jamaica                                                                    
1310,QBHL,NYCEEC,Q,My Little Footprints Daycare Corp.,,718-626-2201,28 - 34 38th St,11103,1,26,1007683,218021,mylittlefootprintsdaycareinc@gmail.com,,3,8,2,30QBHL,40.765611,-73.914688,1,22,6502,4010751.0,4006620019.0,Astoria                                                                    
1311,QBHM,NYCEEC,Q,Immanuel Genius,,718-877-3001,253 - 01 Northern Blvd,11362,1,36,1057467,220236,immanuellittleneck@gmail.com,http://immanuelgenius.com,3,6,1,26QBHM,40.770779,-73.735391,11,19,150702,,,Douglas Manor-Douglaston-Little Neck                                       
1312,QBHN,NYCEEC,Q,Leading Kids Preschool,,718-229-6400,44 - 07 Little Nck Pkwy,11363,1,17,1057371,220244,leadingkidspreschool@gmail.com,http://leadingkidspreschool.com,3,8,1,26QBHN,40.770699,-73.736312,11,19,1479,,,Douglas Manor-Douglaston-Little Neck                                       
1313,QBHO,NYCEEC,Q,Holy Mountain,,718-359-6080,29 - 49 137th St,11354,1,18,1031005,219884,holymountainpreland@gmail.com,http://holymountain.weebly.com,2,1,1,25QBHO,40.771344,-73.831525,7,20,88901,,,Flushing                                                                   
1314,QBHP,NYCEEC,Q,Happy Maryann Day School,,718-886-8266,132 - 18 41st Ave,11355,1,51,1030492,214882,happymaryanndayschool@gmail.com,http://happymaryann.com,3,3,1,25QBHP,40.756607,-73.833053,7,20,871,,,Flushing                                                                   
1315,QBHQ,NYCEEC,Q,Ohr Osher And Yaffa 75,,347-233-2087,75 - 21 Main St,11367,1,36,1034184,202942,ohrosherandyaffa@gmail.com,,3,4,1,25QBHQ,40.723862,-73.82032,8,24,77902,,,Kew Gardens Hills                                                          
1316,QBHR,NYCEEC,Q,Kathy's Day Care,,347-761-8678,34 - 47 88th St,11372,1,10,1017773,213636,lisettelucia@yahoo.com,,3,7,2,30QBHR,40.75411,-73.879429,3,25,279,4035615.0,4014480001.0,Jackson Heights                                                            
1317,QBHS,NYCEEC,Q,Bright Kids Day Care,,718-262-0909,108 - 42 Sutphin Blvd,11435,1,20,1040117,191442,shafique.hasan75@gmail.com,http://brightkidsdaycare.info,2,6,2,28QBHS,40.692952000000005,-73.799347,12,28,198,4452281.0,4119460119.0,South Jamaica                                                              
1318,QBHV,NYCEEC,Q,Queens Library UPK - Woodhaven,,718-849-1069,85 - 41 Frst Pkwy,11421,1,18,1022670,192347,shinkle@queenslibrary.org,http://queenslibrary.org,7,7,2,27QBHV,40.695396,-73.862153,9,30,12,4181494.0,4088510327.0,Woodhaven                                                                  
1319,QBHW,NYCEEC,Q,Ravenswood,,718-990-0882,35 - 32 21st St,11106,1,36,1001882,216441,denise.clark@queenslibrary.org,http://queenslibrary.org,5,9,3,30QBHW,40.761309999999995,-73.935418,1,26,47,,,Astoria                                                                    
1320,QBHX,NYCEEC,Q,Adventureland Child Care,,718-777-2011,32 - 04 31st Ave ( 2nd Fl ),11106,1,18,1005677,217499,Nycdaycare24@aol.com,,3,3,1,30QBHX,40.77807,-73.749238,11,19,1483,4168187.0,4080360014.0,Douglas Manor-Douglaston-Little Neck                                       
1321,QBHY,NYCEEC,Q,Aim High Leadership Academy,,917-288-8290,131 - 44 134th St,11420,1,12,1038359,183174,aimhighleadershipacademy@gmail.com,,3,4,1,27QBHY,40.670260999999996,-73.804538,10,28,814,4255797.0,4117780082.0,South Ozone Park                                                           
1322,QBME,NYCEEC,Q,Happily Ever After,,347-529-6718,62 - 02 Myrtle Ave,11385,1,36,1013879,194589,krystalkanhai@gmail.com,,5,9,3,24QBME,40.700894,-73.893211,5,30,577,,,Glendale                                                                   
1323,QBIB,NYCEEC,Q,Learning Ladder Center,,718-480-6444,125 - 19 101 Ave,11419,1,20,1034094,191358,LearningLadderCtr@gmail.com,http://learningladdercenter.com,5,6,2,28QBIB,40.691439,-73.82079300000001,9,28,154,4199973.0,4094680030.0,Richmond Hill                                                              
1324,QBIC,NYCEEC,Q,Cambria Heights Christian Academy,,718-712-7034,220 - 12 Linden Blvd,11411,1,33,1056446,192525,cambriaacademy@aol.com,http://cambriaheightschristianacademy.com,3,7,1,29QBIC,40.695105,-73.740004,13,27,596,4244354.0,4113210006.0,Cambria Heights                                                            
1325,QBIE,NYCEEC,Q,Cpc Corona Queens UPK,,718-358-7602,47 - 05 104th St,11368,1,18,1023229,210958,llee@cpc-nyc.org,http://cpc-nyc.org,3,2,2,24QBIE,40.745622,-73.85951899999999,4,21,413,,,Corona                                                                     
1326,QBIG,NYCEEC,Q,Kiddie Academy Of Flushing,,718-888-9499,33 - 25 Parsons Blvd,11354,1,88,1033092,218920,Flushing@kiddieacademy.net,http://kiddieacademy.com,2,3,1,25QBIG,40.767957,-73.824179,7,20,1161,4112561.0,4049810040.0,Flushing                                                                   
1327,QBIH,NYCEEC,Q,Mi Nuevo Mundo,,718-476-3128,100 - 09 39 Ave,11368,1,36,1021542,212600,mnm104100@gmail.com,,3,3,2,24QBIH,40.749952,-73.865494,3,21,407,,,North Corona                                                               
1328,QBII,NYCEEC,Q,Academy Of Excellence Bell Park 7,,718-523-4400,178 - 36 Wexford Ter,11432,1,94,1044044,199244,ChildCareNYC@aol.com,http://aoeschool.com,2,3,1,29QBII,40.713316999999996,-73.785258,8,24,466,4445286.0,4099380078.0,Jamaica Estates-Holliswood                                                 
1329,QBIS,NYCEEC,Q,Baby Steps Daycare Center II,,718-451-6094,112 - 18 76 Rd,11375,1,18,1030247,200767,babystepsfh@gmail.com,http://nybabysteps.com,5,9,3,28QBIS,40.717354,-73.834648,6,29,75701,4052736.0,4022640042.0,Forest Hills                                                               
1330,QBIX,NYCEEC,Q,"Sunshine Learning Center, Inc.",,718-525-2154,201 02 - 04 Linden Blvd,11412,1,36,1053182,192390,sunshinelcenter@aol.com,,7,3,1,29QBIX,40.694607,-73.751636,12,27,384,,,St. Albans                                                                 
1331,QBIY,NYCEEC,Q,Kidz World ECC,,718-276-7649,217 - 21 Merrick Blvd,11413,1,48,1053231,187082,sandychildren@msn.com,http://kidzworldearlychildhoodcenter.com,3,2,1,29QBIY,40.679943,-73.752145,13,31,358,4567908.0,4130110034.0,Laurelton                                                                  
1332,QBIZ,NYCEEC,Q,Preschool R Us II,,718-888-9878,59 - 25 Kissena Blvd,11354,1,55,1035574,208916,preschoolrusii88@gmail.com,,3,3,1,25QBIZ,40.740542,-73.81505,7,20,837,4141486.0,4064400016.0,Queensboro Hill                                                            
1333,QBJC,NYCEEC,Q,Maroos Preschool,,646-358-9577,4502 82nd St,11373,1,20,1016638,209435,maroosinc@hotmail.com,,2,5,1,24QBJC,40.741518,-73.882937,4,25,481,4038373.0,4015330054.0,Elmhurst                                                                   
1334,QBJE,NYCEEC,Q,Morning Star Preschool,,718-229-0206,47 - 24 Bell Blvd,11361,1,32,1048621,214862,311.morningstar@gmail.com,,7,6,1,26QBJE,40.756699,-73.767597,11,19,1447,4157332.0,4073300023.0,Bayside-Bayside Hills                                                      
1335,QBJH,NYCEEC,Q,Bethel Mission Station Church Loving DCC,<p><strong>Alert</strong>: Program may have income or other eligibility requirements. Contact for more information.</p>,718-474-8618,338 Bch 56 St,11692,1,18,1043790,155611,dolores_paual@yahoo.com,,3,3,2,27QBJH,40.593503000000005,-73.786115,14,31,97204,4436422.0,4158920001.0,Hammels-Arverne-Edgemere                                                   
1336,QBJJ,NYCEEC,Q,North Side School,,718-229-5050,85 - 27 91st St,11421,1,75,1024660,192800,NORTHSIDE123@GMAIL.COM,,3,3,1,27QBJJ,40.696449,-73.854614,9,32,14,4182320.0,4088770019.0,Woodhaven                                                                  
1337,QBJN,NYCEEC,Q,Al - Mamoor School,,718-739-0902,78 - 31 Parsons Blvd,11366,1,28,1037125,202173,almamoor@gmail.com,http://al-mamoor.org,2,3,1,25QBJN,40.722201,-73.80979,8,24,1257,4147910.0,4068290001.0,Kew Gardens Hills                                                          
1338,QBJO,NYCEEC,Q,Al Madinah School,,718-222-4986,1824 Astoria Blvd,11102,1,20,1004603,220607,almadinahinfo@gmail.com,http://almadinah-school.com,2,2,1,30QBJO,40.772251000000004,-73.927183,1,22,83,4006091.0,4005390030.0,Old Astoria                                                                
1339,QBJP,NYCEEC,Q,Magic Beans,,718-786-8091,43 - 12 46th St,11104,1,20,1006791,210523,magicbeanslc@gmail.com,,3,8,1,30QBJP,40.744665999999995,-73.918385,2,26,25301,4001318.0,4001410024.0,Hunters Point-Sunnyside-West Maspeth                                       
1340,QBJQ,NYCEEC,Q,Garden School,,718-335-6363,78 - 02 Northern Blvd,11372,1,138,1015094,214364,info@gardenschool.org,http://gardenschool.org,7,6,1,30QBJQ,40.755176,-73.888948,3,25,287,,,Jackson Heights                                                            
1341,QBJR,NYCEEC,Q,Grace Daycare Center,,718-803-0345,89 - 00 23rd Ave,11369,3,36,1017472,218835,gracepreschool1004@gmail.com,,8,3,2,30QBJR,40.76764,-73.88080500000001,3,22,329,4023535.0,4010840001.0,Jackson Heights                                                            
1342,QBJV,NYCEEC,Q,Khwoa Bhoa Day School,,718-353-3628,132 - 25 Pople Ave,11355,1,30,1030833,213831,khwoabhaodayschool@yahoo.com,,5,9,3,25QBJV,40.75315,-73.83219100000001,7,20,79702,4115117.0,4051040007.0,Flushing                                                                   
1343,QBJX,NYCEEC,Q,Divine Wisdom Catholic Academy,,718-631-3153,56 - 10 214th St,11364,2,94,1049349,212625,dwisdom@dwcaonline.org,http://dwcaonline.org,2,3,1,26QBJX,40.750334,-73.764761,11,23,1399,,,Bayside-Bayside Hills                                                      
1344,QBKE,NYCEEC,Q,Sholom Sholom Inc.,,718-850-2934,84 - 15 Beverly Rd,11415,1,72,1031241,197128,shalomdaycare@aol.com,http://kewgardenspreschool.com,3,7,1,28QBKE,40.707643,-73.831101,9,29,136,4079573.0,4033330001.0,Kew Gardens                                                                
1345,QBLD,NYCEEC,Q,ABC Kiddieland DCC,,718-651-3551,67 - 05 Roosevelt Ave,11377,1,20,1012555,211207,abckiddieland@verizon.net,,5,9,3,30QBLD,40.746151,-73.897975,2,26,263,,,Woodside                                                                   
1346,QBLF,NYCEEC,Q,Discovery Lane DCC,,347-652-7739,27 - 17 27 St,11102,1,29,1005526,219560,acecoloma03@yahoo.com,http://discoverylanelearninganddaycarecenter.com,5,9,3,30QBLF,40.769605,-73.923135,1,22,71,,,Old Astoria                                                                
1347,QBLI,NYCEEC,Q,I Bear Daycare Center,,718-939-3870,33 - 15 154th St,11354,1,18,1036812,219159,solee785@yahoo.com,,5,9,3,25QBLJ,40.768174,-73.810514,7,19,1151,4118405.0,4052390035.0,Murray Hill                                                                
1348,QBLK,NYCEEC,Q,Kids Advocate DCC Inc.,,914-426-7423,61 - 54 162 St,11365,1,18,1037758,207852,basilio_lopez77@yahoo.com,,5,9,3,25QBLK,40.737992,-73.806609,8,24,122701,,,Pomonok-Flushing Heights-Hillcrest                                         
1349,QBLM,NYCEEC,Q,Keren Ohr Daycare,,917-667-0795,170 - 16 73rd Ave,11366,1,54,1039981,204761,kerenohrschool@gmail.com,,5,9,3,26QBLM,40.728625,-73.79942,8,24,1241,4150453.0,4069580009.0,Pomonok-Flushing Heights-Hillcrest                                         
1350,QBLR,NYCEEC,Q,Play And Learn DCC,,646-872-9241,66 - 06 70th St,11379,1,20,1016058,199581,sbeata@aol.com,http://playlearncenter.com,5,9,3,24QBLR,40.714572,-73.88507299999999,5,30,659,,,Middle Village                                                             
1351,QBLV,NYCEEC,Q,Rainbow - Little Neck,,718-321-1610,250 - 21 Northern Blvd,11362,1,36,1057036,219559,info@rainbowchildlearning.com,http://rainbowchildlearning.com,5,9,3,26QBLV,40.768462,-73.737454,11,19,150702,4170863.0,4082260016.0,Douglas Manor-Douglaston-Little Neck                                       
1352,QBLY,NYCEEC,Q,Ivy Day School,,718-880-1888,70 - 44 Kissena Blvd,11367,1,36,1035444,205550,cherylcai@yahoo.com,,5,9,3,25QBLY,40.731922999999995,-73.814936,8,24,77906,,,Kew Gardens Hills                                                          
1353,QBMF,NYCEEC,Q,The Little Learning Center,,347-732-4307,147 - 32 Sanford Ave,11355,1,16,1035224,216150,tllc2009@gmail.com,,5,9,3,25QBMF,40.759882,-73.81693100000001,7,20,1163,,,Murray Hill                                                                
1354,QBMJ,NYCEEC,Q,Allen Christian School,,718-657-2500,114 - 32 Merrick Blvd,11434,1,36,1045591,191007,lmorant@allenchristianschool.org,,5,9,3,28QBMJ,40.691371999999994,-73.778975,12,27,432,4268543.0,4123930001.0,St. Albans                                                                 
1355,QBMK,NYCEEC,Q,Ivy Day School,,718-880-1888,104 - 70 Queens Blvd,11375,1,34,1026265,202723,info@ivydayschool.com,http://ivydayschool.com,5,9,3,28QBMK,40.723794,-73.84897600000001,6,29,71303,,,Forest Hills                                                               
1356,QBML,NYCEEC,Q,Al - Ihsan Academy,,718-322-3154,134 - 02 Rockaway Blvd,11420,1,20,1038512,185045,rafeek_ies@yahoo.com,http://ihsanacademy.org,5,9,3,27QBML,40.674620000000004,-73.804475,10,28,814,,,South Ozone Park                                                           
1357,QBMP,NYCEEC,Q,Sunnyside Friends,,718-786-4644,41 - 32 44 St,11104,1,38,1006353,211014,littlefriendssunnyside@gmail.com,,5,9,3,30QBMP,40.746531,-73.91991,2,26,183,,,Hunters Point-Sunnyside-West Maspeth                                       
1358,QBMQ,NYCEEC,Q,Eunyoung Chang Corp.,,212-960-3613,40 - 27 172 St,11358,1,12,1041320,216210,eychang2002@yahoo.com,,5,9,3,25QBMQ,40.760571,-73.794256,7,19,1175,4438203.0,4053510013.0,Murray Hill                                                                
1359,QBMZ,NYCEEC,Q,The Learning Experience,,917-634-6755,215 - 15 Northern Blvd,11361,1,54,1048779,216598,tieshell@hotmail.com,,5,9,3,26QBMZ,40.760521999999995,-73.767385,11,19,1471,4138468.0,4063080029.0,Bayside-Bayside Hills                                                      
1360,QBNF,NYCEEC,Q,Al - Ihsan Academy 3,,718-322-3154,130 - 20 Rockaway Blvd,11420,1,28,1037579,185149,rafeek_ies@yahoo.com,,5,9,3,27QBNF,40.674972,-73.808356,10,28,818,4254933.0,4117540055.0,South Ozone Park                                                           
1361,QBNI,NYCEEC,Q,D'little Star Day Care,,352-812-6661,111 - 08 Sutphin Blvd,11435,1,29,1040917,190154,Asad4222@gmail.com,,5,9,3,28QBNI,40.68857,-73.795563,12,28,190,,,Baisley Park                                                               
1362,QBNJ,NYCEEC,Q,Fairytale Daycare Pre School Center,,718-275-0204,99 - 13 63rd,11374,1,33,1024024,206281,Fairytaledaycareny@gmail.com,,5,9,3,28QBNJ,40.732566999999996,-73.8567,6,29,719,4050630.0,4021100005.0,Forest Hills                                                               
1363,QBNM,NYCEEC,Q,Talented Little Children III,,718-658-4384,104 - 18 134th St,11419,3,12,1036203,190994,sawebb48@aol.com,,5,9,3,28QBNM,40.691107,-73.81259,10,28,15801,,,South Ozone Park                                                           
1364,QBNN,NYCEEC,Q,New Milestone,,718-380-1978,27 - 18 Hoyt Ave South,11102,1,40,1006450,220310,new.milestone@yahoo.com,,5,9,3,30QBNN,40.771931,-73.919901,1,22,69,4540506.0,4008397503.0,Old Astoria                                                                
1832,Z016,DOE,Q,Pre - K Center At 46 - 16 76th Street,,212-637-8000,46 - 16 76th St,11373,1,108,1015126,208814,pre-k@schools.nyc.gov,,5,9,3,24Z016,40.740159000000006,-73.888234,4,25,485,4038316.0,4015310007.0,Elmhurst-Maspeth                                                           
1833,Z017,DOE,Q,Pre - K Center At 168 - 42 Jamaica Avenue,,212-637-8000,168 - 42 Jamaica Ave,11432,1,126,1042225,196805,pre-k@schools.nyc.gov,,5,9,3,29Z017,40.70643,-73.79227,12,27,444,4217372.0,4102090002.0,Jamaica                                                                    
1834,Z018,DOE,Q,Pre - K Center At 89 - 14 Parsons Blvd,,718-557-8760,89 - 14 Parsons Blvd,11432,1,72,1039192,196355,DDuff@schools.nyc.gov,,5,9,3,28Z018,40.705628000000004,-73.801563,12,24,44601,4208859.0,4097580006.0,Jamaica                                                                    
1835,Z019,DOE,Q,Pre - K Center At 132 - 10 Jamaica Avenue,,212-637-8000,132 - 10 Jamaica Ave,11418,1,90,1034164,195085,pre-k@schools.nyc.gov,,5,9,3,28Z019,40.70217,-73.82021999999999,9,29,14202,,,Richmond Hill                                                              
1836,Z020,DOE,Q,Pre - K Center At 100 - 01 Springfield Boulevard,,212-637-8000,100 - 01 Springfield Blvd,11429,1,162,1057653,199787,pre-k@schools.nyc.gov,,5,9,3,29Z020,40.714844,-73.735624,13,27,568,,,Queens Village                                                             
1837,Z021,DOE,Q,Pre - K Center At 96 - 10 23rd Avenue,,212-637-8000,96 - 10 23rd Ave,11369,1,108,1019209,219164,pre-k@schools.nyc.gov,,5,9,3,30Z021,40.76833,-73.874424,3,21,357,4430195.0,4010730046.0,East Elmhurst                                                              
1838,Z022,DOE,Q,Pre - K Center At 44 - 15 Judge Street,,212-637-8000,44 - 15 Judge St,11373,1,144,1018342,209976,pre-k@schools.nyc.gov,,5,9,3,24Z022,40.743005,-73.87754,4,25,467,4440200.0,4015710019.0,Elmhurst                                                                   
1839,Z023,DOE,Q,Pre - K Center At 68 - 20 Myrtle Avenue,,212-637-8000,68 - 20 Myrtle Ave,11385,1,180,1016453,194886,pre-k@schools.nyc.gov,,5,9,3,24Z023,40.701648999999996,-73.884309,5,30,629,4090311.0,4037020025.0,Glendale                                                                   
1840,Z024,DOE,Q,Pre - K Center At 83 - 30 Kew Gardens Road,,212-637-8000,83 - 30 Kew Gdns Rd,11415,1,72,1032134,197821,pre-k@schools.nyc.gov,,5,9,3,28Z024,40.710865999999996,-73.827995,9,29,216,,,Kew Gardens                                                                
1857,Z046,DOE,Q,Pre - K Center At P.S. 087 Middle Village,,212-637-8000,67 - 54 80 St,11379,1,36,1019851,198603,pre-k@schools.nyc.gov,,5,9,3,24Z046,40.713111,-73.871589,5,30,65501,,,Middle Village                                                             
1858,Z047,DOE,Q,Pre - K Center At 360 Seneca Avenue,,212-637-8000,360 Seneca Ave,11385,1,162,1007637,196957,pre-k@schools.nyc.gov,,5,9,3,24Z047,40.707316,-73.915329,5,34,539,4597303.0,4034250007.0,Ridgewood                                                                  
1859,Z051,DOE,Q,Pre - K Center At P.S. 040 Samuel Huntington,,212-637-8000,109 - 20 Un Hall St,11433,1,36,1042285,192115,pre-k@schools.nyc.gov,,5,9,3,28Z051,40.694331,-73.790825,12,28,260,4263341.0,4121510001.0,South Jamaica                                                              
1860,Z055,DOE,Q,Pre - K Center At P.S. 017 Henry David Thoreau,,212-637-8000,28 - 37 29 St,11102,1,36,1005664,219240,pre-k@schools.nyc.gov,,5,9,3,30Z055,40.769018,-73.922395,1,22,71,4537623.0,4005940029.0,Old Astoria                                                                
1861,Z056,DOE,Q,Pre - K Center At P.S. 070 Queens,,212-637-8000,30 - 45 42 St,11103,1,90,1008066,216884,pre-k@schools.nyc.gov,,5,9,3,30Z056,40.762789,-73.913692,1,22,149,,,Astoria                                                                    
1862,Z058,DOE,Q,Pre - K Center At 46 - 08 5th Street,,212-637-8000,46 - 08 5th St,11101,1,36,996612,211498,pre-k@schools.nyc.gov,,5,9,3,30Z058,40.747231,-73.955089,2,26,1,4000000.0,4000210001.0,Hunters Point-Sunnyside-West Maspeth                                       
1863,Z059,DOE,Q,Pre - K Center At P.S. 329 East Elmhurst Community School,,212-637-8000,26 - 25 97th St,11369,1,36,1019717,216831,pre-k@schools.nyc.gov,,5,9,3,30Z059,40.76227,-73.872191,3,21,361,,,East Elmhurst                                                              
1870,Z070,NYCEEC,Q,Pre - K Center At 3252 37th Street,,929-424-4760,3252 37 St,11103,1,270,1005951,215719,MCerff@schools.nyc.gov,,5,9,3,30Z070,40.759308000000004,-73.920948,1,22,59,4436898.0,4006470016.0,Astoria                                                                    
1877,Z078,DOE,Q,Pre - K Center At P.S. 091 Richard Arkwright,,212-637-8000,68 - 10 Central Ave,11385,1,100,1016352,195636,pre-k@schools.nyc.gov,,5,9,3,24Z078,40.703626,-73.88533000000001,5,30,627,4088899.0,4036560038.0,Glendale                                                                   
1878,Z079,DOE,Q,Pre - K Center At P.S. 315,,212-637-8000,43 - 18 97th Pl,11101,1,500,1021281,210921,pre-k@schools.nyc.gov,,5,9,3,24Z079,40.746009,-73.866357,4,21,409,,,North Corona                                                               
1879,Z080,DOE,Q,Pre - K Center At 50 - 15 44th Street,,212-637-8000,50 - 15 44th St,11104,1,100,1005977,207767,pre-k@schools.nyc.gov,,5,9,3,24Z080,40.737351000000004,-73.921747,2,26,187,4437372.0,4022940026.0,Hunters Point-Sunnyside-West Maspeth                                       
1880,Z081,DOE,Q,Pre - K Center At P.S. 343 The Children's Lab School,,212-637-8000,45 - 45 42 St,11104,1,60,1005705,209529,pre-k@schools.nyc.gov,,5,9,3,24Z081,40.743102,-73.922519,2,26,18102,4002538.0,4001920030.0,Hunters Point-Sunnyside-West Maspeth                                       
1881,Z084,DOE,Q,Pre - K Center At P.S. 223 Lyndon B Johnson,,212-637-8000,125 - 20 Sutphin Blvd,11434,1,100,1042504,185076,pre-k@schools.nyc.gov,,5,9,3,27Z084,40.674873999999996,-73.789679,12,28,18401,,,Baisley Park                                                               
1882,Z085,DOE,Q,Pre - K Center At P.S. 076 William Hallet,,212-637-8000,36 - 36 10 St,11106,1,36,1000473,216462,pre-k@schools.nyc.gov,,5,9,3,30Z085,40.76117,-73.940923,1,26,85,,,Queensbridge-Ravenswood-Long Island City                                   
1884,Z088,NYCEEC,Q,Pre - K Center At 56 - 01 61st Street,,929-424-4620,56 - 01 61 St,11378,1,180,1010827,203395,BTekverk@schools.nyc.gov,,5,9,3,24Z088,40.72497,-73.90431,5,30,531,,,Maspeth                                                                    
