LOCCODE,PreK_Type,Borough,LocName,NOTE,phone,address,Postcode,Day_Length,Seats,X,Y,Email,MEALS,Website,INDOOR_OUTDOOR,EXTENDED_DAY,SEMS_CODE,Latitude,Longitude,Community Board,Council District ,Census Tract,BIN,BBL,NTA
K056,DOE,K,P.S. 056 Lewis H Latimer,,718-857-3149,170 Gates Ave,11238,1,18,995211,188782,dclarkj@schools.nyc.gov,3,http://schools.nyc.gov/schoolportals/13/k056,3,3,13K056,40.68505,-73.960659,2,35,231,3056874,3019830010,Clinton Hill                                                               
KBXS,NYCEEC,K,"Roger Day Care, Inc.",,718-703-4312,775 Rogers Ave,11226,1,26,997465,176822,raps775@gmail.com,3,,8,1,17KBXS,40.652016,-73.952602,17,40,820,3116809,3050880006,Prospect Lefferts Gardens-Wingate                                          
Z012,DOE,K,Pre - K Center At 1139 Coney Island Avenue,,718-724-1730,1139 Coney Is Ave,11230,1,144,993784,168763,CQuigley@schools.nyc.gov,5,,9,3,22Z012,40.630101,-73.966207,14,45,528,3421641,3066860052,Flatbush                                                                   
KCLH,NYCEEC,K,Neshama Preschool,,917-804-8284,723 Ave Z,11223,1,20,993304,153043,neshama1inc@gmail.com,5,,9,3,21KCLH,40.58655,-73.967352,13,47,37401,3195856,3072180077,Gravesend                                                                  
KBKC,NYCEEC,K,Friends Of Crown Heights 16,<p><strong>Alert</strong>: Program may have income or other eligibility requirements. Contact for more information.</p>,929-234-2870,668 Logan St,11208,1,50,1018892,183179,gdublin4@foch.biz,3,http://fochdaycare.org,4,1,19KBKC,40.669503,-73.874884,5,42,1118,3098472,3044570001,East New York                                                              
KBQI,NYCEEC,K,"Red Hat DCC, Inc.",,718-336-1480,1317 East 15th St,11230,3,29,995420,164264,daycareredhat@yahoo.com,2,http://redhatdaycare.com,7,1,21KBQI,40.617221,-73.959874,14,48,768,3180962,3067440082,Midwood                                                                    
K245,DOE,K,P.S. 245,,718-284-2330,249 East 17th St,11226,1,18,994541,174249,ewillia14@schools.nyc.gov,2,http://schools.nyc.gov/schoolportals/22/k245,3,3,22K245,40.645016,-73.963208,14,40,512,3117584,3051210032,Flatbush                                                                   
KBSC,NYCEEC,K,New Life CDC 3,<p><strong>Alert</strong>: Program may have income or other eligibility requirements. Contact for more information.</p>,718-417-4214,408 Grv St,11237,1,58,1008501,194797,newlifedc2@verizon.net,3,,7,1,32KBSC,40.701224,-73.912863,4,37,441,3397531,3033290016,Bushwick North                                                             
KBIS,NYCEEC,K,"Yeled V'Yalda ECC, Inc.",,718-514-8980,600 Mcdonald Ave,11218,3,45,989993,172288,Blemmer@yeled.org,5,http://yeled.org,9,3,20KBIS,40.639418,-73.978914,12,39,486,3125932,3053690006,Kensington-Ocean Parkway                                                   
K414,DOE,K,Brooklyn Arbor Elementary School,,718-963-0393,325 South 3 St,11211,1,36,996862,197921,parents@brooklynarbor.org,3,http://brooklynarbor.org,3,3,14K414,40.709647,-73.95465,1,34,527,3063188,3024230001,North Side-South Side                                                      
KBTB,NYCEEC,K,Brightside Academy - Barbey,<p><strong>Alert</strong>: Program may have income or other eligibility requirements. Contact for more information.</p>,718-257-2222,683 Barbey St,11207,1,28,1016019,181750,pswift@brightsideacademy.com,3,http://brightsideacademy.com,7,1,19KBTB,40.665592,-73.885673,5,42,1124,3398467,3040917501,East New York                                                              
KBFN,NYCEEC,K,Strong Place For Hope DCC - 2nd Street,<p><strong>Alert</strong>: Program may have income or other eligibility requirements. Contact for more information.</p>,718-499-0747,333 2nd St,11215,1,27,988821,184821,strongplaceforhope2@hotmail.com,3,http://strongplaceforhopedaycare.com,6,1,15KBFN,40.673788,-73.983568,6,39,135,3346912,3009690052,Park Slope-Gowanus                                                         
KBMZ,NYCEEC,K,Warren Street Center,<p><strong>Alert</strong>: Program may have income or other eligibility requirements. Contact for more information.</p>,718-237-9578,343 Warren St,11201,1,26,986956,188923,nsingh@lmcmc.com,3,http://lutheranhealthcare.org/main/warrenstreetcenterforchildrenandfamilies.aspx,4,1,15KBMZ,40.685037,-73.990254,2,33,69,3006144,3003910056,DUMBO-Vinegar Hill-Downtown Brooklyn-Boerum Hill                           
KBTA,NYCEEC,K,Bedford Stuyvesant ECDC 133,,718-453-0828,133 Kings First Walk,11233,3,15,1004502,185396,rattanik@bsecdc.org,3,,7,1,16KBTA,40.675367,-73.927198,8,41,307,3324601,3013440001,Crown Heights North                                                        
K120,DOE,K,P.S. 120 Carlos Tapia,,718-455-1000,18 Beaver St,11206,1,90,1001511,194534,lcaraba@schools.nyc.gov,3,http://schools.nyc.gov/schoolportals/14/k120,3,1,14K120,40.700911,-73.938884,4,34,389,3071806,3031370026,Bushwick South                                                             
K273,DOE,K,P.S. 273 Wortman,,718-649-5739,923 Jerome St,11207,1,36,1017806,179114,mavery@schools.nyc.gov,2,http://schools.nyc.gov/schoolportals/19/k273,3,3,19K273,40.657922,-73.879354,5,42,1078,3097973,3044010001,East New York                                                              
K282,DOE,K,P.S. 282 Park Slope,,718-622-1626,180 6 Ave,11217,1,90,990423,185765,RHoke2@schools.nyc.gov,2,http://schools.nyc.gov/schoolportals/13/k282,7,3,13K282,40.67634,-73.977367,6,39,131,3019597,3009500024,Park Slope-Gowanus                                                         
KBOF,NYCEEC,K,Friends Of Crown Heights 2,<p><strong>Alert</strong>: Program may have income or other eligibility requirements. Contact for more information.</p>,718-638-8686,671 Prospect Pl,11216,1,47,996962,185166,davis@fochdaycare.org,7,http://fochdaycare.org,3,2,17KBOF,40.674695,-73.954594,8,35,221,3030896,3012240045,Crown Heights North                                                        
KBFD,NYCEEC,K,St. Marks,<p><strong>Alert</strong>: Program may have income or other eligibility requirements. Contact for more information.</p>,718-287-7300,2017 Beverley Rd,11226,1,114,995491,174312,adenis@stmarksheadstart.org,3,http://stmarksheadstart.org,3,2,22KBFD,40.644891,-73.959742,14,40,51001,3117629,3051240057,Flatbush                                                                   
KBVV,NYCEEC,K,"Brooklyn College Child Care Services, Inc.",,718-951-5431,2900 Bedford Ave,11210,3,20,997316,169422,mondesir@brooklyn.cuny.edu,3,http://brooklyn.cuny.edu/web/academics/schools/education/partnerships/ecc.php,7,1,22KBVV,40.631691,-73.952656,14,45,772,3347326,3075520100,Flatbush                                                                   
K377,DOE,K,P.S. 377 Alejandrina B De Gautier,,718-574-0325,200 Woodbine St,11221,1,36,1007847,192076,dzagami@schools.nyc.gov,2,http://schools.nyc.gov/schoolportals/32/k377,7,3,32K377,40.694018,-73.915263,4,37,415,3076784,3033600001,Bushwick South                                                             
K238,DOE,K,P.S. 238 Anne Sullivan,,718-339-4355,1633 East 8 St,11223,1,102,994024,161069,hmusoff@schools.nyc.gov,3,http://schools.nyc.gov/schoolportals/21/k238,3,3,21K238,40.608862,-73.965058,15,44,420,3176229,3066400013,Homecrest                                                                  
KBJF,NYCEEC,K,Cooper Park CCC,<p><strong>Alert</strong>: Program may have income or other eligibility requirements. Contact for more information.</p>,718-389-5959,292 Frost St,11222,1,14,1000976,201113,cooperpark@e-s-s.org,3,http://essnyc.org/ece,7,1,14KBJF,40.718895,-73.939633,1,34,449,3327829,3028670001,East Williamsburg                                                          
KCIY,NYCEEC,K,"Ronomoza, Inc. / The Learning Experience",,718-627-7340,412 Kings Hwy,11223,1,36,991295,159431,brooklyn@tlecorp.com,3,http://brooklyn.tlechildcare.com/,3,1,21KCIY,40.604473,-73.974795,11,44,412,3253634,3066787501,Bensonhurst East                                                           
K241,DOE,K,P.S. 241 Emma L Johnston,,718-636-4725,976 President St,11225,1,72,995237,183023,flucius@schools.nyc.gov,2,http://schools.nyc.gov/schoolportals/17/k241,7,3,17K241,40.669339,-73.960675,9,35,213,3378160,3011880001,Crown Heights South                                                        
K145,DOE,K,P.S. 145 Andrew Jackson,,718-821-4823,100 Noll St,11206,1,90,1003047,194870,LMalloy@schools.nyc.gov,2,http://schools.nyc.gov/schoolportals/32/k145,7,3,32K145,40.701692,-73.932338,4,34,425,3071915,3031530011,Bushwick South                                                             
K209,DOE,K,P.S. 209 Margaret Mead,,718-743-1954,2609 East 7 St,11235,1,36,994897,153044,flocurc@schools.nyc.gov,2,http://schools.nyc.gov/schoolportals/21/k209,3,3,21K209,40.586845,-73.96198,13,48,370,3196224,3072440001,Brighton Beach                                                             
KBVE,NYCEEC,K,Urban Strategies 3,<p><strong>Alert</strong>: Program may have income or other eligibility requirements. Contact for more information.</p>,718-348-9349,1152 Elton St,11239,1,40,1019142,178427,usheadstart1@aol.com,3,http://urbanstrategiesny.org,7,1,19KBVE,40.655121,-73.873052,5,42,1070,3398202,3044487501,East New York                                                              
KCJT,NYCEEC,K,Kaleidoscope Early Childhood Develepment Center,,917-652-4422,480 Stratford Rd,11218,1,43,993255,171230,ecdckaleidoscope@aol.com,2,http://ecdckaleidoscope.com,7,1,22KCJT,40.636662,-73.967364,14,40,526,3413863,3051747501,Flatbush                                                                   
K279,DOE,K,P.S. 279 Herman Schreiber,,718-444-4316,1070 East 104 St,11236,1,72,1014049,173991,trawleigh@schools.nyc.gov,2,http://schools.nyc.gov/schoolportals/18/k279,3,3,18K279,40.644203,-73.892264,18,46,986,3326733,3082300001,Canarsie                                                                   
KBWH,NYCEEC,K,Jonathan Williams,<p><strong>Alert</strong>: Program may have income or other eligibility requirements. Contact for more information.</p>,718-387-5011,321 Roebling St,11211,1,31,995245,197276,vscott@lifetech.com,3,http://lifetech.org,7,1,14KBWH,40.70832,-73.960981,1,33,525,3341975,3021400026,North Side-South Side                                                      
K312,DOE,K,P.S. 312 Bergen Beach,,718-763-4015,7103 Ave T,11234,1,54,1009549,165828,syoo2@schools.nyc.gov,2,http://schools.nyc.gov/schoolportals/22/k312,3,3,22K312,40.621413,-73.908987,18,46,69602,3236665,3083930001,Georgetown-Marine Park-Bergen Beach-Mill Basin                             
K244,DOE,K,P.S. 244 Richard R Green,,718-346-6240,5404 Tilden Ave,11203,1,36,1004881,175443,dedwards@schools.nyc.gov,2,http://schools.nyc.gov/schoolportals/18/k244,1,3,18K244,40.648423,-73.925948,17,45,946,3104513,3047390001,Rugby-Remsen Village                                                       
K146,DOE,K,P.S. 146,<P><Strong>Note:</strong> Students who qualify for Free and Reduced Lunch have priority after siblings.</p>,718-923-4750,610 Henry St,11231,1,36,983782,186982,amysumner@bns146.org,3,http://bns146.org,3,1,15K146,40.68007,-74.001377,6,39,63,3336036,3003690001,Carroll Gardens-Columbia Street-Red Hook                                   
K235,DOE,K,P.S. 235 Lenox School,,718-773-4869,525 Lenox Rd,11203,1,36,1000654,177895,llord@schools.nyc.gov,2,http://schools.nyc.gov/schoolportals/18/k235,3,3,18K235,40.654704,-73.941089,17,41,814,3107846,3048440001,East Flatbush-Farragut                                                     
K110,DOE,K,P.S. 110 The Monitor,,718-383-7600,124 Monitor St,11222,1,90,1000314,202930,tatson@schools.nyc.gov,2,http://ps110k.org,3,3,14K110,40.723897,-73.942312,1,33,591,3067144,3026880042,Greenpoint                                                                 
K137,DOE,K,P.S. / I.S. 137 Rachel Jean Mitchell,,718-453-2926,121 Saratoga Ave,11233,1,18,1007348,187847,zcooper@schools.nyc.gov,3,http://schools.nyc.gov/schoolportals/23/k137,3,3,23K137,40.682458,-73.917088,16,41,373,3040878,3015100001,Ocean Hill                                                                 
KBGY,NYCEEC,K,"Kreative Kare DCC, Inc.",,718-386-3242,292 Palmetto St,11237,1,20,1008189,193091,kreativekare@aol.com,7,,8,1,32KBGY,40.696805,-73.913702,4,37,435,3076842,3033620006,Bushwick North                                                             
KCMZ,NYCEEC,K,Free Greek Community Of The Three Hierarchs,,718-339-0280,1720 Ave P,11229,1,48,996395,161684,vur501@aol.com,5,,9,3,22KCMZ,40.610635,-73.95642,15,48,552,3182464,3067800001,Madison                                                                    
KBPS,NYCEEC,K,Mother Love,,718-853-1408,"1681 49 St, #1f",11204,1,38,988846,168799,motherslove@earthlink.net,3,,7,1,20KBPS,40.629973,-73.98373,12,44,474,3129017,3054480058,Borough Park                                                               
KCNH,NYCEEC,K,Kiddieprise - 1520 86th Street,,718-232-1936,1520 86th St,11228,1,18,981727,161849,info@purplecrayonny.com,5,http://purplecrayonny.com,9,3,20KCNH,40.611107,-74.009033,11,43,172,3166172,3063600045,Bath Beach                                                                 
KBVT,NYCEEC,K,Yeshiva Headstart Keap Street,,718-486-6500,274 Keap St,11211,3,86,996553,196720,yeshivaheadstart@thejnet.com,6,,1,2,14KBVT,40.706633,-73.95599,1,33,529,3060261,3022010025,Williamsburg                                                               
K297,DOE,K,P.S. 297 Abraham Stockton,,718-388-4581,700 Park Ave,11206,1,18,998786,193431,jbrown28@schools.nyc.gov,2,http://schools.nyc.gov/schoolportals/14/k297,2,3,14K297,40.697781,-73.947809,3,36,257,3048508,3017390011,Bedford                                                                    
KCML,NYCEEC,K,Bryan's Educational Center,,718-282-6944,3922 Church Ave,11203,1,36,1000837,176492,bryansdaycare@aol.com,5,http://bryanseducationalcenter.com,9,3,18KCML,40.651237,-73.94067,17,45,858,3109654,3048930010,East Flatbush-Farragut                                                     
K005,DOE,K,P.S. 005 Dr. Ronald Mcnair,,718-574-2333,820 Hancock St,11233,1,36,1005773,189031,lgates@schools.nyc.gov,2,http://schools.nyc.gov/schoolportals/16/k005,3,3,16K005,40.685695,-73.922463,3,41,377,3039906,3014900001,Stuyvesant Heights                                                         
KBSA,NYCEEC,K,Bushwick United HDFC 2,<p><strong>Alert</strong>: Program may have income or other eligibility requirements. Contact for more information.</p>,718-821-2345,77 Wilson Ave,11237,1,38,1004288,195057,BUSHEDU@AOL.COM,5,,9,3,32KBSA,40.702,-73.927984,4,34,427,3394894,3031740002,Bushwick North                                                             
KBCZ,NYCEEC,K,Pine Street Day Care,,718-235-1150,872 - 874 Cres St,11208,2,78,1020888,181987,pinestreetdaycarecenter@verizon.net,5,,9,3,19KBCZ,40.666179,-73.867696,5,42,1220,3000000,3045070017,East New York                                                              
K039,DOE,K,P.S. 039 Henry Bristow,,718-330-9310,417 6 Ave,11215,1,36,988958,182905,,7,http://ps39.org,3,3,15K039,40.668916,-73.983195,6,39,153,3021932,3010000001,Park Slope-Gowanus                                                         
KBOS,NYCEEC,K,John Coker DCC,<p><strong>Alert</strong>: Program may have income or other eligibility requirements. Contact for more information.</p>,718-452-1414,1375 Bushwick Ave,11207,1,37,1009103,188988,JOHNCOKER75@AOL.COM,2,,3,1,32KBOS,40.685173,-73.910526,4,37,403,3079655,3034330005,Bushwick South                                                             
K203,DOE,K,P.S. 203 Floyd Bennett School,,718-241-8488,5101 Ave M,11234,1,126,1004878,165792,lesposi3@schools.nyc.gov,2,http://schools.nyc.gov/schoolportals/22/k203,3,3,22K203,40.621436,-73.925989,18,46,680,3218626,3078490001,Flatlands                                                                  
KAPR,NYCEEC,K,Talmud Torah Crown Heights Yeshivah,,718-444-5800,6363 Ave U,11234,1,40,1008464,163862,chyjoan@yahoo.com,3,,3,2,22KAPR,40.616209,-73.912697,18,46,698,3236983,3084060035,Georgetown-Marine Park-Bergen Beach-Mill Basin                             
KBWG,NYCEEC,K,Life - Coney Island,<p><strong>Alert</strong>: Program may have income or other eligibility requirements. Contact for more information.</p>,718-942-4494,2757 West 33rd St,11224,1,27,984471,149969,mjordan@lifetech.org,3,http://lifetech.org,7,1,21KBWG,40.578145,-74.00018,13,47,330,3331093,3069640002,Seagate-Coney Island                                                       
KBPA,NYCEEC,K,Boulevard Nursery School,<p><strong>Alert</strong>: Program may have income or other eligibility requirements. Contact for more information.</p>,718-649-2295,2150 Linden Blvd,11207,1,20,1016595,180222,coraliehook@gmail.com,3,,8,1,19KBPA,40.661593,-73.883597,5,42,1110,3324285,3043550001,East New York                                                              
K133,DOE,K,P.S. 133 William A Butler,"<P> <Strong>Note:</strong> Students in District 15 are prioritized for two-thirds of seats and students in District 13 are prioritized for the remaining third. Within each district group, students who qualify for Free and Reduced Lunch and/or are English Language Learners will have priority for 35% of those seats. </P>",718-398-5320,610 Baltic St,11217,1,64,989651,187141,adickerson@schools.nyc.gov,2,http://ps133brooklyn.org,3,3,13K133,40.680428,-73.980491,6,39,12901,3413716,3009400111,Park Slope-Gowanus                                                         
K123,DOE,K,P.S. 123 Suydam,,718-821-4810,100 Irving Ave,11237,1,36,1005736,195753,aparach@schools.nyc.gov,2,http://schools.nyc.gov/schoolportals/32/k123,1,3,32K123,40.703767,-73.922702,4,34,445,3072966,3032100001,Bushwick North                                                             
KBLF,NYCEEC,K,"Bambi DCC, Inc.",,718-771-1603,138 Hancock St,11216,1,20,998021,187871,bambicare@gmail.com,3,http://bambidcc.com,8,1,13KBLF,40.682447,-73.950716,3,36,245,3052608,3018370052,Bedford                                                                    
KCKC,NYCEEC,K,Alpha Christian Academy,,718-272-0505,921 East 107th St,11236,1,20,1014150,175485,alphachristiandaycare921@gmail.com,3,http://alphachristianacademy.com,6,1,18KCKC,40.647928,-73.892691,18,46,984,3230692,3082150022,Canarsie                                                                   
KAHX,NYCEEC,K,Gateway City Academy,,718-921-3737,257 Bay Rdg Ave,11220,1,143,976810,171036,gca@gatewaycityacademy.net,5,http://gatewaycityacademy.net,9,3,20KAHX,40.636018,-74.026914,10,43,68,3145159,3058620060,Bay Ridge                                                                  
KBJW,NYCEEC,K,YWCA - NYC Brownsville ELC,<p><strong>Alert</strong>: Program may have income or other eligibility requirements. Contact for more information.</p>,718-342-2905,1592 East New York Ave,11212,1,9,1009505,184191,aalexander@ywcanyc.org,3,http://ywcanyc.org,7,1,23KBJW,40.672884,-73.909392,16,41,906,3339438,3034890001,Brownsville                                                                
K194,DOE,K,P.S. 194 Raoul Wallenberg,,718-648-8804,3117 Ave W,11229,1,36,1002569,156858,mzissle@schools.nyc.gov,2,http://schools.nyc.gov/schoolportals/22/k194,3,3,22K194,40.596757,-73.933499,15,46,570,3201629,3073930001,Sheepshead Bay-Gerritsen Beach-Manhattan Beach                             
KBLA,NYCEEC,K,"The Little Darlings DCC, Inc.",,718-469-6207,1531 Nostrand Ave,11226,1,18,998366,175635,morrisdaycare@optimum.net,5,,9,3,17KBLA,40.648768,-73.949343,17,45,824,3110017,3049010073,Erasmus                                                                    
Z044,DOE,K,Pre - K Center At 7301 15th Avenue,,212-637-8000,7301 15th Ave,11228,1,72,983772,164622,pre-k@schools.nyc.gov,5,,9,3,20Z044,40.618718,-74.001898,11,43,188,3253521,3062020006,Bensonhurst West                                                           
KAYF,NYCEEC,K,PAL La Puerta Abierta,<p><strong>Alert</strong>: Program may have income or other eligibility requirements. Contact for more information.</p>,718-373-1100,3001 West 37 St,11224,1,30,983647,147886,rbhattacharjee@palnyc.org,2,http://palnyc.org,6,1,21KAYF,40.573177,-74.002509,13,47,340,3189617,3070650001,Seagate-Coney Island                                                       
K192,DOE,K,P.S. 192 - The Magnet School For Math And Science Inquiry,,718-633-3061,4715 18 Ave,11204,1,46,989832,168445,lisaac@schools.nyc.gov,3,http://ps-is192.org/,3,3,20K192,40.629303,-73.979995,12,44,476,3128909,3054450001,Borough Park                                                               
K191,DOE,K,P.S. 191 Paul Robeson,,718-756-1206,1600 Park Pl,11233,1,18,1005274,184040,ecapolo@schools.nyc.gov,2,http://schools.nyc.gov/schoolportals/17/k191,3,3,17K191,40.672005,-73.924329,8,41,359,3036635,3013750012,Crown Heights North                                                        
K025,DOE,K,P.S. 025 Eubie Blake School,,718-574-2336,787 Lafayette Ave,11221,1,36,1000753,191155,acoley2@schools.nyc.gov,3,http://schools.nyc.gov/schoolportals/16/k025,3,3,16K025,40.691037,-73.941342,3,36,281,3049858,3017870014,Stuyvesant Heights                                                         
Z042,DOE,K,Pre - K Center At P.S. 118 The Maurice Sendak School,,212-637-8000,211 8th St,11215,1,72,987635,183726,pre-k@schools.nyc.gov,5,,9,3,15Z042,40.670764,-73.987787,6,39,137,3021840,3009980001,Park Slope-Gowanus                                                         
K178,DOE,K,P.S. 178 St. Clair Mckelway,,718-495-7768,2163 Dean St,11233,1,36,1007728,185292,jhenry1@schools.nyc.gov,3,http://schools.nyc.gov/schoolportals/23/k178,3,3,23K178,40.675024,-73.915778,16,41,303,3038718,3014400056,Ocean Hill                                                                 
Z063,DOE,K,Pre - K Center At 1340 East 29th Street,,212-637-8000,1340 East 29th St,11232,1,252,999074,164551,pre-k@schools.nyc.gov,5,,9,3,22Z063,40.61845,-73.94633,14,45,756,3337357,3076640041,Midwood                                                                    
K198,DOE,K,P.S. 198 Brooklyn,,718-282-4920,4105 Farragut Rd,11210,1,36,1001725,171434,jmorgan2@schools.nyc.gov,2,http://schools.nyc.gov/schoolportals/22/k198,3,3,22K198,40.63694,-73.937339,17,45,836,3113388,3049880066,East Flatbush-Farragut                                                     
KBLW,NYCEEC,K,Bushwick United HDFC 4,<p><strong>Alert</strong>: Program may have income or other eligibility requirements. Contact for more information.</p>,347-269-8152,178 Leonard St,11206,1,21,998991,198004,catherinel@bushwickunited.org,3,http://bushwickunited.org,2,2,14KBLW,40.710036,-73.946992,1,34,505,3327883,3030240001,East Williamsburg                                                          
Z014,DOE,K,Pre - K Center At 1215 Avenue X,,718-368-8660,1215 Ave X,11235,1,108,995767,154989,JSkop@schools.nyc.gov,5,,9,3,21Z014,40.591856,-73.95842,15,48,584,3395412,3073960044,Homecrest                                                                  
KBPI,NYCEEC,K,Breukelen Head Start,<p><strong>Alert</strong>: Program may have income or other eligibility requirements. Contact for more information.</p>,718-649-2960,715 East 105th St,11236,1,20,1013260,175749,,3,,3,2,18KBPI,40.648732,-73.896005,18,42,982,3321523,3081930001,Canarsie                                                                   
K007,DOE,K,P.S. 007 Abraham Lincoln,,718-647-3600,858 Jamaica Ave,11208,1,36,1019458,190490,cnoel@schools.nyc.gov,5,http://schools.nyc.gov/schoolportals/19/k007,9,3,19K007,40.689697,-73.873109,5,37,118201,3090998,3041060039,Cypress Hills-City Line                                                    
KCNZ,NYCEEC,K,NY Preschool Park Slope,,718-228-0800,125 5th Ave,11217,1,54,990177,186542,stephanie.t@nykidsclub.com,5,http://nykidsclub.com,9,3,13KCNZ,40.6788,-73.978833,6,39,131,3019195,3009440006,Park Slope-Gowanus                                                         
KBQQ,NYCEEC,K,Bambi Day Care III,,718-368-1817,2114 Brown St,11229,1,98,1000882,157918,info@bambiacademy.com,3,http://bambidaycare.com,3,1,22KBQQ,40.600126,-73.93988,15,46,570,3200302,3073640011,Sheepshead Bay-Gerritsen Beach-Manhattan Beach                             
KABP,NYCEEC,K,Battalion Christian Academy,,718-774-5447,780 Schenectady Ave,11203,1,36,1002608,177682,alcockfiled@gmail.com,3,,8,1,18KABP,40.654351,-73.9336,17,41,870,3108499,3048670118,East Flatbush-Farragut                                                     
KAJT,NYCEEC,K,St. Frances Cabrini Catholic Academy,,718-386-9277,181 Suydam St,11221,1,72,1004723,194266,wanda.marty@sfc-ca.net,2,http://sfc-ca.com,4,1,32KAJT,40.699896,-73.92592,4,34,423,3072916,3032080041,Bushwick South                                                             
KBPT,NYCEEC,K,NYL - William O'Connor,,718-680-9751,420 95th St,11209,1,19,975747,163419,mary.olsen@yai.org,5,,4,2,20KBPT,40.615448,-74.030699,10,43,162,3329016,3061230028,Bay Ridge                                                                  
K401,DOE,K,Christopher Avenue Community School,,718-495-5761,51 Christopher Ave,11212,1,36,1010248,184196,dmitche5@schools.nyc.gov,2,http://schools.nyc.gov/schoolportals/23/k401,3,3,23K401,40.672462,-73.906552,16,37,908,3083608,3036930001,Brownsville                                                                
KBQE,NYCEEC,K,Buratino International Day Care,,718-368-2113,2962 Brighton 1st St,11235,1,36,993473,150264,svetauchetel@yahoo.cm,1,http://buratinodaycare.com,7,1,21KBQE,40.579312,-73.966521,13,48,364,3321624,3086610054,Brighton Beach                                                             
KBLU,NYCEEC,K,Stagg Street Center For Children,<p><strong>Alert</strong>: Program may have income or other eligibility requirements. Contact for more information.</p>,718-388-1395,77 Stagg St,11206,1,70,998837,197692,daycare77@aol.com,3,,3,1,14KBLU,40.709127,-73.947461,1,34,511,3070819,3030230032,East Williamsburg                                                          
K020,DOE,K,P.S. 020 Clinton Hill,,718-834-6744,225 Adelphi St,11205,1,54,992270,190980,lbarbera@schools.nyc.gov,2,http://schools.nyc.gov/schoolportals/13/k020,3,3,13K020,40.690765,-73.971376,2,35,183,3058531,3020910003,Fort Greene                                                                
KABE,NYCEEC,K,Bais Yaakov D'chassidei Gur,,718-338-5600,1975 51st St,11204,1,18,990426,166877,esmith@thejnet.com,5,,9,3,21KABE,40.62465,-73.977946,12,44,464,3129528,3054620045,Borough Park                                                               
KBWE,NYCEEC,K,Inner Force Tots,<p><strong>Alert</strong>: Program may have income or other eligibility requirements. Contact for more information.</p>,718-221-1246,1181 East New York Ave,11212,1,145,1005522,182307,challiman@live.com,3,http://innerforce.org,2,1,17KBWE,40.666781,-73.923498,8,41,359,3037640,3013990125,Crown Heights North                                                        
KCLE,NYCEEC,K,"Faces Of The Future ELC, LLC",,718-618-0061,1080 Utica Ave,11203,1,40,1003647,174842,upk21080@gmail.com,5,,9,3,18KCLE,40.64671,-73.929856,17,45,850,3349019,3047340032,East Flatbush-Farragut                                                     
K021,DOE,K,P.S. 021 Crispus Attucks,,718-493-9681,180 Chauncey St,11233,1,54,1004755,187212,lfrazie@schools.nyc.gov,2,http://schools.nyc.gov/schoolportals/16/k021,3,3,16K021,40.680727,-73.926597,3,36,381,3047914,3016920017,Crown Heights North                                                        
KBPV,NYCEEC,K,Ring Around The Rosie,,718-492-7464,7104 13th Ave,11228,1,16,982762,166091,Ring7104@verizon.net,4,,8,1,20KBPV,40.622487,-74.005169,10,43,196,3157619,3061770039,Dyker Heights                                                              
KAZM,NYCEEC,K,St. Francis Xavier,,718-857-2559,763 President St,11215,1,36,990715,184947,taylordorothy763@yahoo.com,7,http://sfxsparkslope.org,3,1,15KAZM,40.674465,-73.977497,6,39,157,3020189,3009570017,Park Slope-Gowanus                                                         
KBAI,NYCEEC,K,Guild For Exceptional Children,,718-435-2554,1273 57 St,11219,1,32,985107,169091,alice@gecbklyn.org,2,http://gecbklyn.org,3,2,20KBAI,40.630998,-73.997511,12,44,216,3140076,3056900042,Borough Park                                                               
K274,DOE,K,P.S. 274 Kosciusko,,718-574-0273,800 Bushwick Ave,11221,1,54,1004250,192316,mollivi@schools.nyc.gov,3,http://schools.nyc.gov/schoolportals/32/k274,3,3,32K274,40.694921,-73.927931,4,34,393,3073752,3032410037,Bushwick South                                                             
K184,DOE,K,P.S. 184 Newport,,718-495-7775,273 Newport St,11212,1,72,1010622,179822,llinder@schools.nyc.gov,2,http://schools.nyc.gov/schoolportals/23/k184,3,3,23K184,40.659966,-73.904901,16,42,918,3082391,3036060001,Brownsville                                                                
KBWW,NYCEEC,K,Williamsburg Y Head Start,,718-387-0229,64 Division Ave,11249,3,90,993758,196868,nbonuso628@gmail.com,3,http://williamsburgy.org,7,1,14KBWW,40.707199,-73.966135,1,33,545,3323170,3021660001,Williamsburg                                                               
KBRD,NYCEEC,K,"Kingsbay YM - YWHA, Inc.",,718-648-7703,3495 Nostrand Ave,11229,1,20,1000562,157414,susan@kingsbayy.org,3,http://kingsbayy.org,3,1,22KBRD,40.598817,-73.94157,15,46,570,3200300,3073630036,Sheepshead Bay-Gerritsen Beach-Manhattan Beach                             
K329,DOE,K,P.S. 329 Surfside,,718-996-3800,2929 West 30 St,11224,1,48,985385,148644,smarbury@schools.nyc.gov,2,http://ps329.schoolwires.com,7,3,21K329,40.574607,-73.996292,13,47,342,3189517,3070510001,Seagate-Coney Island                                                       
KBDA,NYCEEC,K,Urban Strategies 1,<p><strong>Alert</strong>: Program may have income or other eligibility requirements. Contact for more information.</p>,718-235-6151,1091 Sutter Ave,11208,1,119,1018065,184170,usheadstart1@aol.com,3,,7,2,19KBDA,40.671892,-73.878197,5,42,1194,3089620,3040390001,East New York                                                              
KASC,NYCEEC,K,Brevoort Children's Center,<p><strong>Alert</strong>: Program may have income or other eligibility requirements. Contact for more information.</p>,718-778-1069,250 Ralph Ave,11233,1,19,1005435,187319,hlareche@bksny.org,3,http://bksny.org,7,1,16KASC,40.68104,-73.9224,3,41,381,3325169,3016880001,Crown Heights North                                                        
KCEC,NYCEEC,K,Kreative Kare DCC,,718-443-1333,455 Wilson Ave ( Ground Floor ),11221,1,40,1008575,191854,kreativekare@aol.com,7,,8,1,32KCEC,40.693121,-73.912379,4,37,435,3077626,3033840006,Bushwick North                                                             
KAFB,NYCEEC,K,Epiphany Lutheran School,,718-773-7200,721 Lincoln Pl,11216,1,30,997555,183743,Crafton@foch.biz,7,,3,1,17KAFB,40.670862,-73.952347,8,35,31702,3032263,3012540063,Crown Heights North                                                        
KBKK,NYCEEC,K,Friends Of Crown Heights 29,<p><strong>Alert</strong>: Program may have income or other eligibility requirements. Contact for more information.</p>,718-778-1498,1435 Prospect Pl,11213,1,42,1003982,184593,saunders@foch.biz,7,http://fochdaycare.org,3,2,16KBKK,40.673175,-73.929039,8,36,347,3036100,3013610066,Crown Heights North                                                        
K319,DOE,K,P.S. 319,,718-388-1588,360 Keap St,11211,1,54,996991,197833,azamora@schools.nyc.gov,3,http://ps319williamsburg.org,3,1,14K319,40.709674,-73.954217,1,34,527,3063189,3024240001,North Side-South Side                                                      
KCHJ,NYCEEC,K,"Arista Prep, Inc.",,718-756-5550,221 Kingston Ave,11213,1,54,1000435,184294,aristaprep@gmail.com,3,http://aristaprepschool.org/,2,1,17KCHJ,40.672452,-73.941899,8,36,343,3330683,3012440006,Crown Heights North                                                        
K205,DOE,K,P.S. 205 Clarion,,718-236-2380,6701 20 Ave,11204,1,54,987836,163315,bgrater@schools.nyc.gov,2,http://schools.nyc.gov/schoolportals/20/k205,3,3,20K205,40.61527,-73.987149,11,47,256,3134749,3055710001,Bensonhurst West                                                           
KBOL,NYCEEC,K,"Phebeana Preschool, Inc.",,718-284-8147,160 Parkside Ave,11226,1,48,994507,177625,phebeanapreskool@aol.com,7,,6,1,17KBOL,40.654449,-73.962962,14,40,50804,3115913,3050530018,Flatbush                                                                   
K093,DOE,K,P.S. 093 William H Prescott,,718-604-7363,31 New York Ave,11216,1,36,999087,186633,sphilip@schools.nyc.gov,2,http://schools.nyc.gov/schoolportals/13/k093,3,3,13K093,40.679097,-73.94684,3,36,247,3053993,3018680007,Crown Heights North                                                        
KBTH,NYCEEC,K,Brightside Academy - Dekalb Ave,<p><strong>Alert</strong>: Program may have income or other eligibility requirements. Contact for more information.</p>,718-574-3710,844 Dekalb Ave,11221,1,16,1000255,191478,sfurbert@brightsideacademy.com,5,http://brightsideacademy.com,7,1,16KBTH,40.692428,-73.942116,3,36,281,3049690,3017820010,Stuyvesant Heights                                                         
KCHT,NYCEEC,K,"Baybee Lounge Daycare, Inc.",,347-955-4783,2745 Atlantic Ave,11207,1,15,1013935,185723,baybeelounge@gmail.com,3,http://baybeeloungedaycare.com,7,1,19KCHT,40.676183,-73.892876,5,37,1198,3083398,3036740045,East New York                                                              
KAWQ,NYCEEC,K,Macademy,,718-221-5566,1313 Un St,11225,1,18,998505,183018,qkmacademy@aol.com,5,http://macademytech.org,8,1,17KAWQ,40.668857,-73.948787,9,35,319,3032953,3012690054,Crown Heights South                                                        
K097,DOE,K,P.S. 97 The Highlawn,,718-372-1800,1855 Stillwell Ave,11223,1,54,988205,158329,icabello@schools.nyc.gov,3,http://schools.nyc.gov/schoolportals/21/k097,3,3,21K097,40.601433,-73.986139,11,47,404,3177680,3066670024,Bensonhurst East                                                           
K046,DOE,K,P.S. 046 Edward C Blum,,718-834-7694,100 Clermont Ave,11205,1,54,992161,192247,knicholson@schools.nyc.gov,2,http://schools.nyc.gov/schoolportals/13/k046,3,3,13K046,40.694633,-73.971165,2,35,187,3058088,3020450011,Fort Greene                                                                
KABD,NYCEEC,K,Bais Tziporah,,718-436-8336,1449 39th St,11218,1,27,989033,171984,btmsm@aol.com,5,,9,3,20KABD,40.638647,-73.982997,12,39,228,3328392,3053470058,Borough Park                                                               
KADN,NYCEEC,K,Zion Day Care,<p><strong>Alert</strong>: Program may have income or other eligibility requirements. Contact for more information.</p>,718-438-2862,5000 14th Ave,11219,1,40,986785,169923,Zion.daycare@thejnet.com,2,,6,2,20KADN,40.633057,-73.990593,12,44,236,3138079,3056490038,Borough Park                                                               
KATG,NYCEEC,K,Ahrc Francis Of Paola ELC,,718-782-1462,201 Conselyea St,11211,1,6,1000019,199974,Teresa.DelPriore@ahrcnyc.org,5,http://schools.ahrcnyc.org,3,1,14KATG,40.715378,-73.943001,1,34,497,3070199,3028920007,East Williamsburg                                                          
KCIO,NYCEEC,K,Honeydew Drop Playhouse,,718-941-2177,1113 Church Ave,11218,1,14,992888,175116,Honeydewplayhouse@gmail.com,2,http://honeydewdrop.com,1,1,17KCIO,40.647079,-73.969106,14,40,506,3116378,3050720035,Flatbush                                                                   
KCKZ,NYCEEC,K,"A2z Kidz Center, LLC",,718-758-7729,190 Exeter St,11235,1,40,998531,149742,jaynelipkovich@gmail.com,5,http://a2zdaycare.com,9,3,22KCKZ,40.577935,-73.948349,15,48,620,3246120,3087360026,Sheepshead Bay-Gerritsen Beach-Manhattan Beach                             
KCIA,NYCEEC,K,Effie Bs ECDC Corp.,,718-735-5500,1171 Eastern Pkwy,11213,1,36,1003783,183072,effieb.center@gmail.com,3,http://effieskids.com,8,1,17KCIA,40.668726,-73.929617,8,41,349,3037378,3013910058,Crown Heights North                                                        
KBJR,NYCEEC,K,Friends Of Crown Heights 19,<p><strong>Alert</strong>: Program may have income or other eligibility requirements. Contact for more information.</p>,929-234-2838,370 New Lots Ave,11207,1,61,1013858,180317,CSORIANO8@YAHOO.COM,3,http://fochdaycare.org,3,1,19KBJR,40.66168,-73.893433,5,42,1128,3096389,3042980007,East New York (Pennsylvania Ave)                                           
KAUK,NYCEEC,K,NYL / WOC Midwood,,718-382-1060,1520 East 13th St,11230,1,16,995048,162397,Jessica.Molina@yai.org,5,http://yai.org/agencies/nyl,3,2,21KAUK,40.612044,-73.960799,14,48,542,3329249,3067590001,Midwood                                                                    
K289,DOE,K,P.S. 289 George V Brower,,718-493-3824,900 St Marks Ave,11213,1,48,1000334,185025,djeffer@schools.nyc.gov,2,http://schools.nyc.gov/schoolportals/17/k289,3,3,17K289,40.674794,-73.942639,8,36,341,3031050,3012290028,Crown Heights North                                                        
K215,DOE,K,P.S. 215 Morris H Weiss,,718-339-2464,415 Ave S,11223,1,54,992559,158723,above@schools.nyc.gov,2,http://schools.nyc.gov/schoolportals/21/k215,3,3,21K215,40.602084,-73.970013,15,47,41401,3178584,3066810169,Homecrest                                                                  
KBPL,NYCEEC,K,Recreation Rooms And Settlement Starrett Early Learning,,718-642-8724,1325 Pennsylvania Ave,11239,1,40,1017012,175603,ssippy@aol.com,7,,8,1,19KBPL,40.648321,-73.882265,5,42,105801,3343596,3044520085,Starrett City                                                              
K288,DOE,K,P.S. 288 The Shirley Tanyhill,,718-382-2100,2950 West 25 St,11224,1,36,986399,148501,dlamber3@schools.nyc.gov,2,http://schools.nyc.gov/schoolportals/21/k288,3,3,21K288,40.574411,-73.99194,13,47,342,3189538,3070540045,Seagate-Coney Island                                                       
K214,DOE,K,P.S. 214 Michael Friedsam,,718-647-1740,2944 Pitkin Ave,11208,1,108,1022233,185689,SMahabi@schools.nyc.gov,3,http://schools.nyc.gov/schoolportals/19/k214,3,3,19K214,40.676513,-73.863151,5,37,1202,3095254,3042430001,Cypress Hills-City Line                                                    
KCMT,NYCEEC,K,Glorious And Gifted ECC Inc.,,718-812-0426,421 Throop Ave,11221,1,20,1000382,190102,dlittlestardaycare@yahoo.com,5,,9,3,16KCMT,40.688462,-73.942018,3,36,279,3050770,3018060007,Stuyvesant Heights                                                         
KCOU,NYCEEC,K,My Sunshine Kids Inc.,,718-877-9833,928 55th St,11219,1,54,983195,171140,mysunshinekids.ecc@gmail.com,5,,9,3,20KCOU,40.636458,-74.003567,12,38,116,3421364,3056807501,Borough Park                                                               
KAVQ,NYCEEC,K,Hebrew Educational Society,<p><strong>Alert</strong>: Program may have income or other eligibility requirements. Contact for more information.</p>,718-241-3000,9502 Seaview Ave,11236,1,63,1014511,169772,Alessandra@thehes.org,3,http://thehes.org,3,1,18KAVQ,40.632808,-73.89122,18,46,1028,3235056,3083180008,Canarsie                                                                   
KBRB,NYCEEC,K,Infinity UPK,,718-336-1981,1972 East 34th St,11234,1,56,1002772,161157,infinityoffice@infinitypreschool.org,5,http://infinitypreschool.org,4,1,22KBRB,40.60935,-73.933418,18,46,636,3240023,3085000077,Georgetown-Marine Park-Bergen Beach-Mill Basin                             
K212,DOE,K,P.S. 212 Lady Deborah Moody,,718-266-4841,87 Bay 49 St,11214,1,54,988250,153341,jmarsel@schools.nyc.gov,2,http://schools.nyc.gov/schoolportals/21/k212,3,3,21K212,40.587616,-73.985948,13,47,314,3187407,3069170001,Gravesend                                                                  
KBQF,NYCEEC,K,Cinderella Day Care,,718-743-1841,130 Brighton 11th St,11235,1,18,995871,150512,cinderelladcc@optonline.com,3,http://cinderelladaycare.com,7,1,21KBQF,40.579529,-73.958028,13,48,61004,3245391,3087070427,Brighton Beach                                                             
K011,DOE,K,P.S. 011 Purvis J Behan,,718-638-2661,419 Waverly Ave,11238,1,72,993685,189033,awright3@schools.nyc.gov,2,http://schools.nyc.gov/schoolportals/13/k011,3,3,13K011,40.685491,-73.966291,2,35,199,3332865,3019620010,Clinton Hill                                                               
KBPG,NYCEEC,K,Help I,<p><strong>Alert</strong>: Program may have income or other eligibility requirements. Contact for more information.</p>,718-498-4002,515 Blake Ave,11207,1,38,1011979,182425,cviruet@helpusa.org,3,http://helpusa.org,7,1,19KBPG,40.667082,-73.899963,5,42,1134,3252577,3037660001,East New York (Pennsylvania Ave)                                           
KBAW,NYCEEC,K,Bet Yaakov Ohr Sarah,,718-627-8758,1123 Ave N,11230,2,55,994613,163502,tsena@orotsarah.com,5,,9,3,21KBAW,40.615246,-73.963056,14,48,768,3180770,3067400049,Midwood                                                                    
KBRZ,NYCEEC,K,Bushwick United HDFC 3,<p><strong>Alert</strong>: Program may have income or other eligibility requirements. Contact for more information.</p>,718-453-9040,331 Central Ave,11221,1,20,1006609,192524,MARYANGELC@BUSHWICKUNITED.ORG,5,http://bushwickunited.org,9,3,32KBRZ,40.694817,-73.919402,4,37,419,3075906,3033150001,Bushwick South                                                             
KBTL,NYCEEC,K,Gan Yisroel,,718-853-9853,3909 15th Ave,11218,1,58,989272,171548,ll@ganyisroel.org,5,http://ganyisroel.org/,9,3,20KBTL,40.637845,-73.981999,12,39,228,3125790,3053650006,Borough Park                                                               
KCJR,NYCEEC,K,A To Z DCC,,718-368-1234,3053 Ave U,11229,1,29,1001782,158293,jaynelipkovich@gmail.com,3,http://a2zdaycare.com,7,1,22KCJR,40.600983,-73.936919,15,46,568,3199284,3073400046,Madison                                                                    
K290,DOE,K,P.S. 290 Juan Morel Campos,,718-647-1113,135 Schenck Ave,11207,1,18,1014898,186364,wgeorge@schools.nyc.gov,2,http://schools.nyc.gov/schoolportals/19/k290,7,3,19K290,40.67789,-73.889758,5,37,1198,3087821,3039490018,East New York                                                              
KCPD,NYCEEC,K,Little Sunshine Child Development,,347-673-7239,2102 70th St,11204,1,12,987976,162301,littlesunshine.cd@gmail.com,5,http://littlesunshinecdc.com,9,3,20KCPD,40.612199,-73.986378,11,44,258,3157486,3061750006,Bensonhurst West                                                           
KBEQ,NYCEEC,K,Brooklyn Developmental Center,<p><strong>Alert</strong>: Program may have income or other eligibility requirements. Contact for more information.</p>,718-235-8800,888 Fountain Ave,11208,1,17,1021619,178530,shayswann@aol.com,3,,3,1,19KBEQ,40.656717,-73.86441,5,42,1070,3327531,3045860300,East New York                                                              
KCIW,NYCEEC,K,IP Kids Montessori,,718-633-1178,850 50th St,11220,1,87,983551,172516,JLee7818@gmail.com,3,,3,2,20KCIW,40.640435,-74.002598,12,38,108,3137829,3056440027,Sunset Park East                                                           
K636,DOE,K,Young Scholars' Academy For Discovery And Exploration,,718-453-4081,280 Hart St,11206,1,36,1000728,192084,tallen3@schools.nyc.gov,2,http://schools.nyc.gov/schoolportals/16/k636,3,3,16K636,40.694086,-73.940744,3,36,281,3049420,3017730014,Stuyvesant Heights                                                         
KCOH,NYCEEC,K,Sweet Home DCC,,718-871-4301,927 Macdonald Ave,11218,1,36,990640,169321,dmitriyuspenskiy@hotmail.com,5,,9,3,20KCOH,40.631512,-73.977299,14,44,478,3127549,3054080055,Borough Park                                                               
K254,DOE,K,P.S. 254 Dag Hammarskjold,,718-743-0890,1801 Ave Y,11235,1,54,997727,154490,lalhono@schools.nyc.gov,2,http://schools.nyc.gov/schoolportals/22/k254,3,3,22K254,40.590423,-73.951753,15,48,592,3203132,3074200026,Sheepshead Bay-Gerritsen Beach-Manhattan Beach                             
KBPD,NYCEEC,K,Sylvia Klein CCC,<p><strong>Alert</strong>: Program may have income or other eligibility requirements. Contact for more information.</p>,718-647-2274,720 Euclid Ave,11208,1,20,1019855,183139,sylviaklein.daycare@verizon.net,3,,4,2,19KBPD,40.669298,-73.870437,5,42,1210,3337053,3042920061,East New York                                                              
KABU,NYCEEC,K,Be - Er Hagolah Institutes,,718-642-6800,671 Louisiana Ave,11239,1,72,1016772,174547,bhagolah@aol.com,3,http://beerhagolah.org,3,1,19KABU,40.645638,-73.883643,5,42,105804,3339160,3044520080,Starrett City                                                              
KAZQ,NYCEEC,K,Bedford Stuyvesant ECDC,,718-455-5565,281 Stuyvesant Ave,11221,1,18,1003046,188799,spiveys@bsecdc.org,5,,9,3,16KAZQ,40.684933,-73.932441,3,36,295,3045801,3016560004,Stuyvesant Heights                                                         
KATR,NYCEEC,K,Warbasse Nursery School,,718-266-5585,2785 West 5th St,11224,1,16,992605,150820,lauraok@warbassenurseryschool.com,5,http://warbassenurseryschool.com,7,1,21KATR,40.5804,-73.971636,13,47,35601,3320736,3072530001,West Brighton                                                              
K345,DOE,K,P.S. 345 Patrolman Robert Bolden,,718-647-8387,111 Berriman St,11208,1,36,1017530,185678,wholt@schools.nyc.gov,3,http://schools.nyc.gov/schoolportals/19/k345,3,3,19K345,40.676129,-73.880337,5,37,1192,3088734,3039900001,East New York                                                              
K118,DOE,K,The Maurice Sendak Community School,,718-840-5660,211 8th St,11215,1,66,987659,183768,wgarraway@schools.nyc.gov,3,http://schools.nyc.gov/schoolportals/15/k118,3,3,15K118,40.670764,-73.987787,6,39,137,3021840,3009980001,Park Slope-Gowanus                                                         
KAIT,NYCEEC,K,Prospect Park Yeshiva,,718-376-5959,1784 East 17 St,11229,3,36,996376,160135,dkelman@bloppy.org,5,,9,3,22KAIT,40.606652,-73.955962,15,48,552,3000000,3067990046,Madison                                                                    
KBOB,NYCEEC,K,196 Albany Avenue DCC,<p><strong>Alert</strong>: Program may have income or other eligibility requirements. Contact for more information.</p>,718-773-0071,196 Albany Ave,11213,1,28,1001112,184847,albanydr19@aol.com,3,http://albanydaycare.org,3,2,17KBOB,40.67388,-73.938974,8,36,343,3031082,3012300044,Crown Heights North                                                        
K179,DOE,K,P.S. 179 Kensington,,718-438-4010,202 Ave C,11218,1,80,990551,172548,bamato@schools.nyc.gov,5,http://ps179kensington.com,9,3,20K179,40.640463,-73.977642,12,39,488,3126001,3053710001,Kensington-Ocean Parkway                                                   
KBKQ,NYCEEC,K,Parkside ECDC,,718-722-6236,525 Parkside Ave,11226,1,40,996498,178302,sandrahuntsmith@yahoo.com,5,,9,3,17KBKQ,40.655937,-73.955515,9,40,802,3115846,3050490001,Prospect Lefferts Gardens-Wingate                                          
K034,DOE,K,P.S. 034 Oliver H Perry,,718-389-5842,131 Norman Ave,11222,1,18,998184,203901,casselt@schools.nyc.gov,2,http://ps34.org,3,3,14K034,40.726135,-73.949649,1,33,573,3065733,3026220028,Greenpoint                                                                 
K325,DOE,K,The Fresh Creek School,,718-272-1843,875 Williams Ave,11207,1,54,1013506,177584,jdanver@schools.nyc.gov,3,http://schools.nyc.gov/schoolportals/19/k325,3,3,19K325,40.654031,-73.894854,18,42,982,3229155,3081580035,Canarsie                                                                   
KBPZ,NYCEEC,K,"Star America, Inc.",,718-431-2545,880 60th St,11220,1,72,982127,170308,Starbrooklyn880@yahoo.com,3,,7,1,20KBPZ,40.634528,-74.007977,12,38,118,3347466,3057147501,Sunset Park East                                                           
K243,DOE,K,P.S. 243k - The Weeksville School,,718-604-6909,1580 Dean St,11213,1,36,1002118,185508,khambri@schools.nyc.gov,2,http://schools.nyc.gov/schoolportals/16/k243,3,3,16K243,40.676094,-73.935688,8,36,309,3035761,3013470001,Crown Heights North                                                        
KCJX,NYCEEC,K,Mohdc - Smart Start,,718-915-3015,533 Blake Ave,11207,1,108,1012214,182425,rayed@mohdc.com,5,,9,3,19KCJX,40.667194,-73.89922,5,42,1134,3084260,3037670001,East New York (Pennsylvania Ave)                                           
KBDX,NYCEEC,K,BAbove Worldwide Institute - Tomer Devorah,<p><strong>Alert</strong>: Program may have income or other eligibility requirements. Contact for more information.</p>,347-402-5734,4500 9 Ave,11220,1,30,984552,173372,cklein@babove.com,3,,5,1,15KBDX,40.642505,-73.998692,12,38,94,3337205,3007510048,Sunset Park East                                                           
K081,DOE,K,P.S. 081 Thaddeus Stevens,,718-574-2365,990 Dekalb Ave,11221,1,36,1002239,191774,CAultBarker@schools.nyc.gov,3,http://schools.nyc.gov/schoolportals/16/k081,3,1,16K081,40.693161,-73.935765,3,36,289,3043248,3016020019,Stuyvesant Heights                                                         
K028,DOE,K,P.S. 028 The Warren Prep Academy,,718-467-2865,1001 Herkimer St,11233,1,18,1006403,186449,,2,http://schools.nyc.gov/schoolportals/16/k028,3,3,16K028,40.678049,-73.92032,3,41,301,3042090,3015480019,Ocean Hill                                                                 
KBMB,NYCEEC,K,Audrey Johnson DCC,<p><strong>Alert</strong>: Program may have income or other eligibility requirements. Contact for more information.</p>,718-574-0130,272 Moffat St,11207,1,74,1010815,190492,audreyjo272@aol.com,2,http://lifetech.org,3,2,32KBMB,40.689834,-73.904137,4,37,409,3080179,3034480015,Bushwick North                                                             
K058,DOE,K,P.S. 058 The Carroll,,718-330-9322,330 Smith St,11231,1,54,985512,187171,kdellostritto2@schools.nyc.gov,2,http://schools.nyc.gov/schoolportals/15/k058,3,3,15K058,40.680149,-73.994938,6,39,77,3007547,3004490015,Carroll Gardens-Columbia Street-Red Hook                                   
K026,DOE,K,P.S. 026 Jesse Owens,,718-919-5707,1014 Lafayette Ave,11221,1,18,1003289,191351,ccelest@schools.nyc.gov,2,http://schools.nyc.gov/schoolportals/16/k026,3,3,16K026,40.692126,-73.931731,3,36,291,3393805,3016160001,Stuyvesant Heights                                                         
KBQG,NYCEEC,K,M.S. Sunshine DCC,,718-648-8786,3096 Brighton 6th St,11235,1,35,994935,149503,mila2005yu@yahoo.com,7,,8,1,21KBQG,40.577079,-73.961363,13,48,36002,3245100,3086890045,Brighton Beach                                                             
KCJK,NYCEEC,K,Lpbc Day Care,,718-621-5458,7524 14th Ave,11228,1,19,982608,164657,llv9005@msn.com,5,http://lpbcdaycareupk.webs.com,7,1,20KCJK,40.618784,-74.005436,10,43,198,3160022,3062220045,Dyker Heights                                                              
KCNK,NYCEEC,K,Learn And Explore,,718-513-3600,330 Neptune Ave,11235,1,54,993934,150819,info@learnandexplore1.com,5,http://learnandexplore1.com,9,3,21KCNK,40.58084,-73.965177,13,48,364,3244337,3086630247,Brighton Beach                                                             
KBLI,NYCEEC,K,Young Minds DCC,,718-622-8622,972 Fulton St,11238,1,20,994766,187859,msmith@fortgreenecouncil.org,3,http://facebook.com/fgcyoungminds,4,1,13KBLI,40.682446,-73.961984,2,35,201,3057638,3020140026,Clinton Hill                                                               
K208,DOE,K,P.S. 208 Elsa Ebeling,,718-629-1670,4801 Ave D,11203,1,36,1003436,173291,NRenville@schools.nyc.gov,2,http://schools.nyc.gov/schoolportals/18/k208,3,3,18K208,40.642031,-73.931151,17,45,840,3105680,3047690025,East Flatbush-Farragut                                                     
KBMN,NYCEEC,K,Brooklyn Free Space,,718-965-3135,298 Sixth Ave,11215,1,28,989580,184175,mikia@brooklynfreespace.org,8,http://brooklynfreespace.org,2,1,15KBMN,40.672171,-73.980504,6,39,135,3020951,3009750039,Park Slope-Gowanus                                                         
KBNK,NYCEEC,K,Bedford Stuyvesant ECDC 262,,718-453-0760,262 Lexington Ave,11216,3,30,997668,189692,foxcasalk@bsecdc.org,3,,7,1,13KBNK,40.687597,-73.951574,3,36,243,3050588,3018020051,Bedford                                                                    
K200,DOE,K,P.S. 200 Benson School,,718-236-5466,1940 Benson Ave,11214,1,36,983788,158980,jmuniz@schools.nyc.gov,2,http://schools.nyc.gov/schoolportals/20/k200,1,3,20K200,40.603188,-74.001408,11,43,282,3167818,3064070008,Bath Beach                                                                 
KCJN,NYCEEC,K,Stillwell Avenue Prep School,,718-232-3628,6420 Bay Pkwy,11204,1,40,989394,163034,stillwellprep@yahoo.com,3,,7,1,20KCJN,40.614276,-73.981,11,47,254,3133705,3055500038,Bensonhurst West                                                           
K197,DOE,K,P.S. 197 - The Kings Highway Academy,,718-377-7890,1599 East 22 St,11210,1,72,997690,162462,rnicole@schools.nyc.gov,2,http://schools.nyc.gov/schoolportals/22/k197,3,3,22K197,40.612623,-73.951906,14,48,546,3182169,3067690018,Midwood                                                                    
KBKY,NYCEEC,K,"Infant And Child Learning Center, The",,718-675-1249,670 Parkside Ave,11226,1,18,997762,178269,Margot.Sigmone@Downstate.edu,3,http://iclcdownstate.com,3,1,17KBKY,40.656185,-73.951251,9,40,820,3116057,3050570029,Prospect Lefferts Gardens-Wingate                                          
Z075,DOE,K,Pre - K Center At 21 Bay 11th Street,,212-637-8000,21 Bay 11th St,11214,1,260,981971,161531,pre-k@schools.nyc.gov,5,,9,3,20Z075,40.609976,-74.008608,11,43,172,3336436,3063620029,Bath Beach                                                                 
KBDC,NYCEEC,K,Cypress Hills CCC,<p><strong>Alert</strong>: Program may have income or other eligibility requirements. Contact for more information.</p>,718-647-5005,108 Pne St,11208,1,38,1019317,188487,Jeromebass@yahoo.com,3,http://cypresshillschildcare.org,7,1,19KBDC,40.68407,-73.873386,5,37,117602,3327214,3041290008,Cypress Hills-City Line                                                    
KCPF,NYCEEC,K,Sarah Winner Daycare,,917-804-8284,2997 Ocean Pkwy,11235,1,12,993251,149815,sarahwinner30@gmail.com,5,,9,3,21KCPF,40.577413,-73.968267,13,48,362,3244597,3086690088,Brighton Beach                                                             
K164,DOE,K,P.S. 164 Caesar Rodney,,718-854-4100,4211 14 Ave,11219,1,46,988177,171416,esteinberg@schools.nyc.gov,3,http://schools.nyc.gov/schoolportals/20/k164,7,3,20K164,40.637486,-73.985955,12,44,232,3135976,3056000001,Borough Park                                                               
KAYS,NYCEEC,K,Hawthorne Corners DCC,<p><strong>Alert</strong>: Program may have income or other eligibility requirements. Contact for more information.</p>,718-282-7200,1950 Bedford Ave,11225,1,15,996233,178733,cornersdcc@verizon.net,3,,6,1,17KAYS,40.65734,-73.956559,9,40,79601,3115676,3050450051,Prospect Lefferts Gardens-Wingate                                          
KASR,NYCEEC,K,Glennwood Avenue Head Start,<p><strong>Alert</strong>: Program may have income or other eligibility requirements. Contact for more information.</p>,718-859-7720,3017 Glenwood Rd,11210,1,69,998938,170343,glenwood3017@gmail.com,3,,3,1,22KASR,40.634022,-73.947517,17,45,786,3113939,3050050001,Flatbush                                                                   
K251,DOE,K,P.S. 251 Paerdegat,,718-251-4110,1037 East 54 St,11234,1,90,1005337,169271,sboyer@schools.nyc.gov,2,http://schools.nyc.gov/schoolportals/22/k251,3,3,22K251,40.632524,-73.924417,18,46,722,3214729,3077580001,Flatlands                                                                  
K177,DOE,K,P.S. 177 The Marlboro,,718-375-9506,346 Ave P,11204,1,36,991336,160937,scaleca@schools.nyc.gov,2,http://schools.nyc.gov/schoolportals/21/k177,3,3,21K177,40.608604,-73.974847,11,44,424,3175834,3066310001,Bensonhurst East                                                           
KBGP,NYCEEC,K,Great Oaks Academy,,718-915-3015,4718 Farragut Rd,11203,1,54,1003385,171412,rayed@mohdc.com,5,http://mohdcsmartstart.com,9,3,18KBGP,40.637305,-73.931174,17,45,932,3327647,3047860005,East Flatbush-Farragut                                                     
KBUV,NYCEEC,K,Helen Owen Carey CDC,<p><strong>Alert</strong>: Program may have income or other eligibility requirements. Contact for more information.</p>,718-638-4100,71 Lincoln Pl,11217,1,72,990467,185964,PSNHOC@universitysettlement.org,3,http://universitysettlement.org,3,1,13KBUV,40.67696,-73.977727,6,39,131,3019440,3009470054,Park Slope-Gowanus                                                         
KANX,NYCEEC,K,Yeshiva Karlin Stolin,,718-232-7800,1801 55th St,11204,1,36,988679,166928,dstein@yks.edu,3,,6,2,21KANX,40.624695,-73.984056,12,44,470,3130561,3054870001,Borough Park                                                               
K651,CHARTER,K,Pave Academy Charter School,,917-803-0380,76 Lorraine St,11231,1,36,982340,184973,cwestendarp@paveacademy.org,5,,9,3,84K651,40.674385,-74.006886,6,38,53,3338801,3005800016,Carroll Gardens-Columbia Street-Red Hook                                   
KBBL,NYCEEC,K,St. Peter's Preschool,,718-647-1014,109 Highland Pl,11208,1,83,1017187,188019,claradv@aol.com,2,,2,1,19KBBL,40.682594,-73.881465,5,37,1174,3087344,3039300032,Cypress Hills-City Line                                                    
KCKU,NYCEEC,K,Promise World Daycare,,718-743-2828,1968 Ocean Ave,11230,1,28,996885,162953,yelena011@gmail.com,5,,9,3,22KCKU,40.614194,-73.954225,14,48,546,3181619,3067570046,Midwood                                                                    
KBVC,NYCEEC,K,Nuestros Ninos DCC I,<p><strong>Alert</strong>: Program may have income or other eligibility requirements. Contact for more information.</p>,718-218-8275,384 South 4th St,11211,1,35,997413,197193,NuestrosNinosCDS@aol.com,5,,9,3,14KBVC,40.708084,-73.952515,1,34,527,3063507,3024510008,North Side-South Side                                                      
K038,DOE,K,P.S. 038 The Pacific,,718-330-9305,450 Pacific St,11217,1,126,988968,188868,yramire4@schools.nyc.gov,3,http://schools.nyc.gov/schoolportals/15/k038,3,1,15K038,40.685264,-73.982639,2,33,39,3001183,3001910001,DUMBO-Vinegar Hill-Downtown Brooklyn-Boerum Hill                           
KABC,NYCEEC,K,Bais Sarah School,,718-871-7571,6101 16 Ave,11204,1,60,986288,166574,baissarahupk@verizon.net,5,,9,3,20KABC,40.624186,-73.99263,11,44,248,3132384,3055240001,Bensonhurst West                                                           
KCOX,NYCEEC,K,Little Hands And Feet School,,718-680-5437,1270 Bay Rdg Pkwy,11228,1,13,982011,165313,soos016@aol.com,5,http://littlehandsandfeetdaycare.com,9,3,20KCOX,40.620763,-74.008202,10,43,200,3159952,3062217501,Dyker Heights                                                              
K229,DOE,K,P.S. 229 Dyker,,718-236-5447,1400 Benson Ave,11228,1,30,980558,161737,rzappul@schools.nyc.gov,2,http://ps229.org,3,3,20K229,40.610963,-74.013376,11,43,170,3167212,3063910024,Bath Beach                                                                 
KBJJ,NYCEEC,K,LSSMNY : Early Life Children's Center 8,<p><strong>Alert</strong>: Program may have income or other eligibility requirements. Contact for more information.</p>,347-689-8303,265 Marcus Garvey Blvd,11221,1,50,1001191,190131,SALLEYNE@LSSNY.ORG,3,http://early-life.org,1,1,16KBJJ,40.68862,-73.939152,3,36,279,3044209,3016240001,Stuyvesant Heights                                                         
K262,DOE,K,P.S. 262 El Hajj Malik El Shabazz Elementary School,,718-453-0780,500 Macon St,11233,1,18,1003788,188160,igarner@schools.nyc.gov,3,http://ps262.org/home.aspx,3,1,16K262,40.683241,-73.930813,3,36,297,3046876,3016710019,Crown Heights North                                                        
K132,DOE,K,P.S. 132 The Conselyea School,,718-599-7301,320 Manhattan Ave,11211,1,72,999251,199688,blubeck@schools.nyc.gov,2,http://ps132andyou.net,3,3,14K132,40.71466,-73.946108,1,34,497,3068728,3027590001,East Williamsburg                                                          
K204,DOE,K,P.S. 204 Vince Lombardi,,718-236-2906,8101 15 Ave,11228,1,36,982425,162902,jlogosso@schools.nyc.gov,5,http://schools.nyc.gov/schoolportals/20/k204,9,3,20K204,40.614159,-74.006638,11,43,184,3163702,3062940001,Bensonhurst West                                                           
Z064,DOE,K,Pre - K Center At 3610 Glenwood Road,,212-637-8000,3610 Glenwood Rd,11218,1,144,1000492,170333,pre-k@schools.nyc.gov,5,,9,3,22Z064,40.63436,-73.941795,17,45,784,3206141,3075640047,East Flatbush-Farragut                                                     
Z013,DOE,K,Pre - K Center At 1668 46th Street,,212-637-8000,1668 46th St,11204,1,180,989239,169329,pre-k@schools.nyc.gov,5,,9,3,20Z013,40.631768,-73.98221,12,44,476,3324164,3054370038,Borough Park                                                               
KBUW,NYCEEC,K,St. Malachy ECDC,,718-647-0966,220 Hendrix St,11207,1,20,1014559,185982,ljohnson@ccbq.org,3,http://ccbq.org,3,2,19KBUW,40.677064,-73.890502,5,37,1198,3327068,3039470005,East New York                                                              
K219,DOE,K,P.S. 219 Kennedy - King,,718-342-0493,1060 Clarkson Ave,11212,1,72,1005716,179426,wsmith4@schools.nyc.gov,2,http://schools.nyc.gov/schoolportals/18/k219,2,3,18K219,40.659288,-73.922919,17,41,886,3101168,3046480001,Rugby-Remsen Village                                                       
KBJZ,NYCEEC,K,Saratoga II - Shirley Chisholm Center,<p><strong>Alert</strong>: Program may have income or other eligibility requirements. Contact for more information.</p>,718-443-4100,69 Saratoga Ave,11233,1,89,1007192,188674,ddavidson@sco.org,3,http://sco.org,7,1,23KBJZ,40.684487,-73.917493,16,41,373,3040195,3014980006,Ocean Hill                                                                 
K532,DOE,K,New Bridges Elementary,,718-363-8200,1025 Eastern Pkwy,11213,1,90,1002508,183178,kevyn@ps532newbridges.org,2,http://schools.nyc.gov/schoolportals/17/k532,3,3,17K532,40.669001,-73.934635,8,35,353,3037303,3013890035,Crown Heights North                                                        
KBOZ,NYCEEC,K,Blake & Milford DCC,<p><strong>Alert</strong>: Program may have income or other eligibility requirements. Contact for more information.</p>,718-277-2003,334 Milford St,11208,1,18,1018537,183743,Blakeandmilforddaycare@yahoo.com,3,http://blakeandmilforddaycare.com,6,1,19KBOZ,40.670868,-73.876187,5,42,1194,3393496,3040560145,East New York                                                              
K305,DOE,K,P.S. 305 Dr. Peter Ray,,718-789-3962,344 Monroe St,11216,1,18,999466,189159,jmortle@schools.nyc.gov,3,http://schools.nyc.gov/schoolportals/13/k305,3,3,13K305,40.686076,-73.945229,3,36,265,3051458,3018190014,Bedford                                                                    
KBLB,NYCEEC,K,Friends Of Crown Heights 18,<p><strong>Alert</strong>: Program may have income or other eligibility requirements. Contact for more information.</p>,929-234-2955,851 Liberty Ave,11208,1,35,1018073,186044,dkny5107@aol.com,7,http://fochdaycare.org,3,1,19KBLB,40.677112,-73.878165,5,37,1192,3088473,3039760070,East New York                                                              
KBUL,NYCEEC,K,Brooklyn Chinese American Assoc.,<p><strong>Alert</strong>: Program may have income or other eligibility requirements. Contact for more information.</p>,718-331-8809,6409 20 Ave,11204,1,35,988328,163974,michelleluo98@hotmail.com,3,,6,1,20KBUL,40.616996,-73.985354,11,47,254,3133622,3055490005,Bensonhurst West                                                           
KCNU,NYCEEC,K,Learning Zone,,718-820-2442,1729 Rockaway Pkwy,11236,1,12,1013265,172204,learningzonechildcare@gmail.com,5,http://learningzonekids.com,9,3,18KCNU,40.639342,-73.895847,18,46,1012,3231833,3082430018,Canarsie                                                                   
KAJD,NYCEEC,K,St. Anselm Catholic Academy,,718-745-7643,365 83 St,11209,1,72,976536,167089,jmckeon@diobrook.org,5,http://www.sacany.org/,9,3,20KAJD,40.625297,-74.028499,10,43,62,3152079,3060070053,Bay Ridge                                                                  
KAXW,NYCEEC,K,"Highlights Academy, Inc.",,718-953-5555,1688 President St,11213,1,40,1003224,182225,highlightsacademy@yahoo.com,3,http://highlightsacademyinc.com,8,1,17KAXW,40.667031,-73.931702,9,35,351,3037942,3014080037,Crown Heights North                                                        
KCPL,NYCEEC,K,Brooklyn Star Daycare Inc.,,718-934-0075,2175 East 22 St,11229,1,36,998422,157212,brooklynstardaycare@gmail.com,5,,9,3,22KCPL,40.598231,-73.94918,15,48,576,3199915,3073550053,Madison                                                                    
K139,DOE,K,P.S. 139 Alexine A Fenty,,718-282-5254,330 Rugby Rd,11226,1,54,993758,172958,mmcdona10@schools.nyc.gov,2,http://schools.nyc.gov/schoolportals/22/k139,7,3,22K139,40.641937,-73.965523,14,40,1522,3328235,3051440064,Flatbush                                                                   
KCPR,NYCEEC,K,Bam Bam's Playhouse,,347-613-9475,714 Banner Ave,11235,1,18,995143,151756,bam.bams.daycare1@gmail.com,5,,9,3,21KCPR,40.583372,-73.960816,13,48,366,3196537,3072640045,Brighton Beach                                                             
KBMM,NYCEEC,K,Brooklyn Chinese - American Assoc.,<p><strong>Alert</strong>: Program may have income or other eligibility requirements. Contact for more information.</p>,718-438-0008,812 54th St,11220,1,85,982644,171900,Upk@bca.net,3,http://bca.net,8,2,20KBMM,40.638557,-74.005531,12,38,106,3139119,3056720011,Sunset Park East                                                           
KAPM,NYCEEC,K,Yeshiva Toras Emes,,718-375-0900,1904 Ave N,11230,3,18,996604,163668,yetoem@aol.com,5,,9,3,22KAPM,40.616053,-73.95557,14,48,546,3398189,3067570001,Midwood                                                                    
K016,DOE,K,P.S. 016 Leonard Dunkly,,718-782-5352,157 Wilson St,11211,1,72,994790,196466,mrenny@schools.nyc.gov,2,http://schools.nyc.gov/schoolportals/14/k016,3,3,14K016,40.706023,-73.961476,1,33,535,3059906,3021770001,Williamsburg                                                               
K199,DOE,K,P.S. 199 Frederick Wachtel,,718-339-1422,1100 Elm Ave,11230,1,36,994497,163891,21k199@schools.nyc.gov,2,http://schools.nyc.gov/schoolportals/21/k199,3,3,21K199,40.616632,-73.963476,14,48,768,3180761,3067400025,Midwood                                                                    
KBMG,NYCEEC,K,Williamsburg Northside Pre - School,,718-599-7300,299 North 7th St,11211,3,58,997350,199773,tsmith@willnorth.org,8,http://willnorth.org,4,2,14KBMG,40.71488,-73.952965,1,33,519,3062015,3023230045,North Side-South Side                                                      
KBNL,NYCEEC,K,Bedford Stuyvesant ECDC 265,,718-455-5565,813 Hancock St,11233,3,48,1005651,189151,mimsd@bsecdc.org,3,,7,1,16KBNL,40.685698,-73.922579,3,41,375,3039902,3014870074,Stuyvesant Heights                                                         
K009,DOE,K,P.S. 009 Teunis G Bergen,,718-638-3260,80 Underhill Ave,11238,1,90,993700,186368,sdavila@schools.nyc.gov,2,http://ps9brooklyn.org,3,3,13K009,40.678297,-73.965541,8,35,205,3028204,3011450026,Prospect Heights                                                           
K327,DOE,K,P.S. 327 Dr. Rose B English,,718-495-7801,111 Bristol St,11212,1,36,1008639,182807,kchance@schools.nyc.gov,2,http://schools.nyc.gov/schoolportals/23/k327,3,3,23K327,40.668475,-73.912351,16,41,924,3081032,3035200008,Brownsville                                                                
KBXV,NYCEEC,K,Yeled V'Yalda 6012,,718-209-1122,6002 Farragut Rd,11236,3,91,1006863,171572,hthau@yeled.org,3,,3,1,18KBXV,40.637519,-73.919057,18,46,950,3406498,3079820040,Canarsie                                                                   
KASZ,NYCEEC,K,East Midwood Hebrew Day School,,718-253-1555,1256 East 21st St,11210,1,34,996742,166085,regina2@emhds.org,3,http://emhds.org,3,2,22KASZ,40.622596,-73.954755,14,45,760,3208324,3076200057,Midwood                                                                    
KAJW,NYCEEC,K,St. Francis Of Assisi,,718-778-3700,400 Lincoln Rd,11225,1,36,998382,180267,c14upk@yahoo.com,5,http://sfabrooklyn.org,3,1,17KAJW,40.661638,-73.949441,9,40,804,3106502,3047910023,Prospect Lefferts Gardens-Wingate                                          
KAHA,NYCEEC,K,Masores Bais Yaakov,,718-692-2424,1395 Ocean Ave,11230,3,60,996304,168211,g.celnik@masores.com,5,,9,3,22KAHA,40.628339,-73.956881,14,45,772,3206224,3075660006,Flatbush                                                                   
KBNO,NYCEEC,K,Billy Martin CDC,<p><strong>Alert</strong>: Program may have income or other eligibility requirements. Contact for more information.</p>,718-857-5630,333 Classon Ave,11205,1,18,995371,190628,billymartin333@yahoo.com,5,,9,3,13KBNO,40.689768,-73.960169,3,35,233,3321871,3019380001,Bedford                                                                    
K066,DOE,K,P.S. 66,,718-922-3505,845 East 96 St,11236,1,18,1010047,175668,ljackso17@schools.nyc.gov,3,http://schools.nyc.gov/schoolportals/18/k066,3,3,18K066,40.64883,-73.907774,18,42,970,3325418,3081290060,Canarsie                                                                   
K253,DOE,K,P.S. 253,,718-332-3331,601 Oceanview Ave,11235,1,36,994847,150547,lsperon@schools.nyc.gov,3,http://schools.nyc.gov/schoolportals/21/k253,3,3,21K253,40.579607,-73.962071,13,48,364,3244470,3086660610,Brighton Beach                                                             
K129,CHARTER,K,Success Academy Charter School - Cobble Hill Pre - Kindergarten,,718-704-1460,284 Baltic St,11201,1,18,986088,188932,SACH.MainOffice@saschools.org,5,http://successacademies.org/schools/cobble-hill/,9,3,15K129,40.685419,-73.993351,6,33,69,3006401,3004020001,DUMBO-Vinegar Hill-Downtown Brooklyn-Boerum Hill                           
KCPY,NYCEEC,K,Tiny Bumblebees,,718-975-3232,2848 Brighton 7 St,11235,1,11,994744,151313,farida.jafri@gmail.com,5,,9,3,21KCPY,40.582365,-73.962105,13,48,366,3392249,3000000000,Brighton Beach                                                             
KAFZ,NYCEEC,K,HIDEC,,718-377-7507,1401 Ave I,11230,1,48,994623,167956,hidec@verizon.net,3,,3,2,21KAFZ,40.627493,-73.962638,14,45,530,3179326,3066980051,Midwood                                                                    
K040,DOE,K,P.S. 040 George W Carver,,718-574-2353,265 Ralph Ave,11233,1,36,1005913,187134,lhibber@schools.nyc.gov,3,http://schools.nyc.gov/schoolportals/16/k040,3,3,16K040,40.680463,-73.922264,3,41,379,3041214,3015180001,Stuyvesant Heights                                                         
K250,DOE,K,P.S. 250 George H Lindsay,,718-384-0889,108 Montrose Ave,11206,1,36,999425,196814,nbarnes2@schools.nyc.gov,2,http://schools.nyc.gov/schoolportals/14/k250,7,3,14K250,40.707104,-73.945475,1,34,505,3071199,3030600001,East Williamsburg                                                          
K135,DOE,K,P.S. 135 Sheldon A Brookner,,718-693-4363,684 Linden Blvd,11203,1,36,1002848,177315,tmcrae2@schools.nyc.gov,2,http://schools.nyc.gov/schoolportals/18/k135,7,3,18K135,40.65364,-73.933114,17,41,870,3102005,3046730001,East Flatbush-Farragut                                                     
K147,DOE,K,P.S. 147 Isaac Remsen,,718-497-0326,325 Bushwick Ave,11206,1,54,1001203,196190,snoyola@schools.nyc.gov,3,http://ps147brooklyn.org/,3,3,14K147,40.705204,-73.939407,1,34,485,3071418,3030910001,Bushwick South                                                             
K627,DOE,K,Brighter Choice Community School,,718-574-2378,280 Hart St,11206,1,18,1000626,192069,fmcintosh2@schools.nyc.gov,2,http://schools.nyc.gov/schoolportals/16/k627,3,3,16K627,40.694086,-73.940744,3,36,281,3049420,3017730014,Stuyvesant Heights                                                         
KBAY,NYCEEC,K,Bet Yaakov Ateret Torah,,718-375-7100,2166 Coney Is Ave,11223,3,40,994746,159360,psoffice@ateret.net,4,,3,1,21KBAY,40.6042,-73.961654,15,48,416,3394079,3066850034,Homecrest                                                                  
KCHX,NYCEEC,K,Dezzenterprise LLC,,917-207-2438,3524 Neptune Ave,11224,1,12,983726,149443,info@dezzenterprise.com,3,http://dezzenterprise.com,4,2,21KCHX,40.577077,-74.001444,13,47,328,3188708,3070050002,Seagate-Coney Island                                                       
KCJZ,NYCEEC,K,COPO Prek Program,,718-434-3266,1083 Coney Is Ave,11230,1,18,993635,169229,fhaq@copousa.org,3,http://copousa.org,7,2,22KCJZ,40.631035,-73.966433,14,45,528,3178915,3066860076,Flatbush                                                                   
KCGT,NYCEEC,K,Gold Material Montessori School,,718-801-2155,105 Kings Hwy,11214,1,40,987606,160196,maksim@goldmaterial.com,5,http://goldmaterial.com,9,3,21KCGT,40.606196,-73.987791,11,44,428,3329040,3062537502,Bensonhurst East                                                           
K084,DOE,K,P.S. 084 Jose De Diego,,718-384-8063,250 Berry St,11211,1,72,994436,199724,srodrig12@schools.nyc.gov,2,http://schools.nyc.gov/schoolportals/14/k084,3,3,14K084,40.714785,-73.963,1,34,551,3062766,3023910001,North Side-South Side                                                      
KCJY,NYCEEC,K,Angel ECDC,,718-259-0888,1436 67th St 1st Floor,11219,1,32,984335,166178,angeldaycare67@gmail.com,7,,7,1,20KCJY,40.622942,-73.999643,11,43,190,3142954,3057690023,Bensonhurst West                                                           
KCDM,NYCEEC,K,Butterfly DCC,,718-646-6272,2770 East 16th St,11235,1,20,997337,152095,sgontchar@yahoo.com,7,http://butterflydaycarecenter.com,7,1,21KCDM,40.584237,-73.952711,15,48,608,3246964,3087690036,Sheepshead Bay-Gerritsen Beach-Manhattan Beach                             
KAOV,NYCEEC,K,Yeshiva Ohr Shraga,,718-252-7777,1102 Ave L,11230,1,28,994249,165097,generaloffice@ohrshraga.org,3,http://ohrshraga.org,3,1,21KAOV,40.619994,-73.964101,14,44,768,3329237,3067310001,Midwood                                                                    
K059,DOE,K,P.S. 059 William Floyd,,718-443-3600,211 Throop Ave,11206,1,36,999930,193336,dbest2@schools.nyc.gov,3,http://schools.nyc.gov/schoolportals/14/k059,3,3,14K059,40.696733,-73.943652,3,36,28502,3048546,3017490001,Stuyvesant Heights                                                         
KBOP,NYCEEC,K,Traditional DCC,<p><strong>Alert</strong>: Program may have income or other eligibility requirements. Contact for more information.</p>,917-306-2070,1112 Winthrop St,11212,1,36,1005645,180421,marishaking@gmail.com,5,,9,3,18KBOP,40.662008,-73.923061,17,41,884,3100654,3046310007,Rugby-Remsen Village                                                       
KBJL,NYCEEC,K,Saratoga - Morris Koppelman Center,<p><strong>Alert</strong>: Program may have income or other eligibility requirements. Contact for more information.</p>,718-345-6666,774 Saratoga Ave,11212,1,40,1007616,180367,SAndrews@sco.org,3,http://sco.org,3,1,23KBJL,40.661915,-73.915578,16,41,894,3326658,3035680001,Brownsville                                                                
K089,DOE,K,P.S. 089 Cypress Hills,,718-964-1180,265 Warwick St,11207,1,18,1015669,186210,vrodrig4@schools.nyc.gov,2,http://schools.nyc.gov/schoolportals/19/k089,7,3,19K089,40.677697,-73.886936,5,37,1170,3397079,3039520047,East New York                                                              
K217,DOE,K,P.S. 217 Colonel David Marcus School,,718-434-6960,1100 Newkirk Ave,11230,1,54,993573,170160,fconti@schools.nyc.gov,2,http://schools.nyc.gov/schoolportals/22/k217,1,3,22K217,40.63398,-73.966558,14,40,526,3121072,3052320001,Flatbush                                                                   
KBLM,NYCEEC,K,"Salvation Army, Bedford",<p><strong>Alert</strong>: Program may have income or other eligibility requirements. Contact for more information.</p>,718-552-2690,110 Kosciusko St,11216,1,116,997939,190854,Sarah.Fay@USE.SalvationArmy.Org,3,http://ny.salvationarmy.org/greaternewyork/daycare-programs,3,1,13KBLM,40.690709,-73.950562,3,36,253,3049768,3017840011,Bedford                                                                    
KABG,NYCEEC,K,Yeshiva Jesode Hatorah,,718-302-7500,563 Bedford Ave,11211,3,34,994502,196556,vien@thejnet.com,4,,7,1,14KABG,40.704135,-73.96112,1,33,535,3060116,3021930007,Williamsburg                                                               
KBON,NYCEEC,K,The Children's Center @ SUNY Brooklyn,,718-221-6160,440 Lenox Rd,11203,1,16,999615,177570,maryann.moran@downstate.edu,5,,9,3,18KBON,40.6545,-73.944495,17,40,816,3108105,3048560012,East Flatbush-Farragut                                                     
K328,DOE,K,P.S. 328 Phyllis Wheatley,,718-345-9393,330 Alabama Ave,11207,1,36,1012561,182536,bgedach@schools.nyc.gov,2,http://schools.nyc.gov/schoolportals/19/k328,3,3,19K328,40.668167,-73.897835,5,42,1134,3084283,3037680001,East New York (Pennsylvania Ave)                                           
KBDT,NYCEEC,K,Mary Bobb Learning Academy,,718-604-4400,1187 Nostrand Ave,11225,1,91,998081,179139,MaryBobbLearningAcademy@gmail.com,3,http://marybobb.com,2,1,17KBDT,40.65835,-73.95037,9,40,804,3107261,3048140007,Prospect Lefferts Gardens-Wingate                                          
KAXU,NYCEEC,K,University Settlement Children's Corner,<p><strong>Alert</strong>: Program may have income or other eligibility requirements. Contact for more information.</p>,212-453-4595,565 Livonia Ave,11207,1,68,1013032,181436,kcohen@universitysettlement.org,2,http://universitysettlement.org,3,2,19KAXU,40.664416,-73.896352,5,42,1130,3084621,3038030046,East New York (Pennsylvania Ave)                                           
Z010,DOE,K,Pre - K Center At 2202 60th Street,,212-637-8000,2202 60th St,11204,1,108,990313,163782,pre-k@schools.nyc.gov,5,,9,3,21Z010,40.616479,-73.978093,12,44,446,3329154,3065490001,Borough Park                                                               
KAWX,NYCEEC,K,PAL World Of Creative Experiences Head Start,<p><strong>Alert</strong>: Program may have income or other eligibility requirements. Contact for more information.</p>,718-345-5219,280 Livonia Ave,11212,1,117,1010003,180674,dwhite@palnyc.org,3,http://palnyc.org,7,1,23KAWX,40.662765,-73.907449,16,42,918,3326581,3035900011,Brownsville                                                                
K152,DOE,K,School Of Science & Technology,,718-434-5222,725 East 23 St,11210,1,18,996920,169771,csheldr@schools.nyc.gov,2,http://schools.nyc.gov/schoolportals/22/k152,7,3,22K152,40.632562,-73.954724,14,45,772,3205780,3075510026,Flatbush                                                                   
KBOA,NYCEEC,K,Our Children's Center,,718-260-5192,300 Jay St Room G309,11201,1,25,987728,192587,jwallace@citytech.cuny.edu,3,,3,1,13KBOA,40.695547,-73.98714,2,33,13,3335892,3001280001,DUMBO-Vinegar Hill-Downtown Brooklyn-Boerum Hill                           
KCKV,NYCEEC,K,Little Nest Preschool,,718-484-0033,511 Church Ave,11218,1,18,991088,174161,info@littlenestpreschool.com,5,http://littlenestpreschool.com,6,1,15KCKV,40.644478,-73.975468,12,39,496,3124690,3053380033,Kensington-Ocean Parkway                                                   
KBRI,NYCEEC,K,Rainbow DCC,,718-377-2918,3846 Flatlands Ave,11234,1,20,1001586,165017,rainbowdaycarecenter@me.com,8,http://rainbowdaycarecenter.org,8,1,22KBRI,40.619733,-73.937662,18,45,648,3219249,3078580047,Georgetown-Marine Park-Bergen Beach-Mill Basin                             
KCNW,NYCEEC,K,Okie Dokie Day Care,,646-261-0936,1002 65th St,11219,1,28,981992,168708,nita1022@gmail.com,5,,9,3,20KCNW,40.629749,-74.007771,10,38,212,3142155,3057510007,Dyker Heights                                                              
KCEB,NYCEEC,K,Brooklyn Chinese - American Assoc.,,718-438-0008,871 50th St,11220,2,72,983756,172508,haney@bca.net,2,http://bca.net,6,2,20KCEB,40.640257,-74.00227,12,38,108,3397381,3056377502,Sunset Park East                                                           
Z011,DOE,K,Pre - K Center At 1258 65th Street,,718-234-4519,1258 65th St,11219,1,140,983570,167431,DGounar@schools.nyc.gov,5,,9,3,20Z011,40.626555,-74.002486,10,38,194,3328857,3057530026,Dyker Heights                                                              
KCAP,NYCEEC,K,"Little Stars Daycare Center, Inc.",,718-673-3092,588 Brooklyn Ave,11203,1,18,999360,179703,littlestarsdayschool@gmail.com,5,http://littlestars-dayschool.com,9,3,17KCAP,40.659915,-73.94537,9,40,810,3106968,3048020031,Prospect Lefferts Gardens-Wingate                                          
K256,DOE,K,P.S. 256 Benjamin Banneker,,718-857-9820,114 Kosciusko St,11216,1,18,998224,190889,shemphi@schools.nyc.gov,2,http://schools.nyc.gov/schoolportals/13/k256,3,3,13K256,40.690725,-73.950433,3,36,253,3049769,3017840020,Bedford                                                                    
KCOJ,NYCEEC,K,Candy Kid's DCC,,718-287-6200,3212 Church Ave,11226,1,18,998899,176369,janlwrn@verizon.net,5,,9,3,17KCOJ,40.650903,-73.947424,17,40,824,3109326,3048860005,Erasmus                                                                    
KCJQ,NYCEEC,K,Initial Steps CDC,,718-434-2805,3003 Glenwood Rd,11210,1,20,998809,170336,initialstepscdc@yahoo.com,3,,7,1,22KCJQ,40.634017,-73.947614,17,45,786,3113943,3050050009,Flatbush                                                                   
KBLP,NYCEEC,K,Grand Street Settlement Dual #3,<p><strong>Alert</strong>: Program may have income or other eligibility requirements. Contact for more information.</p>,718-381-8900,319 Stanhope St,11237,1,40,1006862,195405,rebecarodriguez@grandsettlement.org,3,http://grandsettlement.org,2,2,32KBLP,40.70285,-73.918336,4,37,443,3074237,3032590023,Bushwick North                                                             
K181,DOE,K,P.S. 181 Brooklyn,,718-462-5298,1023 New York Ave,11203,1,28,999237,175436,kgrady@schools.nyc.gov,3,http://schools.nyc.gov/schoolportals/17/k181,3,3,17K181,40.648215,-73.946374,17,45,856,3327776,3049040010,East Flatbush-Farragut                                                     
KBRT,NYCEEC,K,Salvation Army - Brownsville DCC,<p><strong>Alert</strong>: Program may have income or other eligibility requirements. Contact for more information.</p>,718-345-2488,280 Riverdale Ave 1,11212,1,38,1010265,180170,Kimberly.Durham-Carr@use.salvationarmy.org,3,http://salvationarmy.org,3,2,23KBRT,40.661364,-73.906124,16,42,918,3082390,3036050010,Brownsville                                                                
KBME,NYCEEC,K,Nuestros Ninos DCC II,<p><strong>Alert</strong>: Program may have income or other eligibility requirements. Contact for more information.</p>,718-218-8275,243 South 2nd St,11211,1,28,995956,198655,NuestrosNinosCDS@aol.com,2,,7,1,14KBME,40.711824,-73.958096,1,34,523,3256381,3024080032,North Side-South Side                                                      
K446,DOE,K,Riverdale Avenue Community School,,718-485-1679,76 Riverdale Ave,11212,1,54,1008226,179691,info@riverdaleavenuebrooklyn.org,3,http://schools.nyc.gov/schoolportals/23/k446,3,1,23K446,40.660204,-73.913933,16,42,896,3082253,3035970011,Brownsville                                                                
KAJR,NYCEEC,K,Heartshare Human Services Of New York,,718-238-4637,1825 Bath Ave,11214,1,40,982809,159201,jill.fitzgerald@heartshare.org,2,http://heartshare.org,8,2,20KAJR,40.603405,-74.005247,11,43,280,3336446,3064040029,Bath Beach                                                                 
KCPE,NYCEEC,K,Little Scholars II,,917-774-6505,448 Neptune Ave,11224,1,18,992545,150381,littlescholarsnyc2@gmail.com,5,,9,3,21KCPE,40.579867,-73.970207,13,48,35602,3196581,3072740015,West Brighton                                                              
KCJC,NYCEEC,K,Blue Star DCC,,718-703-0009,2217 Caton Ave,11226,1,36,996273,177158,bluestarofnewyork@gmail.com,3,,6,1,17KCJC,40.652781,-73.956775,14,40,79602,3396958,3050837502,Prospect Lefferts Gardens-Wingate                                          
KABN,NYCEEC,K,Barkai Yeshivah,,718-998-7473,5302 21 Ave,11204,3,40,990677,165898,bmorano@barkaionline.org,5,,9,3,21KABN,40.622029,-73.976845,12,44,464,3131092,3054951138,Borough Park                                                               
K195,DOE,K,P.S. 195 Manhattan Beach,,718-648-9102,131 Irwin St,11235,1,18,999917,150530,btoomey@schools.nyc.gov,2,http://schools.nyc.gov/schoolportals/22/k195,1,3,22K195,40.579451,-73.943819,15,48,620,3246519,3087520035,Sheepshead Bay-Gerritsen Beach-Manhattan Beach                             
KAKI,NYCEEC,K,St. Peter Catholic Academy,,718-372-0025,8401 23rd Ave,11214,1,72,986936,158403,smmjsfc@aol.com,5,http://stpeteracademy-brooklyn.org/,9,3,21KAKI,40.601656,-73.990468,11,47,298,3329173,3068550001,Bensonhurst East                                                           
KCNN,NYCEEC,K,"Little Brilliant Minds, Inc.",,718-234-6463,5916 20th Ave,11204,1,15,989023,165054,littlebrilliantminds@gmail.com,5,http://littlebrilliantminds.com,9,3,20KCNN,40.619815,-73.98245,12,44,244,3131902,3055130044,Borough Park                                                               
KBPK,NYCEEC,K,United Community DCC,<p><strong>Alert</strong>: Program may have income or other eligibility requirements. Contact for more information.</p>,718-385-1201,613 New Lots Ave,11207,1,66,1015693,181520,sylvenmiller@yahoo.com,3,http://ucceny.org,4,1,19KBPK,40.664728,-73.886561,5,42,1124,3090717,3040890025,East New York                                                              
KAYU,NYCEEC,K,"Bambi DCC, Inc.",,718-771-1603,300 Rogers Ave,11225,1,58,997056,181950,bambicare@gmail.com,3,http://bambidcc.com,7,1,17KAYU,40.666084,-73.953652,9,35,323,3034151,3012950145,Crown Heights South                                                        
KBNV,NYCEEC,K,Friends Of Crown Heights #16,<p><strong>Alert</strong>: Program may have income or other eligibility requirements. Contact for more information.</p>,718-778-8558,963 Park Pl,11213,1,17,999342,184615,crafton34@gmail.com,3,,2,1,17KBNV,40.673192,-73.945799,8,36,341,3031302,3012350058,Crown Heights North                                                        
KCLI,NYCEEC,K,"Yeshivat Beth Hillel Of Krasna, Inc.",,212-929-0839,1360 42 St,11219,1,36,987964,171682,duvivogel@gmail.com,5,,9,3,20KCLI,40.63817,-73.986773,12,39,232,3135945,3055990030,Borough Park                                                               
KBNR,NYCEEC,K,Mary McLeod Bethune CDC,,718-455-5137,360 Pulaski St,11206,1,36,1001889,191976,marybethune360@gmail.com,3,http://marymcleodbethunechilddevelopmentcenter.com,3,1,16KBNR,40.693836,-73.936392,3,36,289,3324973,3015980001,Stuyvesant Heights                                                         
K306,DOE,K,P.S. 306 Ethan Allen,,718-649-3155,970 Vermont St,11207,1,54,1015725,178099,lburrou2@schools.nyc.gov,2,http://schools.nyc.gov/schoolportals/19/k306,3,3,19K306,40.655997,-73.886547,5,42,1104,3097873,3043920001,East New York                                                              
KAZZ,NYCEEC,K,Cornerstone DCC,<p><strong>Alert</strong>: Program may have income or other eligibility requirements. Contact for more information.</p>,718-574-8300,289 Lewis Ave,11221,1,20,1002163,189190,cornerstonedcc@aol.com,3,,3,1,16KAZZ,40.68592,-73.935624,3,36,293,3045189,3016450076,Stuyvesant Heights                                                         
KBUM,NYCEEC,K,Bumble Bees R Us 3,<p><strong>Alert</strong>: Program may have income or other eligibility requirements. Contact for more information.</p>,718-434-2337,2813 Farragut Rd,11210,1,26,998301,171133,info@bumblebeesrus.com,3,http://bumblebeesrus.com,2,1,22KBUM,40.636175,-73.949702,14,45,788,3120967,3052300003,Flatbush                                                                   
KBEB,NYCEEC,K,New Life CDC 4,<p><strong>Alert</strong>: Program may have income or other eligibility requirements. Contact for more information.</p>,718-366-1668,1307 Greene Ave,11237,1,74,1006606,193748,lilibeth_1307@hotmail.com,3,,2,1,32KBEB,40.698371,-73.919235,4,37,431,3319570,3032870021,Bushwick North                                                             
K013,DOE,K,P.S. 013 Roberto Clemente,,718-498-3717,557 Pennsylvania Ave,11207,1,36,1013831,181130,mcameron2@schools.nyc.gov,2,http://schools.nyc.gov/schoolportals/19/k013,3,3,19K013,40.663673,-73.893754,5,42,1126,3085070,3038230001,East New York (Pennsylvania Ave)                                           
KBOW,NYCEEC,K,Friends Of Crown Heights,,718-284-2184,141 East 40th St,11203,1,36,1000942,176919,saddler@foch.biz,3,http://fochdaycare.com,7,1,18KBOW,40.65228,-73.940122,17,41,814,3108957,3048770052,East Flatbush-Farragut                                                     
K224,DOE,K,P.S. 224 Hale A Woodruff,,718-235-3600,757 Wortman Ave,11208,1,54,1021434,181544,gandrews@schools.nyc.gov,3,http://schools.nyc.gov/schoolportals/19/k224,3,3,19K224,40.664075,-73.866092,5,42,1220,3098980,3045300001,East New York                                                              
K121,DOE,K,P.S. 121 Nelson A Rockefeller,,718-377-8845,5301 20 Ave,11204,1,18,990132,166212,cmagrone@schools.nyc.gov,2,http://schools.nyc.gov/schoolportals/21/k121,3,3,21K121,40.623273,-73.978822,12,44,464,3253281,3054951101,Borough Park                                                               
KBNI,NYCEEC,K,Bedford - Stuyvesant ECDC,,718-453-0605,214 Stuyvesant Ave,11221,1,37,1002766,189860,rattanik@bsecdc.org,3,,6,2,16KBNI,40.687985,-73.933065,3,36,293,3044631,3016350041,Stuyvesant Heights                                                         
KCHR,NYCEEC,K,"Apple Tree Day Care, Inc.",,718-287-7488,440 East 48th St,11203,1,40,1002981,176464,tjcole265@aol.com,3,,6,1,18KCHR,40.651024,-73.932266,17,45,860,3102758,3046950017,East Flatbush-Farragut                                                     
K018,DOE,K,P.S. 018 Edward Bush,,718-387-3241,101 Maujer St,11206,1,36,998970,198249,aalexan4@schools.nyc.gov,2,http://schools.nyc.gov/schoolportals/14/k018,3,3,14K018,40.710609,-73.946977,1,34,503,3069559,3027870001,East Williamsburg                                                          
K380,DOE,K,P.S. 380 John Wayne Elementary,,718-388-0607,370 Marcy Ave,11206,1,82,997157,195047,enunez2@schools.nyc.gov,2,http://schools.nyc.gov/schoolportals/14/k380,3,3,14K380,40.702427,-73.952985,1,33,531,3061235,3022360009,Bedford                                                                    
K315,DOE,K,P.S. K315,,718-421-9560,2310 Glenwood Rd,11210,1,18,996903,169868,jranft@schools.nyc.gov,5,http://schools.nyc.gov/schoolportals/22/k315,9,3,22K315,40.633232,-73.954655,14,45,772,3205780,3075510026,Flatbush                                                                   
K090,DOE,K,P.S. 90 Edna Cohen School,,718-787-3333,2840 West 12 St,11224,1,90,989819,149880,ghawkins@schools.nyc.gov,3,http://schools.nyc.gov/schoolportals/21/k090,3,3,21K090,40.578255,-73.979628,13,47,350,3196558,3072660040,West Brighton                                                              
K222,DOE,K,P.S. 222 Katherine R Snyder,,718-998-4298,3301 Quentin Rd,11234,1,36,1001227,162862,tolivie@schools.nyc.gov,2,http://schools.nyc.gov/schoolportals/22/k222,3,3,22K222,40.613317,-73.938871,18,46,646,3212254,3077060001,Georgetown-Marine Park-Bergen Beach-Mill Basin                             
K032,DOE,K,P.S. 032 Samuel Mills Sprole,,718-222-6400,317 Hoyt St,11231,1,30,986550,187189,dflorio@schools.nyc.gov,3,http://schools.nyc.gov/schoolportals/15/k032,7,3,15K032,40.680445,-73.991949,6,39,75,3395587,3004370001,Carroll Gardens-Columbia Street-Red Hook                                   
K044,DOE,K,P.S. 044 Marcus Garvey,,718-834-6939,432 Monroe St,11221,1,36,1000624,189327,rjames6@schools.nyc.gov,2,http://schools.nyc.gov/schoolportals/13/k044,3,3,13K044,40.686592,-73.940747,3,36,277,3051540,3018210001,Stuyvesant Heights                                                         
K109,DOE,K,P.S. 109,,718-693-3426,1001 East 45 St,11203,1,54,1002852,171265,dchase2@schools.nyc.gov,2,http://schools.nyc.gov/schoolportals/22/k109,3,3,22K109,40.636455,-73.933582,17,45,836,3114526,3050220002,East Flatbush-Farragut                                                     
KBFC,NYCEEC,K,Shirley Chisholm CCC Site 4 Somers,<p><strong>Alert</strong>: Program may have income or other eligibility requirements. Contact for more information.</p>,718-498-6200,33 Somers St,11233,1,36,1008674,186600,shirleychisholmdcc4@live.com,3,,7,2,23KBFC,40.678664,-73.912016,16,41,371,3041852,3015380046,Ocean Hill                                                                 
K346,DOE,K,P.S. 346 Abe Stark,,718-642-3000,1400 Pennsylvania Ave,11239,1,90,1017065,175010,kcaifa@schools.nyc.gov,2,http://schools.nyc.gov/schoolportals/19/k346,7,3,19K346,40.64726,-73.881114,5,42,105804,3098294,3044520025,Starrett City                                                              
KCFV,NYCEEC,K,Magic Kingdom LLC,,347-793-0180,5215 Church Ave,11203,2,27,1004246,176982,boydilene@gmail.com,5,,9,3,18KCFV,40.652221,-73.928236,17,41,868,3102219,3046780041,Rugby-Remsen Village                                                       
KCKY,NYCEEC,K,Queen Of The Rosary Catholic Academy,,718-388-7992,11 Catherine St,11211,1,36,1001486,199184,marian_hernandez@verizon.net,5,http://queenoftherosarybrooklyn.org,9,3,14KCKY,40.713264,-73.937387,1,34,481,3331619,3029210023,East Williamsburg                                                          
KAJE,NYCEEC,K,St. Athanasius School,,718-236-4791,6120 Bay Pkwy,11204,1,60,989910,163686,dianecompetello@gmail.com,5,http://stathanasiusschool.org,9,3,21KAJE,40.615966,-73.979239,11,47,246,3132669,3055290034,Borough Park                                                               
KBKH,NYCEEC,K,Bushwick United HDFC 9,<p><strong>Alert</strong>: Program may have income or other eligibility requirements. Contact for more information.</p>,347-497-3676,741 Flushing Ave,11206,1,29,1000023,194589,,3,http://bushwickunited.org/,8,2,14KBKH,40.700603,-73.943003,1,33,507,3335515,3022760037,Bedford                                                                    
KBKB,NYCEEC,K,Strong Place For Hope DCC - Atlantic,<p><strong>Alert</strong>: Program may have income or other eligibility requirements. Contact for more information.</p>,718-522-1351,460 Atlantic Ave,11217,1,32,988947,189201,Jrogers775@gmail.com,3,http://strongplaceforhopedaycare.com,3,1,15KBKB,40.686296,-73.983223,2,33,41,3000937,3001840025,DUMBO-Vinegar Hill-Downtown Brooklyn-Boerum Hill                           
KBWQ,NYCEEC,K,Family Head Start Coney Island,<p><strong>Alert</strong>: Program may have income or other eligibility requirements. Contact for more information.</p>,718-265-7760,2960 West 27th St,11224,1,28,986177,148311,west27street@gmail.com,3,,3,1,21KBWQ,40.573668,-73.992869,13,47,342,3339183,3070520034,Seagate-Coney Island                                                       
KBNN,NYCEEC,K,Bedford - Stuyvesant ECDC,,718-453-0681,971 Dekalb Ave,11221,1,20,1001863,191894,gonzalezt@bsecdc.org,3,,2,1,16KBNN,40.693101,-73.936421,3,36,289,3324973,3015980001,Stuyvesant Heights                                                         
K230,DOE,K,P.S. 230 Doris L Cohen,,718-437-6135,1 Albemarle Rd,11218,1,72,989675,174378,mdellaragione@schools.nyc.gov,3,http://schools.nyc.gov/schoolportals/15/k230,2,3,15K230,40.645017,-73.980761,12,39,498,3124109,3053230032,Kensington-Ocean Parkway                                                   
KBNP,NYCEEC,K,Community Parents Head Start,<p><strong>Alert</strong>: Program may have income or other eligibility requirements. Contact for more information.</p>,718-771-4002,90 Chauncey St,11233,1,30,1003712,187088,cycummings@optimum.net,3,,7,1,16KBNP,40.680282,-73.930445,3,36,297,3325183,3016910012,Crown Heights North                                                        
K599,DOE,K,Brooklyn Landmark Elementary School,,718-443-2747,251 Mcdougal St,11233,1,36,1009065,187213,bklandmark@gmail.com,3,http://schools.nyc.gov/schoolportals/23/k599,3,3,23K599,40.680318,-73.910644,16,37,369,3041561,3015280001,Ocean Hill                                                                 
KCIX,NYCEEC,K,IP Kids,,718-621-7818,2631 86 St,11223,1,80,988589,156579,James.Lee@gmail.com,3,http://ipkids.com,3,2,21KCIX,40.596232,-73.984383,11,47,402,3397177,3070920024,Bensonhurst East                                                           
KBRA,NYCEEC,K,Bushwick United HDFC 7,<p><strong>Alert</strong>: Program may have income or other eligibility requirements. Contact for more information.</p>,718-443-0134,600 Hart St,11221,1,55,1004161,193357,JUANC@BUSHWICKUNITED.ORG,3,http://bushwickunited.org,4,1,32KBRA,40.69752,-73.928281,4,34,423,3073394,3032270010,Bushwick South                                                             
KCEG,NYCEEC,K,Imagine Dumbo - Adams,,718-522-2263,85 Adams St,11201,1,11,987478,194940,caroline@imagineelc.com,5,http://imagineelc.com,6,1,13KCEG,40.701816,-73.988596,2,33,21,3391222,3000527501,DUMBO-Vinegar Hill-Downtown Brooklyn-Boerum Hill                           
KCAK,NYCEEC,K,Kindstart Preschool,,917-834-4776,7702 New Utrecht Ave,11214,1,20,984073,163035,Sooobad6@aol.com,5,http://kindstartpreschool.org,2,2,20KCAK,40.614044,-74.000443,11,43,182,3161386,3062470026,Bensonhurst West                                                           
KBVX,NYCEEC,K,Yeled V'Yalda 667,,718-514-8712,667 Eastern Pkwy,11213,3,54,999237,183401,mhorowitz@yeled.org,3,http://yeled.org,3,1,17KBVX,40.669635,-73.946205,8,35,337,3032753,3012630044,Crown Heights North                                                        
KBMC,NYCEEC,K,Small World,,718-963-0330,211 Ainslie St,11211,1,40,999340,199081,mrochford@stnicksalliance.org,3,,3,1,14KBMC,40.712972,-73.945453,1,34,495,3069039,3027700001,East Williamsburg                                                          
KBKW,NYCEEC,K,Baais Yaakov Faigeh Of Schonberger Of Adas Yereim,,718-435-5111,1169 43rd St,11219,3,36,986662,172538,yleifer@adasyereim.org,3,,3,1,15KBKW,40.640281,-73.991741,12,39,224,3135866,3055970053,Borough Park                                                               
KCNA,NYCEEC,K,"The Friends Of Crown Heights Educational Centers, Inc.",,718-638-8686,2809 Newkirk Ave,11226,1,36,998141,172469,davis@foch.biz,5,http://fochdaycare.org,9,3,22KCNA,40.639892,-73.950124,17,45,828,3333905,3052150024,Erasmus                                                                    
K255,DOE,K,P.S. 255 Barbara Reing School,,718-376-8494,1866 East 17 St,11229,1,46,996523,159403,22k255@schools.nyc.gov,2,http://ps255.org,3,3,22K255,40.604349,-73.955528,15,48,558,3184034,3068210123,Madison                                                                    
KBAZ,NYCEEC,K,Nat Azarow Children's Center,<p><strong>Alert</strong>: Program may have income or other eligibility requirements. Contact for more information.</p>,718-346-0924,232 Powell St,11212,1,40,1010873,182961,jcroskey@bksny.org,3,http://bksny.org,7,1,23KBAZ,40.668946,-73.903789,16,41,908,3084013,3037450001,Brownsville                                                                
KALT,NYCEEC,K,"Cheder, The",,718-252-6333,129 Elmwood Ave,11230,1,40,991104,167799,cheder_upk@netzero.net,3,,3,2,21KALT,40.627087,-73.975748,12,44,46201,3398191,3064990058,Flatbush                                                                   
KBIZ,NYCEEC,K,Shalva UPK I,,718-438-0060,1363 50 St,11219,1,60,986780,170117,YYS@BobovSchool.com,5,,9,3,20KBIZ,40.633685,-73.991389,12,44,236,3137765,3056420048,Borough Park                                                               
KCLF,NYCEEC,K,"Ira's Daycare And Preschool Inc., III",,718-739-6500,900 Lenox Rd,11203,1,54,1004738,178086,rogersdorinda@gmail.com,5,,9,3,18KCLF,40.655612,-73.926153,17,41,866,3392635,3046607501,Rugby-Remsen Village                                                       
KCEH,NYCEEC,K,Imagine Brooklyn Heights,,718-624-7520,50 Monroe Pl,11201,1,20,986272,192646,Sally@imagineelc.com,5,http://imagineelc.com,2,1,13KCEH,40.695717,-73.992831,2,33,502,3001917,3002380007,Brooklyn Heights-Cobble Hill                                               
KAAE,NYCEEC,K,Adelphi Academy Of Brooklyn,,718-238-3308,8515 Rdg Blvd,11209,1,36,975045,166820,romanosi@adelphinyc.org,5,,9,3,20KAAE,40.624746,-74.03347,10,43,62,3328998,3060330001,Bay Ridge                                                                  
KBBE,NYCEEC,K,PAL Carey Gardens,<p><strong>Alert</strong>: Program may have income or other eligibility requirements. Contact for more information.</p>,718-372-4044,2964 West 23rd St,11224,1,21,987018,148546,Kchase@palnyc.org,3,http://palnyc.org,7,1,21KBBE,40.574699,-73.989827,13,47,326,3321840,3070560014,Seagate-Coney Island                                                       
KBKV,NYCEEC,K,United Academy - Wythe Avenue,<p><strong>Alert</strong>: Program may have income or other eligibility requirements. Contact for more information.</p>,718-935-9848,722 Wythe Ave,11249,1,20,994869,194894,sdsalamon@gmail.com,5,,9,3,14KBKV,40.701848,-73.961662,1,33,539,3346162,3022030020,Williamsburg                                                               
KBWT,NYCEEC,K,Our Children The Leaders Of Tomorrow 1,<p><strong>Alert</strong>: Program may have income or other eligibility requirements. Contact for more information.</p>,718-643-8201,756 Myrtle Ave,11206,1,28,997570,192432,oclot756@gmail.com,3,,2,1,14KBWT,40.695021,-73.952276,3,36,253,3393745,3017547502,Bedford                                                                    
KCJM,NYCEEC,K,"Circle, Triangle, Square Daycare, Inc.",,718-373-2234,2720 86th St,11223,3,18,989394,155744,shwnisaac@circletrianglesquaredaycare.com,3,http://circletrianglesquaredaycare.com,3,1,21KCJM,40.594458,-73.981489,13,47,402,3397445,3071167501,Bensonhurst East                                                           
KBQW,NYCEEC,K,Get Set Kindergarten School - Linden,,718-856-4646,623 Linden Blvd,11203,1,36,1002127,177457,getsetkaye@hotmail.com,2,,7,1,18KBQW,40.653737,-73.935569,17,41,872,3108416,3048650026,East Flatbush-Farragut                                                     
KCDI,NYCEEC,K,Beth Jacob Of Borough Park,,718-436-7300,1371 46 St,11219,1,80,987479,170870,avivahimy@gmail.com,7,,7,2,20KCDI,40.635845,-73.988932,12,44,232,3136747,3056170043,Borough Park                                                               
KCHU,NYCEEC,K,Infinity UPK Of Gerritsen Avenue,,718-336-1981,2934 - 2936 Gerritsen Ave,11229,1,29,1006121,153905,blitblues@aol.com,5,http://infinitypreschool.org,4,2,22KCHU,40.589325,-73.921229,15,46,628,3249464,3089070524,Sheepshead Bay-Gerritsen Beach-Manhattan Beach                             
KADG,NYCEEC,K,Bnos Menachem,,718-493-1100,739 East New York Ave,11203,3,18,1001380,180668,bnos.menachem@verizon.net,1,http://bnosmenachem.org,8,1,17KADG,40.662347,-73.938285,9,41,87401,3038483,3014280047,Prospect Lefferts Gardens-Wingate                                          
KBQP,NYCEEC,K,Shore Parkway Head Start,<p><strong>Alert</strong>: Program may have income or other eligibility requirements. Contact for more information.</p>,718-265-2359,8885 26th Ave,11214,1,36,986901,154500,sparkway8885@gmail.com,5,,9,3,21KBQP,40.590844,-73.991017,13,43,314,3187110,3069100017,Gravesend                                                                  
KCMV,NYCEEC,K,ABC Plus,,347-702-6868,1018 Banner Ave #2,11235,1,12,995544,151828,vbobvb144@msn.com,5,http://abcplusdaycare.com,9,3,21KCMV,40.583509,-73.959711,15,48,608,3247959,3088090031,Sheepshead Bay-Gerritsen Beach-Manhattan Beach                             
KAWC,NYCEEC,K,"Hanover Place CCC, LLC",,347-916-0333,15 Hanover Pl,11201,1,160,989158,190182,rcacere@hanoverchildcare.com,3,http://hanoverchildcare.com,2,1,15KAWC,40.688827,-73.982454,2,33,37,3000462,3001610003,DUMBO-Vinegar Hill-Downtown Brooklyn-Boerum Hill                           
KAIN,NYCEEC,K,Phyl's Academy,,718-469-9400,3520 Tilden Ave,11203,1,144,999883,174969,info@phylsacademyny.com,5,http://phylsacademyny.com,3,1,17KAIN,40.64708,-73.944058,17,45,854,3110600,3049200006,East Flatbush-Farragut                                                     
KCNY,NYCEEC,K,NY Preschool Brooklyn Heights,,718-228-0800,182 Henry St,11201,1,18,985816,192521,stephanie.t@nykidsclub.com,5,,9,3,13KCNY,40.69505,-73.994187,2,33,501,3001962,3002420001,Brooklyn Heights-Cobble Hill                                               
KABF,NYCEEC,K,Bais Yaakov Academy UPK,,718-339-4747,1213 Elm Ave,11230,3,60,994745,164146,mlevin@gamlacollege.com,5,,9,3,21KABF,40.616988,-73.962457,14,48,768,3180784,3067410012,Midwood                                                                    
KBKE,NYCEEC,K,LSSMNY : Early Life Children's Center 9,<p><strong>Alert</strong>: Program may have income or other eligibility requirements. Contact for more information.</p>,718-443-4500,1175 Gates Ave,11221,1,71,1006405,191310,lsingh@lssny.org,3,http://lssny.org,1,1,32KBKE,40.691707,-73.919907,4,34,399,3076253,3033310025,Bushwick South                                                             
KBYJ,NYCEEC,K,"Al Madinah School, Inc.",,718-222-4986,383 3rd Ave,11215,1,45,987482,184948,almadinahinfo@gmail.com,2,http://almadinah-school.com,2,1,15KBYJ,40.673671,-73.989163,6,39,119,3338558,3009800001,Park Slope-Gowanus                                                         
KBYN,NYCEEC,K,Bumble Bee R Us - Lorraine Street,<p><strong>Alert</strong>: Program may have income or other eligibility requirements. Contact for more information.</p>,855-532-9227,76 Lorraine St,11231,1,17,982352,184903,info@bumblebeesrus.com,3,http://bumblebeesrus.com,3,1,15KBYN,40.674385,-74.006886,6,38,53,3338801,3005800016,Carroll Gardens-Columbia Street-Red Hook                                   
K326,DOE,K,P.S. 326,,718-241-4828,1800 Utica Ave,11234,1,28,1004192,168228,mfoster5@schools.nyc.gov,2,http://schools.nyc.gov/schoolportals/22/k326,3,3,22K326,40.628659,-73.92793,18,45,728,3215550,3077750001,Flatlands                                                                  
K375,DOE,K,P.S. 375 Jackie Robinson School,,718-693-6655,46 Mckeever Pl,11225,1,36,995449,181484,sellman@schools.nyc.gov,3,http://schools.nyc.gov/schoolportals/17/k375,3,1,17K375,40.665035,-73.959031,9,35,325,3034356,3013010001,Crown Heights South                                                        
KCOS,NYCEEC,K,Gated Academy,,718-693-3699,1019 Church Ave,11218,1,20,992646,174992,GATEDACADEMY@GMAIL.COM,5,,9,3,17KCOS,40.646714,-73.970047,14,40,506,3116329,3050710041,Flatbush                                                                   
KBJP,NYCEEC,K,PAL Arnold And Marie Schwartz Early Learn Center,<p><strong>Alert</strong>: Program may have income or other eligibility requirements. Contact for more information.</p>,718-342-4724,452 Pennsylvania Ave,11207,1,49,1013469,181965,ARudder@palnyc.org,3,http://palnyc.org,3,1,19KBJP,40.666064,-73.894388,5,42,1126,3084628,3038050026,East New York (Pennsylvania Ave)                                           
KBAE,NYCEEC,K,Block Institute,,347-649-3601,133 27th Ave,11214,1,32,987750,154384,nwu@blockinstitute.org,3,http://blockinstitute.org,3,2,21KBAE,40.590852,-73.987369,13,47,306,3186885,3069000011,Gravesend                                                                  
KCBR,NYCEEC,K,Yde,,718-232-0100,49 Ave T,11223,3,64,989006,157299,adouek@ydeschool.org,8,http://ydeschool.org,3,1,21KCBR,40.598167,-73.983428,11,47,406,3189815,3070770044,Bensonhurst East                                                           
K277,DOE,K,P.S. 277 Gerritsen Beach,,718-743-6689,2529 Gerritsen Ave,11229,1,18,1004239,156389,jfish3@schools.nyc.gov,2,http://schools.nyc.gov/schoolportals/22/k277,7,3,22K277,40.596145,-73.928793,18,46,666,3242369,3085900650,park-cemetery-etc-Brooklyn                                                 
K361,DOE,K,P.S. 361 East Flatbush Early Childhood School,,718-856-0600,3109 Newkirk Ave,11226,1,36,998959,172556,jcolon5@schools.nyc.gov,5,http://schools.nyc.gov/schoolportals/22/k361,9,3,22K361,40.640066,-73.947253,17,45,830,3112334,3049650001,East Flatbush-Farragut                                                     
K003,DOE,K,P.S. 003 The Bedford Village,,718-622-2960,50 Jefferson Ave,11216,1,90,996604,187904,kbeeche@schools.nyc.gov,2,http://schools.nyc.gov/schoolportals/13/k003,3,3,13K003,40.682663,-73.955338,3,36,227,3057406,3019980001,Clinton Hill                                                               
K188,DOE,K,P.S. 188 Michael E Berdy,,718-265-7580,3314 Neptune Ave,11224,1,36,984106,149472,agreen31@schools.nyc.gov,3,http://schools.nyc.gov/schoolportals/21/k188,3,3,21K188,40.577217,-74.000194,13,47,328,3188726,3070060001,Seagate-Coney Island                                                       
KBOI,NYCEEC,K,Joan Watkins Corp. D / B / A Pre - School Minds DCC,,718-284-9392,3316 - 18 Church Ave,11203,1,40,999222,176394,preschoolminds@verizon.et,3,,7,2,17KBOI,40.650957,-73.946419,17,45,856,3109372,3048870007,East Flatbush-Farragut                                                     
KBMX,NYCEEC,K,A Fantis Parochial School,,718-624-0501,195 State St,11201,1,40,986644,190766,upkdirector@afantis.org,5,,9,3,15KBMX,40.690159,-73.99145,2,33,9,3329468,3002710032,Brooklyn Heights-Cobble Hill                                               
K115,DOE,K,P.S. 115 Daniel Mucatel School,,718-241-1000,1500 East 92 St,11236,1,108,1012677,170592,lborgese@schools.nyc.gov,2,http://schools.nyc.gov/schoolportals/18/k115,3,3,18K115,40.635015,-73.897262,18,46,1008,3232559,3082560001,Canarsie                                                                   
KBBY,NYCEEC,K,Be Above #27,<p><strong>Alert</strong>: Program may have income or other eligibility requirements. Contact for more information.</p>,347-997-2488,779 East 49 St,11203,1,57,1003622,173410,beabove49street@yahoo.com,3,,8,1,18KBBY,40.64264,-73.930408,17,45,840,3105709,3047700050,East Flatbush-Farragut                                                     
K091,DOE,K,P.S. 091 The Albany Avenue School,,718-756-0243,532 Albany Ave,11203,1,72,1000834,180404,talleyn2@schools.nyc.gov,2,http://schools.nyc.gov/schoolportals/17/k091,3,3,17K091,40.661886,-73.93994,9,41,806,3106599,3047940026,Prospect Lefferts Gardens-Wingate                                          
KBBB,NYCEEC,K,Bambi Day Care IV,,718-332-8656,405 81st St,11209,1,73,976957,167477,info@bambiacademy.com,3,http://bambidaycare.com,7,1,20KBBB,40.626187,-74.02632,10,43,138,3328847,3059890001,Bay Ridge                                                                  
KCIL,NYCEEC,K,Urban Strategies Child Care,,718-235-6151,1405 Bushwick Ave,11207,1,18,1009275,188871,USHeadStart1@aol.com,3,http://urbanstrategies.org,6,2,32KCIL,40.684665,-73.909632,4,37,403,3326473,3034390003,Bushwick South                                                             
K158,DOE,K,P.S. 158 Warwick,,718-277-6116,400 Ashford St,11207,1,72,1016131,184337,awilson3@schools.nyc.gov,3,http://schools.nyc.gov/schoolportals/19/k158,3,3,19K158,40.672579,-73.884803,5,37,1150,3089176,3040150001,East New York                                                              
KBYC,NYCEEC,K,YWCA - NYC Roberta Bright ELC,<p><strong>Alert</strong>: Program may have income or other eligibility requirements. Contact for more information.</p>,718-373-1100,3001 W 37th St,11224,1,16,983635,147991,sramirez@ywcanyc.org,3,http://ywcanyc.org,7,1,21KBYC,40.573177,-74.002509,13,47,340,3189617,3070650001,Seagate-Coney Island                                                       
KASJ,NYCEEC,K,BCS Duffield Children's Center,<p><strong>Alert</strong>: Program may have income or other eligibility requirements. Contact for more information.</p>,718-522-5296,101 Fleet Pl,11201,1,93,989371,191718,ilopez@wearebcs.org,3,http://wearebcs.org,3,1,13KASJ,40.692598,-73.981761,2,35,31,3058258,3020610100,Fort Greene                                                                
KBPR,NYCEEC,K,"Long Xing DCC, Inc.",,718-853-8989,825 57th St Fl 3,11220,1,28,982328,171307,longxingdcc@gmail.com,7,,7,1,20KBPR,40.636776,-74.007073,12,38,104,3139898,3056860068,Sunset Park East                                                           
K308,DOE,K,P.S. 308 Clara Cardwell,,718-574-2373,616 Quincy St,11221,1,28,1002040,190109,gpatter@schools.nyc.gov,2,http://schools.nyc.gov/schoolportals/16/k308,3,3,16K308,40.688695,-73.935499,3,36,293,3044493,3016300001,Stuyvesant Heights                                                         
KBYM,NYCEEC,K,Friends Of Crown Heights 26,<p><strong>Alert</strong>: Program may have income or other eligibility requirements. Contact for more information.</p>,718-467-4270,20 Sutter Ave,11212,1,37,1005874,181647,emerita.murrell1@gmail.com,3,http://fochdaycare.org,4,1,23KBYM,40.665361,-73.922177,16,41,900,3081165,3035310023,Brownsville                                                                
KCLD,NYCEEC,K,Sunny Skies Prospect Corp.,<p><strong>Alert</strong>: Program may have income or other eligibility requirements. Contact for more information.</p>,718-372-4665,969 43rd St,11219,1,18,985524,173420,info@sunnyskiespreschool.com,5,,9,3,15KCLD,40.642867,-73.996025,12,38,112,3135794,3055950043,Sunset Park East                                                           
Z072,DOE,K,Pre - K Center At 8501 5th Avenue,,718-439-2960,8501 5th Ave,11209,1,20,977144,165850,DGounar@schools.nyc.gov,5,,9,3,20Z072,40.622039,-74.025734,10,43,142,3153196,3060360001,Bay Ridge                                                                  
KAKF,NYCEEC,K,St. Mark School,,718-332-9304,2602 East 19th St,11235,1,36,997939,153520,jvok@smsonthebay.com,5,http://smsonthebay.com,3,1,22KAKF,40.588254,-73.950523,15,48,600,3205007,3074630005,Sheepshead Bay-Gerritsen Beach-Manhattan Beach                             
KBKJ,NYCEEC,K,Strong Place For Hope DCC - Clinton St.,<p><strong>Alert</strong>: Program may have income or other eligibility requirements. Contact for more information.</p>,718-624-2993,595 Clinton St,11231,1,39,983837,185141,strongplace@hotmail.com,3,http://strongplaceforhopedaycare.com,3,1,15KBKJ,40.675091,-74.001676,6,38,53,3008517,3005520005,Carroll Gardens-Columbia Street-Red Hook                                   
KBLJ,NYCEEC,K,"Community Parents, Inc.",<p><strong>Alert</strong>: Program may have income or other eligibility requirements. Contact for more information.</p>,718-221-2531,60 East 93rd St,11212,1,58,1004240,180994,clairewflor12@optonline.net,3,,7,1,17KBLJ,40.662494,-73.927007,17,41,882,3346863,3045950215,Rugby-Remsen Village                                                       
KBVJ,NYCEEC,K,Bnos Square Of Williamsburg,,718-797-9844,382 Willoughby Ave,11205,3,58,996646,191717,mkohn@bnossquare.org,5,,9,3,13KBVJ,40.693033,-73.955389,3,33,241,3393747,3017627502,Bedford                                                                    
K307,DOE,K,P.S. 307 Daniel Hale Williams,,718-834-4748,209 York St,11201,1,100,989287,194892,rdavenport@schools.nyc.gov,2,http://schools.nyc.gov/schoolportals/13/k307,3,1,13K307,40.701343,-73.982314,2,33,21,3000158,3000560007,DUMBO-Vinegar Hill-Downtown Brooklyn-Boerum Hill                           
KCIM,NYCEEC,K,Brooklyn Explorers Academy,,855-687-6923,110 Schermerhorn St,11201,1,36,987165,190666,info@brooklynexplorersacademy.com,7,http://brooklynexplorersacademy.com,7,1,15KCIM,40.690162,-73.989182,2,33,43,3000533,3001690009,DUMBO-Vinegar Hill-Downtown Brooklyn-Boerum Hill                           
K054,DOE,K,P.S. 054 Samuel C Barnes,,718-834-6752,195 Sanford St,11205,1,46,997373,191615,lkhan@schools.nyc.gov,2,http://schools.nyc.gov/schoolportals/13/k054,3,3,13K054,40.693018,-73.953034,3,33,241,3049020,3017650015,Bedford                                                                    
KBLK,NYCEEC,K,Bedford Stuyvesant ECDC 5Q,,718-453-0788,5 Quincy St,11238,3,38,995035,189232,charlesm@bsecdc.org,3,,2,2,13KBLK,40.685789,-73.960911,2,35,231,3056376,3019690030,Clinton Hill                                                               
KAET,NYCEEC,K,Dimitrios & Georgia Kaloidis P.S. Of Holy Cross Goc,,718-836-8096,8502 Rdg Blvd,11209,1,72,974876,166906,,2,http://dgkschool.com,3,2,20KAET,40.624826,-74.033459,10,43,50,3153048,3060320037,Bay Ridge                                                                  
KBVZ,NYCEEC,K,Little Sun People,,718-789-7330,1360 Fulton St,11216,1,18,999090,187012,faye@littlesunpeople.com,3,http://littlesunpeople.com,6,1,13KBVZ,40.680186,-73.94593,3,36,247,3329709,3018620001,Crown Heights North                                                        
KBPO,NYCEEC,K,"Brooklyn Child Care, Inc.",,718-630-2831,800 Poly Pl Building 2,11209,1,15,977227,161359,tanya.lipkin@va.gov,5,,7,1,20KBPO,40.609263,-74.02399,10,43,164,3345707,3061530001,Bay Ridge                                                                  
KBLL,NYCEEC,K,Northside Center For Child Development,,347-505-5517,44 - 60 Rockwell Pl,11201,1,20,989926,190175,drobinson@norhtsidecenter.org,3,http://northsidecenter.org,7,2,13KBLL,40.688807,-73.979375,2,35,33,3058596,3020940035,Fort Greene                                                                
KCHN,NYCEEC,K,Friends Of Crown Heights,,917-966-4400,2805 Newkirk Ave,11226,1,40,998107,172467,cdelicar@aol.com,3,http://fochdaycare.org,6,1,22KCHN,40.639889,-73.95015,17,45,828,3333904,3052150024,Erasmus                                                                    
K193,DOE,K,P.S. 193 Gil Hodges,,718-338-9011,2515 Ave L,11210,1,18,998056,165816,TBackof@schools.nyc.gov,3,http://gilhodgesschool.wix.com/ps193,3,3,22K193,40.621507,-73.950473,14,45,754,3208461,3076250001,Midwood                                                                    
KCEI,NYCEEC,K,Bambi Day Care II,,718-648-3332,2121 Bragg St,11229,1,80,1002078,158034,info@bambiacademy.com,3,http://bambidaycare.com,3,1,22KCEI,40.600261,-73.936041,15,46,570,3200516,3073690068,Sheepshead Bay-Gerritsen Beach-Manhattan Beach                             
KBOQ,NYCEEC,K,Yeled V'Yalda 407,,718-514-8712,407 East 53rd St,11203,3,24,1004501,175992,mhorowitz@yeled.org,3,http://yeled.org,3,1,18KBOQ,40.64967,-73.927219,17,45,862,3103944,3047250063,Rugby-Remsen Village                                                       
KBMP,NYCEEC,K,Bay Ridge CCC,<p><strong>Alert</strong>: Program may have income or other eligibility requirements. Contact for more information.</p>,718-768-5030,314 - 44th St,11220,1,60,981212,176356,Bayridgechildcare@twcmetrobiz.com,3,,8,2,15KBMP,40.650667,-74.010487,7,38,80,3337171,3007370014,Sunset Park West                                                           
KBRH,NYCEEC,K,Nayema Universal Child Center,,718-462-3688,1107 Newkirk Ave,11230,1,18,993554,170338,lenxcare@aol.com,4,,6,2,22KBRH,40.634005,-73.966544,14,40,526,3120093,3051970040,Flatbush                                                                   
K114,DOE,K,P.S. 114 Ryder Elementary,,718-257-4428,1077 Remsen Ave,11236,1,54,1009741,173411,dsmith6@schools.nyc.gov,3,http://schools.nyc.gov/schoolportals/18/k114,3,3,18K114,40.642792,-73.908806,18,46,964,3229159,3081600022,Canarsie                                                                   
K770,DOE,K,P.S. 770 New American Academy,,718-221-5837,60 East 94 St,11212,1,36,1004164,181298,jsaratovsky@thenewamericanacademy.org,3,http://schools.nyc.gov/schoolportals/17/k770,3,1,17K770,40.663559,-73.926959,17,41,882,3323072,3045950015,Rugby-Remsen Village                                                       
K225,DOE,K,P.S. K225 - The Eileen E Zaglin,,718-743-9793,1075 Ocean Vw Ave,11235,1,66,996443,150554,MCosmai@schools.nyc.gov,3,http://schools.nyc.gov/schoolportals/21/k225,2,3,21K225,40.579737,-73.956329,13,48,61004,3245498,3087120056,Brighton Beach                                                             
K299,DOE,K,P.S. 299 Thomas Warren Field,,718-574-0301,88 Woodbine St,11221,1,36,1007012,191023,wkirk2@schools.nyc.gov,2,http://schools.nyc.gov/schoolportals/32/k299,3,3,32K299,40.691077,-73.918152,4,34,399,3076734,3033580001,Bushwick South                                                             
KBLY,NYCEEC,K,Graham CCC,<p><strong>Alert</strong>: Program may have income or other eligibility requirements. Contact for more information.</p>,718-387-9482,222 Graham Ave,11206,1,40,999969,197833,grahamchildcare@verizon.net,3,http://colonysouth.org,7,2,14KBLY,40.709622,-73.943569,1,34,493,3344971,3030260001,Bushwick South                                                             
KBVO,NYCEEC,K,"Yeled V'Yalda ECC, Inc.",,718-732-7770,2166 Coney Is Ave,11223,3,40,994805,159373,cbuchman@yeled.org,1,http://yeled.org,7,1,21KBVO,40.6042,-73.961654,15,48,416,3394079,3066850034,Homecrest                                                                  
K023,DOE,K,P.S. 023 Carter G Woodson,,718-387-0375,545 Willoughby Ave,11206,1,36,998775,192219,cnapoli@schools.nyc.gov,2,http://schools.nyc.gov/schoolportals/14/k023,3,3,14K023,40.69407,-73.94756,3,36,25901,3048818,3017590013,Bedford                                                                    
K247,DOE,K,P.S. 247 Brooklyn,,718-236-4205,7000 21 Ave,11204,1,18,987819,162329,cogno@schools.nyc.gov,2,http://schools.nyc.gov/schoolportals/20/k247,3,3,20K247,40.612273,-73.986713,11,47,258,3157466,3061740036,Bensonhurst West                                                           
KBVL,NYCEEC,K,Ella Baker Charles Romain CDC Of Medgar Evers,,718-270-6018,1150 Carroll St,11225,1,16,997614,182305,Janetm@mec.cuny.edu,3,http://mec.cuny.edu,6,1,17KBVL,40.667253,-73.952195,9,35,321,3337869,3012890025,Crown Heights South                                                        
K196,DOE,K,P.S. 196 Ten Eyck,,718-497-0139,207 Bushwick Ave,11206,1,46,1000961,197506,mrodriguez3@schools.nyc.gov,3,http://schools.nyc.gov/schoolportals/14/k196,3,3,14K196,40.708723,-73.940002,1,34,485,3071024,3030460001,Bushwick South                                                             
KASG,NYCEEC,K,Edwards L Cleaveland,<p><strong>Alert</strong>: Program may have income or other eligibility requirements. Contact for more information.</p>,718-623-9803,1185 Park Pl,11213,1,26,1001328,184557,jmatison@bksny.org,3,http://bksny.org,7,2,17KASG,40.672793,-73.938391,8,36,343,3324613,3013520080,Crown Heights North                                                        
KACI,NYCEEC,K,Bambi Day Care,,718-645-7010,1981 Homecrest Ave,11229,1,60,995495,158326,info@bambiacademy.com,3,http://bambidaycarecenter.com,3,1,21KACI,40.601446,-73.959725,15,48,556,3196710,3072910134,Homecrest                                                                  
KBJH,NYCEEC,K,All My Children Day Care 10,<p><strong>Alert</strong>: Program may have income or other eligibility requirements. Contact for more information.</p>,718-576-6812,420 Lefferts Ave,11225,1,54,998876,180599,info@allmychildrendaycare.com,3,http://allmychildrendaycare.com,7,1,17KBJH,40.662571,-73.947213,9,40,806,3035444,3013310009,Prospect Lefferts Gardens-Wingate                                          
K270,DOE,K,P.S. 270 Johann Dekalb,,718-623-5280,241 Emerson Pl,11205,1,54,994945,191064,sneely@schools.nyc.gov,2,http://schools.nyc.gov/schoolportals/13/k270,3,3,13K270,40.690202,-73.961478,2,35,193,3055378,3019330102,Clinton Hill                                                               
KCOL,NYCEEC,K,"Happy Scholars, Inc.",,917-907-0183,7806 New Utrecht Ave,11214,1,36,983999,162711,happyscholars2013@gmail.com,5,,9,3,20KCOL,40.613248,-74.000677,11,43,182,3162090,3062590037,Bensonhurst West                                                           
KBJQ,NYCEEC,K,Friends Of Crown Heights Educational Center,<p><strong>Alert</strong>: Program may have income or other eligibility requirements. Contact for more information.</p>,929-234-2866,921 Hegeman Ave,11208,1,53,1017772,181780,bobb@foch.biz,3,http://fochdaycare.org,4,1,19KBJQ,40.665508,-73.878716,5,42,1120,3097095,3043150040,East New York                                                              
KBJU,NYCEEC,K,Shirley Chisholm DCC Site 5 Advent Center,<p><strong>Alert</strong>: Program may have income or other eligibility requirements. Contact for more information.</p>,718-452-1200,265 Sumpter St,11233,1,20,1007906,187363,advent265@aol.com,3,,3,2,23KBJU,40.680601,-73.914761,16,41,371,3339185,3015200051,Ocean Hill                                                                 
KBPP,NYCEEC,K,Georgia L Mcmurray Bat Kids Center,<p><strong>Alert</strong>: Program may have income or other eligibility requirements. Contact for more information.</p>,718-567-0818,140 58th St,11220,1,29,977969,174172,glmbatkids@yahoo.com,5,,9,3,20KBPP,40.645338,-74.022864,7,38,18,3257058,3057780001,Sunset Park West                                                           
KBQB,NYCEEC,K,"Long Xing DCC, Inc.",,718-853-8989,"762 59th St, 2 / F & 3 / F",11220,1,58,981579,171103,longxingdcc@gmail.com,7,,7,1,20KBQB,40.636611,-74.009854,7,38,104,3392309,3008660034,Sunset Park East                                                           
K280,DOE,K,Pre - K Center At Bishop Ford School Site,,718-965-1190,500 19th St,11215,1,488,989077,178398,mseide2@schools.nyc.gov,2,http://ps10.org,2,1,15K863,40.656944,-73.983115,7,38,1502,3017307,3008890001,Windsor Terrace                                                            
K506,DOE,K,P.S. 506 : The School Of Journalism & Technology,,718-492-0087,330 59 St,11220,1,18,978839,173228,lsarnic@schools.nyc.gov,5,http://schools.nyc.gov/schoolportals/20/k506,9,3,20K506,40.642121,-74.018997,7,38,74,3016258,3008620012,Sunset Park West                                                           
K130,DOE,K,P.S. 130 The Parkside,,718-686-1940,70 Ocean Pkwy,11218,1,72,990932,175699,mnunzia@schools.nyc.gov,2,http://ps130brooklyn.com,7,3,15K130,40.648884,-73.975607,7,39,500,3124019,3053190001,Windsor Terrace                                                            
KCHV,NYCEEC,K,"New York Creative Childcare, Inc.",,718-686-0388,5015 6th Ave,11220,1,36,981943,173649,nycreativechildcare@gmail.com,3,http://nycreativechildcare.com,7,1,15KCHV,40.643632,-74.008252,7,38,98,3393312,3007937501,Sunset Park East                                                           
Z041,DOE,K,Pre - K Center At 701 Caton Avenue,,212-637-8000,701 Caton Ave,11218,1,72,991647,175280,pre-k@schools.nyc.gov,5,,9,3,15Z041,40.647593,-73.973412,7,39,504,3000000,3053210064,Windsor Terrace                                                            
Z076,DOE,K,Pre - K Center At 173 - 177 25th Street,,718-686-2282,173 - 177 25th St,11232,1,108,984606,180147,MInterl@schools.nyc.gov,5,,9,3,15Z076,40.661059,-73.998973,7,38,101,3009582,3006510047,Sunset Park West                                                           
KBVR,NYCEEC,K,"United Methodist City Society, The",,718-435-6540,4419 7th Ave,11220,3,54,983514,174356,manguiano2@Yahoo.com,2,,7,2,15KBVR,40.645645,-74.002569,7,38,94,3011354,3007410001,Sunset Park East                                                           
KBYQ,NYCEEC,K,Bumble Bees R Us 8,<p><strong>Alert</strong>: Program may have income or other eligibility requirements. Contact for more information.</p>,718-676-0080,5721 6th Ave,11220,1,19,980791,172187,info@bumblebeesrus.com,2,http://bumblebeesrus.com,7,1,20KBYQ,40.639688,-74.012355,7,38,102,3015780,3008490001,Sunset Park East                                                           
KCMN,NYCEEC,K,ECDC Kaleidoscope,,917-652-4422,165 Prospect Park Southwest,11218,1,12,991634,177650,ecdckaleidoscope@aol.com,5,http://ecdckaleidoscope.com,9,3,15KCMN,40.654364,-73.973194,7,39,50202,3122557,3052750092,Windsor Terrace                                                            
K516,DOE,K,Sunset Park Avenues Elementary School,,718-369-8330,4222 4th Ave,11232,1,54,981893,176359,jrogness@schools.nyc.gov,3,http://sunsetparkavenues.org,2,3,15K516,40.650785,-74.008105,7,38,82,3337158,3007230025,Sunset Park West                                                           
KBFQ,NYCEEC,K,St. Andrews CDC,<p><strong>Alert</strong>: Program may have income or other eligibility requirements. Contact for more information.</p>,718-492-9678,4917 Fourth Ave,11220,1,20,980895,174833,,2,http://lutheranhealthcare.org/main/standrewscommunitydaycare.aspx,7,1,15KBFQ,40.646876,-74.01214,7,38,78,3012910,3007830001,Sunset Park West                                                           
KBMO,NYCEEC,K,Chick Peas Child Care,,347-878-8732,451 7th Ave,11215,1,12,988487,180754,admissions@chickpeas.org,5,http://chickpeas.org,7,2,15KBMO,40.662889,-73.984908,7,39,149,3026633,3011040003,Park Slope-Gowanus                                                         
KBEP,NYCEEC,K,Brooklyn Chinese American Assoc. Day Care,<p><strong>Alert</strong>: Program may have income or other eligibility requirements. Contact for more information.</p>,718-851-0869,713 43rd St,11232,1,93,983895,174718,acs@bca.net,3,http://bca.net,6,1,15KBEP,40.646062,-74.001308,7,38,92,3018327,3009247501,Sunset Park East                                                           
K362,CHARTER,K,Hellenic Classical Charter School,,718-499-0957,646 5th Ave,11215,1,18,986446,180808,JoyPetrakos@aol.com,3,http://hccs-nys.org,2,1,15K362,40.662646,-73.992085,7,38,143,3336795,3006340034,Park Slope-Gowanus                                                         
Z074,DOE,K,Pre - K Center At 140 58th Street,,718-439-2200,140 58th St,11220,1,140,978001,174150,DGounar@schools.nyc.gov,5,,9,3,20Z074,40.645338,-74.022864,7,38,18,3257058,3057780001,Sunset Park West                                                           
Z040,DOE,K,Pre - K Center At P.S. 516 Sunset Park Avenues ES,,212-637-8000,4222 4th Ave,11232,1,72,981861,176320,pre-k@schools.nyc.gov,5,,9,3,15Z040,40.650785,-74.008105,7,38,82,3337158,3007230025,Sunset Park West                                                           
K024,DOE,K,P.S. 024,,718-832-9366,427 38 St,11232,1,36,982972,177112,rdubits@schools.nyc.gov,3,http://schools.nyc.gov/schoolportals/15/k024,3,3,15K024,40.652701,-74.004743,7,38,84,3346119,3007010001,Sunset Park West                                                           
KBNB,NYCEEC,K,"Therapy And Learning Center, Inc.",,718-290-2750,1723 8th Ave,11215,1,32,988465,179376,sandee.bennett@tlckids.org,5,,9,3,15KBNB,40.659129,-73.984952,7,38,169,3330250,3008760001,Windsor Terrace                                                            
KCPN,NYCEEC,K,One World Project - Brooklyn,,212-929-0839,302 Vanderbilt St,11218,1,16,990117,176907,joanne@oneworldproject.org,5,,9,3,15KCPN,40.652444,-73.978925,7,39,1502,3382209,3052720001,Windsor Terrace                                                            
KBUJ,NYCEEC,K,Brooklyn Chinese American Assoc. - Bay Ridge DCC,<p><strong>Alert</strong>: Program may have income or other eligibility requirements. Contact for more information.</p>,718-438-0008,4202 8th Ave,11232,1,105,984437,174480,bcachildcare@aol.com,3,http://bca.net,6,2,15KBUJ,40.645513,-73.999153,7,38,92,3337411,3009247503,Sunset Park East                                                           
K001,DOE,K,P.S. 001 The Bergen,,718-567-7661,309 47 St,11220,1,125,980985,175780,aramos4@schools.nyc.gov,2,http://schools.nyc.gov/schoolportals/15/k001,3,3,15K001,40.649042,-74.012289,7,38,80,3011821,3007550022,Sunset Park West                                                           
KCGR,NYCEEC,K,Brooklyn Chinese American Assoc.,,718-438-0008,4116 8th Ave,11232,1,30,984537,174612,bcaupkfd@gmail.com,2,http://bca.net,6,2,15KCGR,40.646018,-73.998627,7,38,92,3018183,3009220038,Sunset Park East                                                           
KBVG,NYCEEC,K,Brooklyn Chinese - American Assoc.,,718-438-0008,5002 8 Ave,11220,3,54,983142,172852,future@bca.net,5,,9,3,15KBVG,40.641028,-74.003816,7,38,108,3013418,3007940039,Sunset Park East                                                           
KBNA,NYCEEC,K,Sunset Park Children's School,<p><strong>Alert</strong>: Program may have income or other eligibility requirements. Contact for more information.</p>,718-439-3323,4616 4th Ave,11220,1,18,981214,175525,mothergoose11232@gmail.com,5,http://sunsetparkchild.com,9,3,15KBNA,40.648565,-74.010407,7,38,80,3011823,3007550045,Sunset Park West                                                           
K295,DOE,K,P.S. 295,,718-965-0390,330 18 St,11215,1,54,987330,180120,lmazza2@schools.nyc.gov,2,http://schools.nyc.gov/schoolportals/15/k295,6,3,15K295,40.660976,-73.988297,7,38,147,3331274,3008800001,Sunset Park West                                                           
KCMK,NYCEEC,K,"Brooklyn Treehouse Preeschool, Inc.",,718-499-1234,639 4th Ave,11232,1,30,985804,181024,warmen@optonline.net,5,http://brooklyntreehousepreschool.com,9,3,15KCMK,40.663708,-73.994637,7,38,143,3397574,3006377501,Park Slope-Gowanus                                                         
KBNU,NYCEEC,K,Stanley S Lamm Institute Preschool,,718-237-8833,500 19th St,11215,3,16,988971,178479,acaccamo@lammpreschool.org,4,http://lammpreschool.org,3,1,15KBNU,40.656944,-73.983115,7,38,1502,3017307,3008890001,Windsor Terrace                                                            
KBWC,NYCEEC,K,Sunset Park ECC,,718-722-6236,5902 6 Ave,11220,1,20,980400,171927,desiree.fryson@ccbq.org,5,,9,3,20KBWC,40.638645,-74.013465,7,38,102,3337343,3008640001,Sunset Park East                                                           
KCOT,NYCEEC,K,"Giocare, LLC",,347-827-1372,"279 23rd St, 1st Floor",11215,1,12,986197,179524,ellen@giocareplayschool.com,5,http://giocareplayschool.com,9,3,15KCOT,40.659415,-73.99322,7,38,145,3017650,3008990050,Sunset Park West                                                           
K172,DOE,K,P.S. 172 Beacon School Of Excellence,,718-965-4200,825 4 Ave,11232,1,36,984158,178921,jspatol@schools.nyc.gov,2,http://schools.nyc.gov/schoolportals/15/k172,3,3,15K172,40.657914,-74.000652,7,38,101,3009847,3006690001,Sunset Park West                                                           
KBYG,NYCEEC,K,Happy Dragon Children And Family Center,,347-610-1802,5805 7th Ave,11220,1,107,981319,171601,office@happydragonschool.com,5,,9,3,20KBYG,40.63786,-74.010669,7,38,104,3016180,3008587501,Sunset Park East                                                           
K149,DOE,K,P.S. 149 Danny Kaye,,718-385-8666,700 Sutter Ave,11207,1,90,1013999,183181,yschoff@schools.nyc.gov,3,http://schools.nyc.gov/schoolportals/19/k149,3,1,19K149,40.669719,-73.892822,5,42,1158,3084348,3037740016,East New York (Pennsylvania Ave)                                           
KCED,NYCEEC,K,Sunshine Center Of Coney Island,,718-996-7200,2929 W31st St,11224,4,18,985130,148137,yaneris@sunshinenewyork.com,3,http://sunshinenewyork.com,8,1,21KCED,40.575048,-73.997455,13,47,342,3321834,3070500001,Seagate-Coney Island                                                       
KBDN,NYCEEC,K,"Raven's ECC, Inc.",,718-927-2316,1102 East 92nd St,11236,1,69,1010240,173314,info@ravensschool.org,3,http://ravensschool.org,2,1,18KBDN,40.6424,-73.906147,18,46,964,3229538,3081790076,Canarsie                                                                   
KCPO,NYCEEC,K,Redeemer St. John's Nursery School,,718-476-8030,939 83 St,11228,1,18,978945,165235,rsjnursery@gmail.com,5,,9,3,20KCPO,40.62032,-74.019635,10,43,140,3330938,3060110040,Dyker Heights                                                              
KBDJ,NYCEEC,K,Cortelyou Academy,,718-421-9581,2739 Bedford Ave,11210,1,18,997245,170999,sfrancis@mycecc.com,5,http://mycecc.com,9,3,22KBDJ,40.636256,-73.9535,14,45,770,3120796,3052250002,Flatbush                                                                   
KCPK,NYCEEC,K,Chabad Of North Brooklyn,,718-388-0748,132 North 5 St,11249,1,12,995549,200403,director@ganchabadpreschool.com,5,,9,3,14KCPK,40.716944,-73.95928,1,33,553,3062307,3023430012,North Side-South Side                                                      
K155,DOE,K,P.S. / I.S. 155 Nicholas Herkimer,,718-495-7751,1355 Herkimer St,11233,1,36,1009570,186160,ncortes3@schools.nyc.gov,3,http://schools.nyc.gov/schoolportals/23/k155,7,3,23K155,40.677415,-73.908734,16,37,369,3042263,3015520043,Ocean Hill                                                                 
KAZT,NYCEEC,K,Bushwick United HDFC 1,<p><strong>Alert</strong>: Program may have income or other eligibility requirements. Contact for more information.</p>,718-443-0134,136 Stanhope St,11221,1,65,1005666,193610,IRFANAK@BUSHWICKUNITED.ORG,3,http://bushwickunited.org,7,2,32KAZT,40.698099,-73.922976,4,37,421,3392942,3032660020,Bushwick South                                                             
K213,DOE,K,P.S. 213 New Lots,,718-257-4034,580 Hegeman Ave,11207,1,54,1014692,179849,smoise2@schools.nyc.gov,3,http://schools.nyc.gov/schoolportals/19/k213,3,3,19K213,40.66051,-73.890288,5,42,1104,3097334,3043240001,East New York                                                              
KAXC,NYCEEC,K,Bishop Sexton,<p><strong>Alert</strong>: Program may have income or other eligibility requirements. Contact for more information.</p>,718-778-0292,933 Herkimer St,11233,1,50,1005748,186420,aalleyne@stmarksheadstart.org,3,http://stmarksheadstart.org,7,2,16KAXC,40.678169,-73.922497,3,41,299,3329595,3017040025,Crown Heights North                                                        
KBBO,NYCEEC,K,Khyle Brenaj Kiddie Daycare Inc.,,718-896-8108,9718 Flatlands Ave,11236,1,20,1011999,173864,parich@optonline.net,5,,9,3,18KBBO,40.643812,-73.900416,18,46,988,3230136,3082050042,Canarsie                                                                   
KBXK,NYCEEC,K,Brightside Academy - Clarkson,<p><strong>Alert</strong>: Program may have income or other eligibility requirements. Contact for more information.</p>,718-941-1802,210 Clarkson Ave,11226,1,18,997420,177902,nbennett@brightsideacademy.com,5,http://brightsideacademy.com,1,1,17KBXK,40.655272,-73.952477,17,40,820,3116264,3050660011,Prospect Lefferts Gardens-Wingate                                          
KBNG,NYCEEC,K,Bedford - Stuyvesant ECDC,,718-453-0500,275 Marcus Garvey Blvd,11221,1,40,1001199,189969,spiveys@bsecdc.org,5,,9,3,16KBNG,40.688118,-73.939051,3,36,277,3325012,3016290001,Stuyvesant Heights                                                         
K138,DOE,K,P.S. 138 Brooklyn,,718-467-0800,760 Prospect Pl,11216,1,72,997749,184891,mchauve@schools.nyc.gov,2,http://schools.nyc.gov/schoolportals/17/k138,3,3,17K138,40.67438,-73.951443,8,36,31701,3330794,3012330026,Crown Heights North                                                        
KCOI,NYCEEC,K,Treasure Island,,718-238-7676,347 74th St,11209,1,40,977131,169485,silbekidz@aol.com,5,,9,3,20KCOI,40.631852,-74.026203,10,43,66,3339305,3059180027,Bay Ridge                                                                  
KBIE,NYCEEC,K,All My Children Day Care Site 16,,718-493-1100,739 East New York Ave,11203,1,18,1001497,180679,ckratz@amcearlylearn.com,3,,6,1,17KBIE,40.662347,-73.938285,9,41,87401,3038483,3014280047,Prospect Lefferts Gardens-Wingate                                          
KBZU,NYCEEC,K,Bedford Stuyvesant ECDC 510,,718-455-4806,510 Quincy St,11221,3,45,1000909,189948,lubellmorriss@bsecdc.org,3,,3,1,16KBZU,40.688127,-73.94045,3,36,277,3051048,3018110019,Stuyvesant Heights                                                         
KCPC,NYCEEC,K,Wonder Land Pallc,,718-332-0500,1018 Ave Y,11235,1,60,995399,153981,wonderlandcare@gmail.com,5,http://wonderlandpsa.com,9,3,21KCPC,40.589474,-73.960236,15,48,588,3396930,3074300007,Homecrest                                                                  
K269,DOE,K,P.S. 269 Nostrand,,718-941-2800,1957 Nostrand Ave,11210,1,36,998729,171624,jpagan22@schools.nyc.gov,3,http://schools.nyc.gov/schoolportals/22/k269,2,3,22K269,40.637711,-73.948159,17,45,788,3113780,3049940023,Flatbush                                                                   
KBKU,NYCEEC,K,Friends Of Crown Heights 15,<p><strong>Alert</strong>: Program may have income or other eligibility requirements. Contact for more information.</p>,718-638-8686,2505 Pitkin Ave,11208,1,72,1017610,185022,davis@foch.biz,7,http://fochdaycare.org,3,1,19KBKU,40.674284,-73.879746,5,37,1192,3089020,3040060037,East New York                                                              
KBQX,NYCEEC,K,Get Set Kindergarten School Site - Cortelyou,,718-856-4646,1919 Cortelyou Rd,11226,1,54,995253,173640,getsetkaye@hotmail.com,2,,7,1,22KBQX,40.642973,-73.960547,14,40,514,3118534,3051500031,Flatbush                                                                   
KASI,NYCEEC,K,Cortelyou ECC,,718-282-6077,386 Marlborough Rd,11226,1,36,994095,172679,sfrancis@mycecc.com,5,,9,3,22KASI,40.640589,-73.964321,14,40,520,3118681,3051570013,Flatbush                                                                   
KCGO,NYCEEC,K,CDC Of Kingsborough,,718-368-5868,1915 Oriental Blvd,11235,1,18,1002181,150120,Linda.McHugh@kbcc.cuny.edu,3,http://kbcc.cuny.edu,7,1,22KCGO,40.578497,-73.935321,15,48,616,3326936,3087600060,Sheepshead Bay-Gerritsen Beach-Manhattan Beach                             
KBMQ,NYCEEC,K,"Hanson Place CDC, Inc.",,718-237-4303,55 Hanson Pl,11217,1,20,990971,189050,carol.brathwaite@yahoo.com,5,http://hansonplaceinc.com,2,1,15KBMQ,40.685378,-73.975554,2,35,35,3059236,3021130001,Fort Greene                                                                
KBGS,NYCEEC,K,Urban Strategies 5 - Georgia L Mcmurray ECDC,<p><strong>Alert</strong>: Program may have income or other eligibility requirements. Contact for more information.</p>,718-235-1215,675 Lincoln Ave,11208,1,40,1021389,184414,usdaycare3@optimum.net,3,http://childcarecenter.us,6,1,19KBGS,40.672675,-73.866436,5,42,1208,3095889,3042710005,East New York                                                              
KATZ,NYCEEC,K,Neptune Avenue Head Start,<p><strong>Alert</strong>: Program may have income or other eligibility requirements. Contact for more information.</p>,718-332-8524,293 Neptune Ave,11235,1,110,994173,151073,neptune293@gmail.com,3,,3,1,21KATZ,40.581079,-73.964133,13,48,366,3196391,3072620017,Brighton Beach                                                             
K272,DOE,K,P.S. 272 Curtis Estabrook,,718-241-1300,101 - 24 Seaview Ave,11236,1,64,1015842,170884,hpinckney@schools.nyc.gov,2,http://schools.nyc.gov/schoolportals/18/k272,3,1,18K272,40.635916,-73.886412,18,46,1034,3235262,3083290250,Canarsie                                                                   
KCHZ,NYCEEC,K,Little Hands Creative Minds,,718-676-2947,4111 Ave J,11210,1,16,1001996,168021,Lhcm718@gmail.com,3,http://daviduniversecity.org/,4,1,22KCHZ,40.627654,-73.936307,18,45,734,3215074,3077670006,Flatlands                                                                  
KARQ,NYCEEC,K,Parkway School,,718-346-0369,5566 Kings Hwy,11203,1,54,1005130,175370,gkgrant@aol.com,5,http://parkwayschool.org,9,3,18KARQ,40.648112,-73.924338,17,45,946,3104546,3047400061,Rugby-Remsen Village                                                       
KCJH,NYCEEC,K,"A Castle For Classy Kids Learning Center, Inc.",,347-750-8154,2570 Pitkin Ave,11208,1,36,1018271,185021,acastle4classykids@gmail.com,3,,7,1,19KCJH,40.6746,-73.877427,5,37,1194,3336165,3040240018,East New York                                                              
KCFA,NYCEEC,K,SCO Family Of Services,<p><strong>Alert</strong>: Program may have income or other eligibility requirements. Contact for more information.</p>,929-234-6870,225 Newport St,11212,1,35,1010105,179731,coerlemans@sco.org,3,http://sco.org,3,1,23KCFA,40.65969,-73.906761,16,42,918,3082389,3036040001,Brownsville                                                                
K257,DOE,K,P.S. 257 John F Hylan,,718-384-7128,60 Cook St,11206,1,64,1000436,195288,bjusino@schools.nyc.gov,2,http://schools.nyc.gov/schoolportals/14/k257,3,3,14K257,40.702392,-73.941801,1,34,491,3071571,3031140011,East Williamsburg                                                          
KBKP,NYCEEC,K,All My Children # 11,<p><strong>Alert</strong>: Program may have income or other eligibility requirements. Contact for more information.</p>,718-576-6812,317 Rogers Ave,11225,1,47,997157,181800,info@amcearlylearn.com,3,http://allmychildrendaycare.com,7,1,17KBKP,40.665683,-73.953667,9,35,321,3034153,3012960001,Crown Heights South                                                        
K216,DOE,K,P.S. 216 Arturo Toscanini,,718-645-2862,350 Ave X,11223,1,102,992663,154348,DNeglia@schools.nyc.gov,2,http://schools.nyc.gov/schoolportals/21/k216,3,3,21K216,40.590564,-73.969964,15,47,37401,3195175,3071960001,Gravesend                                                                  
KCPM,NYCEEC,K,"High Definition Day Care, Inc.",,718-240-9300,337 Lenox Rd,11226,1,18,998572,177733,highdef_kids@hotmail.com,5,,9,3,17KCPM,40.654263,-73.948315,17,40,818,3396954,3048377501,Erasmus                                                                    
KBPY,NYCEEC,K,Smart Start ECC,,718-921-1868,8411 Ft Hamilton Pkwy,11209,1,48,977839,165548,smartstart@verizon.net,5,http://smartstart.org,7,1,20KBPY,40.621318,-74.02313,10,43,142,3152888,3060280006,Bay Ridge                                                                  
KBWD,NYCEEC,K,Child Prodigy Learning Inc.,,718-574-7558,1001 Broadway,11221,1,18,1002717,192915,s.bacchuscplc@gmail.com,3,http://childprodigylearningcenter.com,2,1,32KBWD,40.69603,-73.93353,4,34,393,3072665,3031940006,Bushwick South                                                             
K099,DOE,K,P.S. 099 Isaac Asimov,,718-338-9201,1120 East 10 St,11230,1,36,993722,165704,gpirrag@schools.nyc.gov,2,http://schools.nyc.gov/schoolportals/21/k099,1,3,21K099,40.621565,-73.965595,12,44,454,3171478,3065350011,Ocean Parkway South                                                        
KBVB,NYCEEC,K,New Life CDC 2,<p><strong>Alert</strong>: Program may have income or other eligibility requirements. Contact for more information.</p>,718-366-1668,406 Grv St,11237,1,78,1008455,194743,NEWLIFEHEADSTART@AOL.COM,3,,2,1,32KBVB,40.701188,-73.912895,4,37,441,3397530,3033290016,Bushwick North                                                             
K702,CHARTER,K,Community Partnership Charter School Pre - Kindergarten,,718-399-3824,241 Emerson Pl,11205,1,18,994928,191061,info@cpcsschool.org,5,http://cpcsschool.org/,9,3,13K702,40.690202,-73.961478,2,35,193,3055378,3019330102,Clinton Hill                                                               
KBXQ,NYCEEC,K,"Gan, Inc. - Gan Jewish Day Care",,718-338-7575,2901 Campus Rd,11210,1,36,998563,169552,yafitelbaz@yahoo.com,3,http://ganjewish.com,3,1,22KBXQ,40.631986,-73.948682,14,45,774,3205890,3075570118,Flatbush                                                                   
K124,DOE,K,P.S. 124 Silas B Dutcher,,718-788-0246,515 4 Ave,11215,1,36,986830,182462,aburrell2@schools.nyc.gov,2,http://schools.nyc.gov/schoolportals/15/k124,3,3,15K124,40.667545,-73.991046,6,39,141,3023391,3010340001,Park Slope-Gowanus                                                         
KBQN,NYCEEC,K,Friends Of Crown Heights 6,<p><strong>Alert</strong>: Program may have income or other eligibility requirements. Contact for more information.</p>,718-372-8189,49 Ave W,11223,1,20,989171,154925,viptorres@aol.com,3,,7,1,21KBQN,40.591395,-73.982238,13,47,382,3322146,3071370001,Gravesend                                                                  
KBGB,NYCEEC,K,Traditional Educational Center,<p><strong>Alert</strong>: Program may have income or other eligibility requirements. Contact for more information.</p>,718-443-2577,1469b Broadway,11221,1,29,1006823,189849,traditional1469@verizon.net,3,,2,1,32KBGB,40.687556,-73.918636,4,34,397,3393150,3033730007,Bushwick South                                                             
K012,DOE,K,Dr. Jacqueline Peek - Davis School,,718-953-4569,430 Howard Ave,11233,1,72,1006488,184472,gthom2@schools.nyc.gov,2,http://schools.nyc.gov/schoolportals/17/k012,3,3,17K012,40.673073,-73.919594,16,41,363,3039174,3014570032,Ocean Hill                                                                 
K131,DOE,K,P.S. 131 Brooklyn,,718-431-1960,4305 Ft Hamilton Pkwy,11219,1,36,986096,172731,rquiles2@schools.nyc.gov,2,http://schools.nyc.gov/schoolportals/15/k131,3,3,15K131,40.641157,-73.993482,12,39,224,3136085,3056030001,Borough Park                                                               
K182,CHARTER,K,Success Academy Charter School - Williamsburg Pre - Kindergarten,,718-704-1419,183 South 3rd St,11211,1,18,995368,198597,SAWB.MainOffice@saschools.org,5,http://successacademies.org/schools/williamsburg/,9,3,14K182,40.711704,-73.960275,1,34,523,3063128,3024190001,North Side-South Side                                                      
K207,DOE,K,P.S. 207 Elizabeth G Leary,,718-645-8667,4011 Fillmore Ave,11234,1,36,1003637,162866,mbosco@schools.nyc.gov,2,http://schools.nyc.gov/schoolportals/22/k207,3,3,22K207,40.613353,-73.930129,18,46,652,3239388,3084840001,Georgetown-Marine Park-Bergen Beach-Mill Basin                             
K261,DOE,K,P.S. 261 Philip Livingston,,718-330-9275,314 Pacific St,11201,1,36,987504,189641,zmills@schools.nyc.gov,2,http://schools.nyc.gov/schoolportals/15/k261,3,3,15K261,40.687466,-73.988288,2,33,43,3001070,3001880014,DUMBO-Vinegar Hill-Downtown Brooklyn-Boerum Hill                           
K202,DOE,K,P.S. 202 Ernest S Jenkyns,,718-649-7880,982 Hegeman Ave,11208,1,54,1018510,181996,mspence6@schools.nyc.gov,2,http://schools.nyc.gov/schoolportals/19/k202,3,3,19K202,40.666417,-73.876563,5,42,1116,3098664,3044770001,East New York                                                              
K298,DOE,K,P.S. 298 Dr. Betty Shabazz,,718-495-7793,85 Watkins St,11212,1,46,1009797,183759,jdill2@schools.nyc.gov,3,http://schools.nyc.gov/schoolportals/23/k298,3,3,23K298,40.670986,-73.908194,16,37,906,3080768,3035070007,Brownsville                                                                
KCFR,NYCEEC,K,Bubble Bee Day Care,,718-676-0080,76 Lorraine St,11231,3,20,982331,184909,esther@bumblebeesrus.com,3,,3,1,15KCFR,40.674385,-74.006886,6,38,53,3338801,3005800016,Carroll Gardens-Columbia Street-Red Hook                                   
K206,DOE,K,P.S. 206 Joseph F Lamb,,718-743-5598,2200 Gravesend Nck Rd,11229,1,36,998543,156874,jhom42@schools.nyc.gov,2,http://schools.nyc.gov/schoolportals/22/k206,3,3,22K206,40.597369,-73.948946,15,48,59401,3201080,3073810201,Sheepshead Bay-Gerritsen Beach-Manhattan Beach                             
KCHM,NYCEEC,K,Alonzo A Daughtry Memorial DCC Inc.,<p><strong>Alert</strong>: Program may have income or other eligibility requirements. Contact for more information.</p>,718-596-1993,565 Baltic St,11217,1,20,989100,187600,alonzodaughtrydcc@verizon.net,3,,3,1,13KCHM,40.681306,-73.982697,6,33,127,3006388,3004010001,DUMBO-Vinegar Hill-Downtown Brooklyn-Boerum Hill                           
KCQB,NYCEEC,K,Imaginarium Child,,917-689-3300,1954 Ocean Ave,11230,1,12,996871,163066,info@imaginariumchild.com,5,,9,3,22KCQB,40.614444,-73.954271,14,48,546,3181615,3067570042,Midwood                                                                    
K092,DOE,K,P.S. 092 Adrian Hegeman,,718-462-2087,601 Parkside Ave,11226,1,54,996990,178353,drahmaa@schools.nyc.gov,2,http://schools.nyc.gov/schoolportals/17/k092,3,3,17K092,40.656046,-73.953742,9,40,802,3115866,3050490055,Prospect Lefferts Gardens-Wingate                                          
KCAD,NYCEEC,K,Higher Level,,718-856-4064,2401 Beverley Rd,11226,1,18,996861,174261,uljoseph@aol.com,5,,9,3,17KCAD,40.64479,-73.954622,17,40,792,3117907,3051350042,Erasmus                                                                    
K031,DOE,K,P.S. 031 Samuel F Dupont,,718-383-8998,75 Meserole Ave,11222,1,108,996979,204091,mscarla@schools.nyc.gov,2,http://schools.nyc.gov/schoolportals/14/k031,1,3,14K031,40.726587,-73.95427,1,33,561,3065299,3025950001,Greenpoint                                                                 
KCIS,NYCEEC,K,Greater Bright Light Learning Center,,917-960-4044,1320 Sutter Ave,11208,1,20,1020571,184512,gzellars@gblmbc.com,5,,9,3,19KCIS,40.673174,-73.869185,5,42,1208,3095779,3042680023,East New York                                                              
KCQE,NYCEEC,K,Stuyvesant Heights Day Care / New Vision One,,718-783-5383,69 Macdonough St,11216,1,18,999853,187459,stepbystepecc@gmail.com,5,,9,3,13KCQE,40.680992,-73.943986,3,36,269,3053328,3018510039,Bedford                                                                    
KBPC,NYCEEC,K,Marie Durdin CCC,<p><strong>Alert</strong>: Program may have income or other eligibility requirements. Contact for more information.</p>,718-647-4730,2700 Linden Blvd,11208,1,20,1021815,182930,mariedurdinchildcare@msn.com,3,,3,1,19KBPC,40.669187,-73.864673,5,42,1214,3326995,3044880001,East New York                                                              
KBZG,NYCEEC,K,Ring Around The Rosie,,718-492-7464,7106 13th Ave,11228,1,15,982748,166075,ring7104@verizon.net,4,,7,1,20KBZG,40.622478,-74.005176,10,43,196,3157620,3061770040,Dyker Heights                                                              
K284,DOE,K,P.S. 284 Lew Wallace,,718-495-7791,213 Osborn St,11212,1,18,1009894,182254,jsanders2@schools.nyc.gov,3,http://schools.nyc.gov/schoolportals/23/k284,3,3,23K284,40.667377,-73.908214,16,41,912,3081460,3035440135,Brownsville                                                                
KBYF,NYCEEC,K,Edith And Karl Marks JCH Of Bensonhurst,,718-943-6333,7802 Bay Pkwy,11214,1,30,987115,160171,tatyana@jchb.org,1,http://jchb.org,3,1,20KBYF,40.606369,-73.989235,11,44,270,3162352,3062640030,Bensonhurst West                                                           
KAFO,NYCEEC,K,Good Shepherd School,,718-339-2745,1943 Brown St,11229,1,36,1000793,159493,princpap@aol.com,7,,3,1,22KAFO,40.60421,-73.940629,15,46,566,3345248,3073110001,Madison                                                                    
KBJE,NYCEEC,K,Be Above 37,<p><strong>Alert</strong>: Program may have income or other eligibility requirements. Contact for more information.</p>,718-774-4131,570 Crown St,11213,1,60,1001038,181711,uly@yttl.org,3,,7,1,17KBJE,40.665652,-73.939237,9,35,333,3393264,3014170007,Crown Heights South                                                        
KAYL,NYCEEC,K,"Puerto Rican Family Institute, Inc.",,718-388-6060,185 Marcy Ave,11211,4,25,995872,197144,lisanchez@prfi.org,3,,2,1,14KAYL,40.707729,-73.958337,1,33,529,3059752,3021510006,Williamsburg                                                               
K233,DOE,K,P.S. 233 Langston Hughes,,718-346-8103,9301 Ave B,11236,1,72,1008110,176607,tallen10@schools.nyc.gov,2,http://ps233-k12-et.schoolloop.com,3,3,18K233,40.651022,-73.91402,17,42,930,3104990,3047530001,Rugby-Remsen Village                                                       
KCGP,NYCEEC,K,Birch Family Services Nazareth ECC,,212-616-1851,475 East 57th St,11203,3,16,1005765,173846,marjory.antoine@birchfamilyservices.org,5,,9,3,18KCGP,40.643889,-73.922732,17,45,946,3221961,3079150010,Rugby-Remsen Village                                                       
KBUA,NYCEEC,K,BCS Atlantic Avenue ELC,<p><strong>Alert</strong>: Program may have income or other eligibility requirements. Contact for more information.</p>,347-296-4980,1825 Atlantic Ave,11233,1,18,1004969,186076,msurrency@wearebcs.org,3,http://wearebcs.org,3,2,16KBUA,40.677155,-73.925639,3,36,299,3397596,3017107501,Crown Heights North                                                        
K015,DOE,K,P.S. 015 Patrick F Daly,,718-330-9280,71 Sullivan St,11231,1,84,981053,185943,pwyns@schools.nyc.gov,3,http://ps15patrickfdaly.org,3,1,15K015,40.677343,-74.011558,6,38,53,3008585,3005660001,Carroll Gardens-Columbia Street-Red Hook                                   
KBPQ,NYCEEC,K,Generation21 Day Care,,718-621-9321,6709 19th Ave,11204,1,52,987214,163824,Generation21daycare@gmail.com,2,,7,1,20KBPQ,40.616569,-73.989381,11,47,256,3134705,3055700006,Bensonhurst West                                                           
K398,DOE,K,P.S. 398 Walter Weaver,,718-774-4466,60 East 94 St,11212,1,72,1004231,181212,tkatanb@schools.nyc.gov,2,http://schools.nyc.gov/schoolportals/17/k398,3,3,17K398,40.663559,-73.926959,17,41,882,3323072,3045950015,Rugby-Remsen Village                                                       
KBQA,NYCEEC,K,"Tiny Tots Playhouse, LLC, The",,718-745-4509,243 88 St,11209,3,54,975123,166067,tinytotplayhouse@aol.com,8,http://tinytotsplayhouse.wix.com/tinytots,7,1,20KBQA,40.622378,-74.033,10,43,60,3153687,3060480049,Bay Ridge                                                                  
K108,DOE,K,P.S. 108 Sal Abbracciamento,,718-277-7010,200 Linwood St,11208,1,108,1016343,187503,chahn3@schools.nyc.gov,2,http://schools.nyc.gov/schoolportals/19/k108,3,3,19K108,40.681268,-73.884063,5,37,117202,3087131,3039260045,Cypress Hills-City Line                                                    
KAOP,NYCEEC,K,Yeshivah Of Flatbush,,718-377-4040,919 East 10 St,11230,3,110,993607,167603,agellman@flatbush.org,5,,9,3,21KAOP,40.62638,-73.966486,12,44,456,3170990,3065230001,Midwood                                                                    
KBCV,NYCEEC,K,"Tabernacle Church Of God DCC, Inc.",,718-638-3209,34 Kosciuszko St,11205,3,60,997107,190731,tabernacleupk@verizon.net,3,,7,1,13KBCV,40.690353,-73.953678,3,36,241,3049719,3017830023,Bedford                                                                    
K309,DOE,K,P.S. 309 The George E Wibecan Preparatory Academy,,718-574-2381,794 Monroe St,11221,1,28,1005259,190031,aaponte10@schools.nyc.gov,2,http://schools.nyc.gov/schoolportals/16/k309,3,3,16K309,40.688419,-73.924833,3,41,385,3045047,3016430036,Stuyvesant Heights                                                         
K157,DOE,K,P.S. 157 Benjamin Franklin,,718-622-9285,850 Kent Ave,11205,1,36,995355,192637,ps157@outlook.com,3,http://schools.nyc.gov/schoolportals/14/k157,3,3,14K157,40.695417,-73.959571,3,33,1237,3054671,3018970013,Bedford                                                                    
KBQH,NYCEEC,K,Magen David Yeshivah,,718-676-0215,2170 Mcdonald Ave,11223,3,100,991725,157710,pbruger@mdyschool.org,5,,9,3,21KBQH,40.599872,-73.972845,11,47,410,3190443,3070870034,Bensonhurst East                                                           
KCNF,NYCEEC,K,Itty Bitty Adventures Preschool,,718-375-4700,3416 Ave S,11234,1,16,1003059,161147,pattiemerhej@ittybittyadventures.com,5,http://ittybittyadventures.com,9,3,22KCNF,40.608922,-73.932605,18,46,658,3240855,3085200042,Georgetown-Marine Park-Bergen Beach-Mill Basin                             
KBSI,NYCEEC,K,Friends Of Crown Heights 9,<p><strong>Alert</strong>: Program may have income or other eligibility requirements. Contact for more information.</p>,718-773-7733,813 Sterling Pl,11216,1,55,997721,184380,pbutts@foch.biz,7,http://fochdaycare.org,3,1,17KBSI,40.672613,-73.95161,8,36,31701,3031515,3012400056,Crown Heights North                                                        
KBNJ,NYCEEC,K,Bedford Stuyvesant ECDC 260,,718-453-0722,260 Jefferson Ave,11216,3,20,998867,188269,foxcasalk@bsecdc.org,3,,3,1,13KBNJ,40.683552,-73.94764,3,36,249,3052305,3018330038,Bedford                                                                    
K236,DOE,K,P.S. 236 Mill Basin,,718-444-6969,6302 Ave U,11234,1,54,1008520,163671,alabella@schools.nyc.gov,2,http://schools.nyc.gov/schoolportals/22/k236,3,3,22K236,40.615998,-73.912989,18,46,698,3326821,3084640001,Georgetown-Marine Park-Bergen Beach-Mill Basin                             
K226,DOE,K,P.S. 226 Alfred De Bmason,,718-234-4940,6006 23 Ave,11204,1,54,990693,163416,stannen2@schools.nyc.gov,3,http://schools.nyc.gov/schoolportals/21/k226,7,3,21K226,40.615252,-73.97635,12,44,446,3172071,3065490024,Borough Park                                                               
KBPU,NYCEEC,K,Our Saviour's Lutheran Preschool,,718-745-0020,414 80th St,11209,1,76,976961,167660,oslpreschool@verizon.net,2,http://oursaviourslutheranpreschool.com,3,1,20KBPU,40.626829,-74.025967,10,43,138,3151309,3059890006,Bay Ridge                                                                  
KBGJ,NYCEEC,K,Mevakshei Hashem,,718-435-8900,550 Ocean Pkwy,11226,1,36,991727,170485,pschiff@mevakshai.org,7,,6,1,20KBGJ,40.63492,-73.972517,12,39,484,3127188,3053990032,Kensington-Ocean Parkway                                                   
K394,DOE,K,M.S. K394,,718-756-3164,188 Rochester Ave,11213,1,90,1004137,184405,gshawpieters@schools.nyc.gov,2,http://schools.nyc.gov/schoolportals/17/k394,3,3,17K394,40.672762,-73.927973,8,36,347,3036289,3013670022,Crown Heights North                                                        
KBLT,NYCEEC,K,Tompkins Children's Center,<p><strong>Alert</strong>: Program may have income or other eligibility requirements. Contact for more information.</p>,718-782-9140,730 Park Ave,11206,1,33,999230,193457,mthompson@bksny.org,2,http://bksny.org,7,1,14KBLT,40.697942,-73.946392,3,36,25902,3324248,3017400001,Bedford                                                                    
K151,DOE,K,P.S. 151 Lyndon B Johnson,,718-326-6360,763 Knickerbocker Ave,11207,1,18,1009676,191905,jhunt@schools.nyc.gov,2,http://schools.nyc.gov/schoolportals/32/k151,3,3,32K151,40.693293,-73.90864,4,37,437,3078654,3034060001,Bushwick North                                                             
K067,DOE,K,P.S. 067 Charles A Dorsey,,718-834-6756,51 Saint Edwards St,11205,1,18,990385,192610,gsolomon3@schools.nyc.gov,3,http://schools.nyc.gov/schoolportals/13/k067,3,3,13K067,40.695633,-73.978215,2,35,2901,3332507,3020390002,Fort Greene                                                                
KBQU,NYCEEC,K,Keshet Learning Center,,718-376-6958,1612 Quentin Rd,11229,1,18,996250,160871,Queenpa18@aol.com,3,,8,1,22KBQU,40.608382,-73.957034,15,48,552,3183039,3067990005,Madison                                                                    
K048,DOE,K,P.S. 048 Mapleton,,718-232-3873,6015 18 Ave,11204,1,18,987776,165729,jmagenta@schools.nyc.gov,5,http://schools.nyc.gov/schoolportals/20/k048,9,3,20K048,40.621871,-73.987396,12,44,244,3132140,3055190001,Borough Park                                                               
KANO,NYCEEC,K,Yeshivas Boyan Tifereth Mordechai Shlomo,,718-435-6060,1205 44 St,11219,1,30,986737,172123,boyan@verizon.net,5,,9,3,15KANO,40.638925,-73.991007,12,39,224,3136132,3056040001,Borough Park                                                               
KBPN,NYCEEC,K,Beth Jacob DCC,<p><strong>Alert</strong>: Program may have income or other eligibility requirements. Contact for more information.</p>,718-435-5755,1363 46th St,11219,1,106,987427,170925,up-ka@hotmail.com,7,,7,2,20KBPN,40.635922,-73.989058,12,44,232,3136748,3056170050,Borough Park                                                               
K268,DOE,K,P.S. 268 Emma Lazarus,,718-773-5332,133 East 53 St,11203,1,36,1004308,178698,VKirton@schools.nyc.gov,3,http://schools.nyc.gov/schoolportals/18/k268,1,3,18K268,40.657131,-73.928018,17,41,866,3100292,3046230028,Rugby-Remsen Village                                                       
KCIE,NYCEEC,K,Bnos Chaya,,718-851-1212,4511 14th Ave,11219,1,20,987664,170821,draizy102@gmail.com,7,,3,1,20KCIE,40.635809,-73.987703,12,44,232,3136756,3056180004,Borough Park                                                               
KBZX,NYCEEC,K,Yeshiva Torah Vodaath Preschool,,718-941-8000,1192 East 31st St,11210,1,36,999445,165995,rye@torahvodaath.org,5,,9,3,22KBZX,40.622567,-73.945065,18,45,748,3396953,3076300001,Midwood                                                                    
KBSL,NYCEEC,K,Charles R Drew ELC 5,<p><strong>Alert</strong>: Program may have income or other eligibility requirements. Contact for more information.</p>,718-740-2400,2804 Glenwood Rd,11210,1,61,998137,170247,crddcc@aol.com,3,http://charlesrdrewforsuccess.org,7,2,22KBSL,40.634106,-73.950086,14,45,774,3336755,3075570032,Flatbush                                                                   
K676,DOE,K,Red Hook Neighborhood School,,718-330-2238,27 Huntington St,11231,1,36,982876,186241,rbrown24@schools.nyc.gov,2,http://schools.nyc.gov/schoolportals/15/k676,3,3,15K676,40.677564,-74.005166,6,38,59,3008342,3005250001,Carroll Gardens-Columbia Street-Red Hook                                   
KCJO,NYCEEC,K,Aim High Childrens Services,,718-509-0630,83 Marlborough Rd,11226,1,48,993841,175405,upk@aimhighchild.com,5,http://aimhighchild.org,4,1,17KCJO,40.647986,-73.965697,14,40,1522,3117046,3050960001,Flatbush                                                                   
KCMA,NYCEEC,K,Seeds Of Unity,,347-715-6545,5816 13th Ave,11219,1,20,984827,168692,seedsofunity@gmail.com,5,,9,3,20KCMA,40.629843,-73.997521,12,44,192,3140724,3057040045,Borough Park                                                               
Z077,NYCEEC,K,Pre - K Center At 385 Avenue W,,347-492-6782,385 Ave W,11223,1,126,993033,155357,JSkop@schools.nyc.gov,5,,9,3,21Z077,40.592894,-73.968638,15,47,388,3193833,3071540040,Homecrest                                                                  
KCGN,NYCEEC,K,SCO Family Of Services,,718-345-6666,774 Saratoga Ave,11212,1,90,1007553,180354,SAndrews@sco.org,3,http://sco.org,3,2,23KCGN,40.661915,-73.915578,16,41,894,3326658,3035680001,Brownsville                                                                
KBRP,NYCEEC,K,Friends Of Crown Heights Educational Center #5,<p><strong>Alert</strong>: Program may have income or other eligibility requirements. Contact for more information.</p>,718-284-9194,1886 Nostrand Ave,11226,1,110,998493,172268,nichols@foch.biz,3,http://fochdaycare.org,2,1,22KBRP,40.639556,-73.948377,17,45,828,3328292,3052160040,Erasmus                                                                    
K165,DOE,K,P.S. 165 Ida Posner,,718-495-7759,76 Lott Ave,11212,1,36,1008949,178732,fellers@schools.nyc.gov,2,http://schools.nyc.gov/schoolportals/23/k165,3,3,23K165,40.65744,-73.911053,16,42,896,3082726,3036220023,Brownsville                                                                
KAOA,NYCEEC,K,Yeshiva Headstart 40th Street,<p><strong>Alert</strong>: Program may have income or other eligibility requirements. Contact for more information.</p>,718-633-2232,1402 40th St,11218,1,16,988545,171886,mkramer@ykypupa.org,5,,7,1,20KAOA,40.63851,-73.984316,12,39,230,3124884,3053450006,Borough Park                                                               
K316,DOE,K,P.S. 316 Elijah Stroud,,718-638-4043,750 Classon Ave,11238,1,54,995204,185072,omaluf@schools.nyc.gov,2,http://schools.nyc.gov/schoolportals/17/k316,3,3,17K316,40.674406,-73.960254,8,35,215,3029246,3011670018,Prospect Heights                                                           
K249,DOE,K,P.S. 249 The Caton,,718-282-8828,18 Marlborough Rd,11226,1,36,993590,175985,ebrown4@schools.nyc.gov,5,http://schools.nyc.gov/schoolportals/17/k249,9,3,17K249,40.64971,-73.966046,14,40,506,3116438,3050750001,Flatbush                                                                   
KCLC,NYCEEC,K,Sunny Skies Preschool,<p><strong>Alert</strong>: Program may have income or other eligibility requirements. Contact for more information.</p>,917-337-8003,720 Washington Ave,11238,1,58,994321,185652,paola@sunnyskiespreschool.com,5,http://sunnyskiespreshool.com,9,3,13KCLC,40.676306,-73.963494,8,35,205,3028878,3011600037,Prospect Heights                                                           
K186,DOE,K,P.S. 186 Dr. Irving A Gladstone,,718-236-7071,7601 19 Ave,11214,1,18,985747,161927,bcadotte@schools.nyc.gov,5,http://ps186.com,9,3,20K186,40.611483,-73.994677,11,47,274,3160923,3062390001,Bensonhurst West                                                           
KBPB,NYCEEC,K,Breukelen ECDC,<p><strong>Alert</strong>: Program may have income or other eligibility requirements. Contact for more information.</p>,718-649-1463,717 East 105th St,11236,1,34,1013270,175635,breukelendcc@verizon.net,5,,9,3,18KBPB,40.648672,-73.895937,18,42,982,3321523,3081930001,Canarsie                                                                   
K052,DOE,K,P.S. 052 Sheepshead Bay,,718-648-0882,2675 East 29 St,11235,1,72,1000858,153397,ralvare4@schools.nyc.gov,3,http://schools.nyc.gov/schoolportals/22/k052,3,3,22K052,40.58792,-73.940532,15,48,600,3205435,3074740001,Sheepshead Bay-Gerritsen Beach-Manhattan Beach                             
KCJF,NYCEEC,K,Clarkson ECC,,718-649-3488,8801 Glenwood Rd,11236,1,36,1009460,172815,8801cecc@gmail.com,7,,6,2,18KCJF,40.640846,-73.909018,18,46,964,3224067,3079930008,Canarsie                                                                   
KCJS,NYCEEC,K,Yeshiva Torah Vodaath,,718-941-8000,452 East 9 St,11218,1,40,992643,171495,preschoolytv@gmail.com,7,,3,1,22KCJS,40.637648,-73.969586,12,40,492,3126876,3053920032,Kensington-Ocean Parkway                                                   
K705,DOE,K,Brooklyn Arts And Science Elementary School,<P> <Strong>Note:</strong>  Students who are English Language Learners and/or are in the child welfare system will have priority for 20% of seats. If the applicant is in the child welfare system please contact the school directly.</P>,718-230-0851,443 St Marks Ave,11238,1,72,995436,185886,brooklynartselementary@gmail.com,2,http://schools.nyc.gov/schoolportals/17/k705,3,3,17K705,40.676774,-73.960058,8,35,305,3028281,3011480050,Crown Heights North                                                        
KCKB,NYCEEC,K,Bushwick United Development Fund,<p><strong>Alert</strong>: Program may have income or other eligibility requirements. Contact for more information.</p>,718-443-0685,243 South 2nd St,11211,1,19,995969,198682,jendale319@aol.com,3,http://bushwickunited.org,8,1,14KCKB,40.711824,-73.958096,1,34,523,3256381,3024080032,North Side-South Side                                                      
K017,DOE,K,P.S. 017 Henry D Woodworth,,718-387-2929,208 North 5 St,11211,1,28,996201,199850,rmarchi@schools.nyc.gov,2,http://schools.nyc.gov/schoolportals/14/k017,3,3,14K017,40.715351,-73.956716,1,34,519,3062337,3023450001,North Side-South Side                                                      
KBPJ,NYCEEC,K,Recreation Rooms And Settlement Starrett Early Learning,,718-642-8724,125 Schrooeders Ave,11239,1,20,1017280,175475,ssippy@aol.com,7,,8,1,19KBPJ,40.647716,-73.881307,5,42,105801,3343597,3044520085,Starrett City                                                              
KARS,NYCEEC,K,Action Nursery,<p><strong>Alert</strong>: Program may have income or other eligibility requirements. Contact for more information.</p>,718-854-7777,1019 46th St,11219,1,14,985283,172619,actionnursery@thejnet.com,3,,7,2,15KARS,40.640388,-73.996451,12,39,112,3136635,3056140042,Sunset Park East                                                           
KCOG,NYCEEC,K,Stepz 2 Success CCC,,718-508-2199,1992 Nostrand Ave,11210,1,12,998595,171354,dadams0784@gmail.com,5,,9,3,22KCOG,40.637091,-73.948116,14,45,788,3121059,3052310054,Flatbush                                                                   
K628,DOE,K,Brooklyn Brownstone School,,718-573-2307,272 Macdonough St,11233,1,36,1002154,187659,sgibbs4@schools.nyc.gov,2,http://schools.nyc.gov/schoolportals/16/k628,2,3,16K628,40.681896,-73.935963,3,36,273,3047054,3016740011,Stuyvesant Heights                                                         
K180,DOE,K,The Seeall Academy,,718-851-8070,5601 16 Ave,11204,1,38,987136,167594,20k180@schools.nyc.gov,2,http://seeallacademy.com,3,3,20K180,40.627029,-73.989672,12,44,470,3130809,3054920001,Borough Park                                                               
KBMA,NYCEEC,K,Tiferes Bnos,,718-599-2900,80 Skillman St,11205,3,40,996008,192887,bailar@tiferesbnos.org,5,,9,3,14KBMA,40.695957,-73.957392,3,33,1237,3390202,3018990038,Bedford                                                                    
K748,DOE,K,P.S. 748 Brooklyn School For Global Scholars,,718-382-3130,1664 Benson Ave,11214,1,36,982228,160397,dsalerno4@schools.nyc.gov,2,http://ps748scholars.com,3,3,20K748,40.607234,-74.007199,11,43,180,3167623,3063990026,Bath Beach                                                                 
KBNC,NYCEEC,K,Nesivos Bais Yaakov,,718-972-0804,1021 45th St,11219,3,40,985463,172802,nbyupk@gmail.com,7,,8,1,15KBNC,40.640918,-73.995817,12,39,112,3136354,3056080047,Sunset Park East                                                           
KAPB,NYCEEC,K,Yeshivat Shaare Torah,,718-437-6101,222 Ocean Pkwy,11218,3,60,991215,174025,chavys2003@yahoo.com,8,,3,1,15KAPB,40.64439,-73.974325,12,39,494,3124704,3053380051,Kensington-Ocean Parkway                                                   
K221,DOE,K,P.S. 221 Toussaint L'Ouverture,,718-756-0122,791 Empire Blvd,11213,1,54,1001983,181168,cmoodie@schools.nyc.gov,2,http://schools.nyc.gov/schoolportals/17/k221,3,3,17K221,40.663701,-73.936049,9,35,355,3038372,3014230014,Crown Heights South                                                        
KBMU,NYCEEC,K,A.C.E. ECC,<p><strong>Alert</strong>: Program may have income or other eligibility requirements. Contact for more information.</p>,718-439-0450,199 14th Street2nd Floor,11215,1,17,986915,182329,aguo@lmcmc.com,3,,2,1,15KBMU,40.666966,-73.990448,6,39,141,3023430,3010340068,Park Slope-Gowanus                                                         
KBNT,NYCEEC,K,Shirley Chisholm DCC Site 1,<p><strong>Alert</strong>: Program may have income or other eligibility requirements. Contact for more information.</p>,718-756-1721,2023 Pacific St,11233,1,40,1006160,185664,scd2023@aol.com,3,,3,1,16KBNT,40.676107,-73.921328,16,41,303,3038522,3014310054,Ocean Hill                                                                 
K045,DOE,K,P.S. 045 Horace E Greene,,718-642-5360,84 Schaefer St,11207,1,54,1009081,189447,tlott-davis@schools.nyc.gov,2,http://schools.nyc.gov/schoolportals/32/k045,3,3,32K045,40.686746,-73.910693,4,37,401,3079428,3034270011,Bushwick South                                                             
KBGI,NYCEEC,K,Yeled V'Yalda 1257,,718-514-8712,1257 38th St,11218,3,110,988054,173072,mhorowitz@yeled.org,3,http://yeled.org,3,1,15KBGI,40.641793,-73.986693,12,39,226,3394062,3052950047,Borough Park                                                               
KBQL,NYCEEC,K,Shorefront YM - YWHA,,718-646-1444,3300 Coney Is Ave,11235,1,54,995417,148981,kirilko@shorefronty.org,7,http://shorefronty.org,3,1,21KBQL,40.575607,-73.959463,13,48,36002,3326880,3086930001,Brighton Beach                                                             
K156,DOE,K,P.S. 156 Waverly,,718-498-2811,104 Sutter Ave,11212,1,36,1006944,181831,23k156@schools.nyc.gov,2,http://156k.org,3,3,23K156,40.665965,-73.918107,16,41,900,3081276,3035350016,Brownsville                                                                
KCIC,NYCEEC,K,"Little Einstiens Of Canarsie, LLC",,718-251-5000,8413 Ave K,11236,1,100,1010231,170493,nbokhour@aol.com,5,,9,3,18KCIC,40.634314,-73.906386,18,46,996,3397081,3080367501,Canarsie                                                                   
KAOQ,NYCEEC,K,Yeshiva Of Kings Bay,,718-646-8500,2611 Ave Z,11235,3,18,1000029,154006,myz@ykb.us,5,,9,3,22KAOQ,40.589179,-73.943404,15,48,596,3204595,3074420011,Sheepshead Bay-Gerritsen Beach-Manhattan Beach                             
KBES,NYCEEC,K,Bushwick United HDFC 6,<p><strong>Alert</strong>: Program may have income or other eligibility requirements. Contact for more information.</p>,718-453-5500,200 Central Ave,11221,1,64,1004804,193693,REGINAR@BUSHWICKUNITED.ORG,3,http://bushwickunited.org,2,1,32KBES,40.698397,-73.925727,4,34,423,3073408,3032280020,Bushwick South                                                             
K287,DOE,K,P.S. 287 Bailey K Ashford,,718-834-4745,50 Navy St,11201,1,54,989554,193596,jfrancois5@schools.nyc.gov,2,http://schools.nyc.gov/schoolportals/13/k287,3,3,13K287,40.697901,-73.98054,2,35,23,3000203,3001110001,DUMBO-Vinegar Hill-Downtown Brooklyn-Boerum Hill                           
KADP,NYCEEC,K,Gan DCC,<p><strong>Alert</strong>: Program may have income or other eligibility requirements. Contact for more information.</p>,718-435-2812,4206 - 10 15th Ave,11219,1,47,988683,171061,gandaycare@verizon.net,5,,9,3,20KADP,40.636182,-73.983758,12,44,232,3135986,3056000037,Borough Park                                                               
KCKK,NYCEEC,K,992 Gates Avenue,,718-483-9553,992 Gates Ave,11221,3,42,1005406,190355,adaptivesolutions1@gmail.com,5,,9,3,17KCKK,40.6893,-73.923685,3,41,375,3039623,3014800002,Stuyvesant Heights                                                         
KBVD,NYCEEC,K,Nuestros Ninos DCC III,<p><strong>Alert</strong>: Program may have income or other eligibility requirements. Contact for more information.</p>,718-388-5000,161 South 3rd St,11211,1,13,994991,198771,aaccoo702am@gmail.com,3,,7,1,14KBVD,40.712106,-73.961371,1,34,551,3063127,3024180031,North Side-South Side                                                      
KBQK,NYCEEC,K,Sephardic Community Center,,718-627-4300,1901 Ocean Pkwy,11223,3,15,993771,158685,barry@scclive.org,5,,9,3,21KBQK,40.60211,-73.966289,15,47,416,3190468,3070880001,Homecrest                                                                  
KBXT,NYCEEC,K,"New Generation Learning Center, Inc.",,718-941-0404,2597 Bedford Ave,11226,1,18,997026,172434,day1gen@yahoo.com,5,,9,3,22KBXT,40.64,-73.954207,17,45,790,3120344,3052110026,Erasmus                                                                    
K276,DOE,K,P.S. 276 Louis Marshall,,718-241-5757,1070 East 83 St,11236,1,144,1009786,170188,yfideli@schools.nyc.gov,2,http://schools.nyc.gov/schoolportals/18/k276,3,3,18K276,40.634085,-73.907925,18,46,996,3225637,3080340001,Canarsie                                                                   
KBQV,NYCEEC,K,Fantasia DCC,,718-646-6738,2743 Ocean Ave,11229,1,33,998090,155851,fantasiadcc@hotmail.com,2,http://fantasiadaycare.com,7,1,22KBQV,40.594304,-73.950436,15,48,59401,3202176,3074050066,Sheepshead Bay-Gerritsen Beach-Manhattan Beach                             
KBRL,NYCEEC,K,"Tiny Tots Express, Inc.",,718-338-9561,3321 Ave N,11234,1,15,1000484,164353,ttexpressinc@aol.com,8,http://tinytotsexpressinc.webs.com,7,1,22KBRL,40.617562,-73.941975,18,45,746,3210450,3076690002,Flatlands                                                                  
KBGC,NYCEEC,K,Yeled V'Yalda,,718-514-8930,1377 42nd St,11219,3,17,988159,171649,rherbst@yeled.org,6,http://yeled.org,6,1,20KBGC,40.638033,-73.98651,12,39,232,3135754,3055940046,Borough Park                                                               
KCKG,NYCEEC,K,Rockgate DCC 1,,718-348-7414,770 - 784 Glenmore Ave,11208,1,25,1017056,185285,jrockgate@gmail.com,3,,6,1,19KCKG,40.675288,-73.88177,5,37,1166,3088977,3040040012,East New York                                                              
K112,DOE,K,P.S. 112 Lefferts Park,,718-232-0685,7301 15 Ave,11228,1,20,983812,164596,LVerdem@schools.nyc.gov,5,http://schools.nyc.gov/schoolportals/20/k112,9,3,20K112,40.618718,-74.001898,11,43,188,3253521,3062020006,Bensonhurst West                                                           
K323,DOE,K,P.S. / I.S. 323,,718-495-7781,210 Chester St,11212,1,36,1008890,182134,lharris7@schools.nyc.gov,2,http://schools.nyc.gov/schoolportals/23/k323,3,3,23K323,40.666545,-73.910904,16,41,924,3081442,3035420001,Brownsville                                                                
KBXL,NYCEEC,K,A.C.E. Integration Head Start,<p><strong>Alert</strong>: Program may have income or other eligibility requirements. Contact for more information.</p>,718-443-3917,1419 - 23 Broadway,11221,1,63,1006362,190197,lydiawilliams.aceheadstart@aol.com,3,http://aceintegration.org,7,2,32KBXL,40.688518,-73.920315,4,34,397,3251950,3033570006,Bushwick South                                                             
KBSB,NYCEEC,K,"HCHC, Inc.",,718-443-3917,1419 Broadway,11221,1,10,1006406,190170,vera.gregory@aceintegration.org,3,,4,2,32KBSB,40.688518,-73.920315,4,34,397,3251950,3033570006,Bushwick South                                                             
KAZC,NYCEEC,K,Talmud Torah Ohr Moshe,,718-234-6100,1774 58th St,11204,1,20,988008,166331,ttohrmoshe@gmail.com,5,,9,3,20KAZC,40.623606,-73.986815,12,44,244,3131451,3055040037,Borough Park                                                               
KBKF,NYCEEC,K,Williamsburg CCC,<p><strong>Alert</strong>: Program may have income or other eligibility requirements. Contact for more information.</p>,347-943-7682,110 Taylor St,11249,1,14,994313,196216,donatod@e-s-s.org,3,http://essny.org,7,1,14KBKF,40.705423,-73.963835,1,33,545,3341989,3021760001,Williamsburg                                                               
KBLS,NYCEEC,K,Sumner Children's Center,<p><strong>Alert</strong>: Program may have income or other eligibility requirements. Contact for more information.</p>,718-455-3471,860 Park Ave,11206,1,29,1000711,193640,ejaffe@bksny.org,3,http://bksny.org,7,1,14KBLS,40.698576,-73.940801,3,36,28502,3324728,3015800001,Stuyvesant Heights                                                         
K119,DOE,K,P.S. 119 Amersfort,,718-377-7696,3829 Ave K,11210,1,36,1001254,167364,lfernan5@schools.nyc.gov,3,http://schools.nyc.gov/schoolportals/22/k119,3,3,22K119,40.625662,-73.938265,18,45,734,3215816,3077860001,Flatlands                                                                  
KBJO,NYCEEC,K,"Yeled V'Yalda ECC, Inc.",,718-854-6922,1349 / 53 50th St,11219,3,44,986692,170199,Sschwartz@yeled.org,3,,3,1,20KBJO,40.63382,-73.991609,12,44,236,3137766,3056420053,Borough Park                                                               
KBTC,NYCEEC,K,Brightside Academy - Belmont,<p><strong>Alert</strong>: Program may have income or other eligibility requirements. Contact for more information.</p>,718-346-1064,50 Belmont Ave,11212,1,48,1009679,182868,msteele@brightsideacademy.com,5,http://brightsideacademy.com,7,1,23KBTC,40.668708,-73.908414,16,41,906,3081140,3035260215,Brownsville                                                                
K106,DOE,K,P.S. 106 Edward Everett Hale,,718-574-0261,1328 Putnam Ave,11221,1,36,1008466,192021,rflores@schools.nyc.gov,2,http://schools.nyc.gov/schoolportals/32/k106,3,3,32K106,40.693879,-73.913056,4,37,435,3077286,3033770001,Bushwick North                                                             
KAAS,NYCEEC,K,Associated Beth Rivkah School - UPK,,718-735-0400,470 Lefferts Ave,11225,3,80,999262,180626,stenenbaum@bethrivkah.edu,5,,9,3,17KAAS,40.662647,-73.945959,9,40,806,3035454,3013310019,Prospect Lefferts Gardens-Wingate                                          
K190,DOE,K,P.S. 190 Sheffield,,718-346-8780,590 Sheffield Ave,11207,1,18,1013461,180625,ssantiago11@schools.nyc.gov,2,http://schools.nyc.gov/schoolportals/19/k190,3,3,19K190,40.662326,-73.894441,5,42,1128,3085491,3038380018,East New York (Pennsylvania Ave)                                           
K153,DOE,K,P.S. 153 Homecrest,,718-375-4484,1970 Homecrest Ave,11229,1,64,995364,158309,csanta@schools.nyc.gov,2,http://schools.nyc.gov/schoolportals/21/k153,3,3,21K153,40.601617,-73.959779,15,48,556,3196677,3072910030,Homecrest                                                                  
KCII,NYCEEC,K,Kings Bay Y At North Williamsburg,,718-407-6388,14 Hope St,11211,1,35,996088,199246,swaller@northwilliamsburgy.org,5,http://northwilliamsburgy.org,2,1,14KCII,40.713735,-73.957349,1,34,519,3062679,3023837503,North Side-South Side                                                      
K095,DOE,K,P.S. 095 The Gravesend,,718-449-5050,345 Van Sicklen St,11223,1,36,991224,156323,jndzibah@schools.nyc.gov,2,http://schools.nyc.gov/schoolportals/21/k095,3,3,21K095,40.595698,-73.97518,15,47,398,3192661,3071230066,Gravesend                                                                  
KBEZ,NYCEEC,K,Friends Of Crown Heights Educational Center #11,<p><strong>Alert</strong>: Program may have income or other eligibility requirements. Contact for more information.</p>,929-234-5010,995 Carroll St,11225,1,57,996138,182583,Vgbenedio@foch.biz,3,http://fochdaycare.org,3,1,17KBEZ,40.66771,-73.957331,9,35,325,3033470,3012800054,Crown Heights South                                                        
K100,DOE,K,P.S. 100 The Coney Island School,,718-266-9477,2951 West 3 St,11224,1,36,992317,149702,ctozzi@schools.nyc.gov,2,http://schools.nyc.gov/schoolportals/21/k100,3,3,21K100,40.57732,-73.971313,13,48,35602,3196595,3072810001,West Brighton                                                              
KBJI,NYCEEC,K,Marcy Children's Center,<p><strong>Alert</strong>: Program may have income or other eligibility requirements. Contact for more information.</p>,718-855-7252,494 Marcy Ave,11206,1,20,998055,193639,betinolr@e-s-s.org,3,,7,1,14KBJI,40.698084,-73.949756,3,36,255,3325586,3017190001,Bedford                                                                    
K384,DOE,K,P.S. / I.S. 384 Frances E Carter,,718-574-0382,242 Cooper St,11207,1,36,1010671,190713,praulli@schools.nyc.gov,3,http://schools.nyc.gov/schoolportals/32/k384,3,3,32K384,40.690353,-73.904803,4,37,409,3080043,3034420001,Bushwick North                                                             
K397,DOE,K,P.S. 397 Foster - Laurie,,718-774-5200,490 Fenimore St,11203,1,12,999116,179285,ncolon@schools.nyc.gov,3,http://schools.nyc.gov/schoolportals/17/k397,3,3,17K397,40.658939,-73.94629,9,40,810,3107315,3048150020,Prospect Lefferts Gardens-Wingate                                          
Z067,DOE,K,Pre - K Center At 1355 84th Street,,718-621-8510,1355 84th St,11228,1,100,981193,163156,DGounar@schools.nyc.gov,5,,9,3,20Z067,40.614466,-74.011425,10,43,150,3335077,3063090048,Dyker Heights                                                              
K029,DOE,K,P.S. 029 John M Harrigan,,718-330-9277,425 Henry St,11201,1,54,984883,189545,rfagin@schools.nyc.gov,3,http://schools.nyc.gov/schoolportals/15/k029,3,3,15K029,40.686951,-73.99806,6,39,45,3255627,3003110001,Carroll Gardens-Columbia Street-Red Hook                                   
KBJS,NYCEEC,K,Friends Of Crown Heights 10,<p><strong>Alert</strong>: Program may have income or other eligibility requirements. Contact for more information.</p>,929-234-2821,1491 Bedford Ave,11216,1,51,996876,183970,Alexander@fochdaycare.org,3,http://fochdaycare.org,3,1,17KBJS,40.671739,-73.954672,8,35,219,3032188,3012530007,Crown Heights North                                                        
KADW,NYCEEC,K,Brooklyn Amity School,,718-891-6100,3867 Shr Pkwy,11235,1,30,1003138,153054,kidschoicepreschool@verizon.net,5,,9,3,22KADW,40.586329,-73.93226,15,48,598,3247917,3088060017,Sheepshead Bay-Gerritsen Beach-Manhattan Beach                             
KBTE,NYCEEC,K,Brightside Academy - Broadway,<p><strong>Alert</strong>: Program may have income or other eligibility requirements. Contact for more information.</p>,718-455-1612,1491 Broadway,11221,1,55,1007026,189699,rinman@brightsideacademy.com,5,http://brightsideacademy.com,6,1,32KBTE,40.687309,-73.918192,4,37,397,3394519,3033800005,Bushwick South                                                             
KCOW,NYCEEC,K,Little Scholars Learning Center,,718-373-7046,52 Quentin Rd,11223,1,18,988502,159761,littlescholarsnyc@gmail.com,5,,9,3,21KCOW,40.605325,-73.984727,11,44,428,3176456,3066450002,Bensonhurst East                                                           
K161,DOE,K,P.S. 161 The Crown,,718-756-3100,330 Crown St,11225,1,36,998338,181915,mjohnso10@schools.nyc.gov,2,http://schools.nyc.gov/schoolportals/17/k161,3,3,17K161,40.666181,-73.949013,9,35,319,3034181,3012970026,Crown Heights South                                                        
KBSD,NYCEEC,K,"Salvation Army, Bushwick",<p><strong>Alert</strong>: Program may have income or other eligibility requirements. Contact for more information.</p>,718-455-0100,1151 Bushwick Ave,11221,1,20,1007190,190417,Indhira.Reyes@use.salvationarmy.org,3,,3,1,32KBSD,40.689133,-73.917483,4,34,399,3077163,3033740001,Bushwick South                                                             
K335,DOE,K,P.S. 335 Granville T Woods,,718-493-7736,130 Rochester Ave,11213,1,36,1004167,184956,principalthompson335@gmail.com,2,http://schools.nyc.gov/schoolportals/16/k335,3,3,16K335,40.674656,-73.927794,8,36,307,3035887,3013550023,Crown Heights North                                                        
KCME,NYCEEC,K,Bka Utica,,718-953-9011,250 Utica Ave,11213,1,20,1003343,183392,office@brooklynkidsny.org,5,,9,3,17KCME,40.670102,-73.931011,8,35,351,3398400,3013840051,Crown Heights North                                                        
K677,DOE,K,East New York Elementary School Of Excellence,,718-272-6075,605 Shepherd Ave,11208,1,30,1017717,183231,jtouzin@schools.nyc.gov,2,http://schools.nyc.gov/schoolportals/19/k677,7,3,19K677,40.669387,-73.879614,5,42,1164,3090219,3040690001,East New York                                                              
KBUF,NYCEEC,K,Butterfly,,718-677-9343,2810 Nostrand Ave,11229,1,18,999521,163428,margarita.karimova24@gmail.com,5,http://brooklyn-butterfly.com,9,3,22KBUF,40.615724,-73.944776,15,45,642,3211291,3076900051,Madison                                                                    
KBXU,NYCEEC,K,Yeled V?yalda,,718-514-8928,1200 Ocean Pkwy,11230,3,12,992520,164995,fbomrind@yeled.org,5,http://yeled.org,9,3,21KBXU,40.619565,-73.969609,12,44,448,3256733,3054951000,Ocean Parkway South                                                        
KCNP,NYCEEC,K,Little Sunshine Preschool,,347-921-1815,1815 85th St,11214,1,54,983845,160708,nylittlesunshinepreschool@gmail.com,5,,9,3,20KCNP,40.607399,-74.001235,11,47,278,3398583,3063320071,Bensonhurst West                                                           
KBWV,NYCEEC,K,St. Johns Place Family Center Day Care Program,<p><strong>Alert</strong>: Program may have income or other eligibility requirements. Contact for more information.</p>,718-771-7720,1620 Saint Johns Pl,11233,1,19,1005321,183387,carolyn@stjohnsplace.org,3,http://stjohnsplace.org,7,1,17KBWV,40.670202,-73.924133,8,41,359,3037204,3013870024,Crown Heights North                                                        
Z073,NYCEEC,K,Pre - K Center At 7415 Ft. Hamilton Parkway,,718-333-5745,7415 Ft Hamilton Pkwy,11228,1,300,979897,167343,DGounar@schools.nyc.gov,5,,9,3,20Z073,40.626158,-74.015894,10,43,206,3148471,3059340001,Dyker Heights                                                              
KCIZ,NYCEEC,K,Al Madinah School Site 2,,718-222-4986,2015 64 St,11204,1,15,988538,164029,almadinahinfo@gmail.com,2,http://almadinah-school.com,2,1,20KCIZ,40.616804,-73.984692,11,47,254,3133294,3055420072,Bensonhurst West                                                           
K557,DOE,K,Brooklyn Gardens Elementary School,,718-495-7012,574 Dumont Ave,11207,1,36,1012718,181795,19k557@schools.nyc.gov,2,http://schools.nyc.gov/schoolportals/19/k557,3,3,19K557,40.665798,-73.897723,5,42,1130,3084617,3038020015,East New York (Pennsylvania Ave)                                           
KBQY,NYCEEC,K,Get Set Kindergarten School Site - Snyder,,718-856-4646,2301 Snyder Ave,11226,1,36,996625,175651,getsetkaye@hotmail.com,2,,7,1,17KBQY,40.648661,-73.955617,17,40,794,3117295,3051070001,Erasmus                                                                    
KALL,NYCEEC,K,St. Gregory The Great Catholic Academy,,917-972-9673,2520 Church Ave,11226,1,36,997022,176227,sgg991@yahoo.com,5,,9,3,17KALL,40.650587,-73.954261,17,40,794,3338999,3051040056,Erasmus                                                                    
KCLM,NYCEEC,K,Trey Whitfield School,,718-342-7722,17 Hinsdale St,11207,1,54,1011694,185198,jwhitney@treywhitfieldschool.org,5,,9,3,19KCLM,40.674961,-73.901487,5,37,1144,3083450,3036820033,East New York (Pennsylvania Ave)                                           
KCHP,NYCEEC,K,Weeksville Gardens,,718-623-9803,1640 Pacific St,11213,1,54,1002387,185783,jmatison@bksny.org,5,,9,3,18KCHP,40.676818,-73.934627,8,36,309,3341633,3013410012,Crown Heights North                                                        
KBGU,NYCEEC,K,New Life CDC 1,<p><strong>Alert</strong>: Program may have income or other eligibility requirements. Contact for more information.</p>,718-821-3432,295 Woodbine St,11237,1,65,1008316,192998,snewlife1@gmail.com,3,,7,1,32KBGU,40.696412,-73.912941,4,37,435,3076869,3033620055,Bushwick North                                                             
K075,DOE,K,P.S. 075 Mayda Cortiella,,718-574-0244,95 Grv St,11221,1,54,1006134,191822,ywillia@schools.nyc.gov,2,http://schools.nyc.gov/schoolportals/32/k075,1,3,32K075,40.693313,-73.920666,4,34,419,3075879,3033140001,Bushwick South                                                             
